{"K12-U010": {"stop": "K12-U010", "name_en": "Tai Po Market Station", "name_tc": "å¤§åå¢ç«", "name_sc": "å¤§åå¢ç«", "lat": "22.444414", "long": "114.169471", "routes": [{"ID": "mtrbusK12O1", "i": 0}]}, "K12-U020": {"stop": "K12-U020", "name_en": "Tai Po Mega Mall", "name_tc": "å¤§åè¶ç´å", "name_sc": "å¤§åè¶ç´å", "lat": "22.450971", "long": "114.169957", "routes": [{"ID": "mtrbusK12O1", "i": 1}]}, "K12-U030": {"stop": "K12-U030", "name_en": "Eightland Garden", "name_tc": "å«èè±å", "name_sc": "å«èè±å", "lat": "22.452836", "long": "114.166496", "routes": [{"ID": "mtrbusK12O1", "i": 2}]}, "K12-D010": {"stop": "K12-D010", "name_en": "Eightland Garden", "name_tc": "å«èè±å", "name_sc": "å«èè±å", "lat": "22.452836", "long": "114.166496", "routes": [{"ID": "mtrbusK12I1", "i": 0}]}, "K12-D020": {"stop": "K12-D020", "name_en": "Tai Po Mega Mall", "name_tc": "å¤§åè¶ç´å", "name_sc": "å¤§åè¶ç´å", "lat": "22.451278", "long": "114.170087", "routes": [{"ID": "mtrbusK12I1", "i": 1}]}, "K12-D030": {"stop": "K12-D030", "name_en": "Uptown Plaza", "name_tc": "æ°éå»£å ´", "name_sc": "æ°éå»£å ´", "lat": "22.443712", "long": "114.16991", "routes": [{"ID": "mtrbusK12I1", "i": 2}]}, "K12-D040": {"stop": "K12-D040", "name_en": "Tai Po Market Station", "name_tc": "å¤§åå¢ç«", "name_sc": "å¤§åå¢ç«", "lat": "22.444414", "long": "114.169471", "routes": [{"ID": "mtrbusK12I1", "i": 3}]}, "K14-D010": {"stop": "K14-D010", "name_en": "Tai Po Mega Mall", "name_tc": "å¤§åè¶ç´å", "name_sc": "å¤§åè¶ç´å", "lat": "22.451278", "long": "114.170087", "routes": [{"ID": "mtrbusK14O1", "i": 0}]}, "K14-D020": {"stop": "K14-D020", "name_en": "Uptown Plaza", "name_tc": "æ°éå»£å ´", "name_sc": "æ°éå»£å ´", "lat": "22.443712", "long": "114.16991", "routes": [{"ID": "mtrbusK14O1", "i": 1}]}, "K14-D030": {"stop": "K14-D030", "name_en": "Tai Po Market Station", "name_tc": "å¤§åå¢ç«", "name_sc": "å¤§åå¢ç«", "lat": "22.444414", "long": "114.169471", "routes": [{"ID": "mtrbusK14O1", "i": 2}]}, "K17-U010": {"stop": "K17-U010", "name_en": "Tai Po Market Station", "name_tc": "å¤§åå¢ç«", "name_sc": "å¤§åå¢ç«", "lat": "22.444414", "long": "114.169471", "routes": [{"ID": "mtrbusK17O1", "i": 0}]}, "K17-U020": {"stop": "K17-U020", "name_en": "Tai Po Centre Phase 5", "name_tc": "å¤§åä¸­å¿ç¬¬äºæ", "name_sc": "å¤§åä¸­å¿ç¬¬äºæ", "lat": "22.453021", "long": "114.172331", "routes": [{"ID": "mtrbusK17O1", "i": 1}]}, "K17-U030": {"stop": "K17-U030", "name_en": "Yee Nga Court", "name_tc": "æ¡éè", "name_sc": "æ¡éè", "lat": "22.454538", "long": "114.174428", "routes": [{"ID": "mtrbusK17O1", "i": 2}]}, "K17-U040": {"stop": "K17-U040", "name_en": "Fu Shin", "name_tc": "å¯å", "name_sc": "å¯å", "lat": "22.454322", "long": "114.174098", "routes": [{"ID": "mtrbusK17O1", "i": 3}]}, "K17-D010": {"stop": "K17-D010", "name_en": "Fu Shin", "name_tc": "å¯å", "name_sc": "å¯å", "lat": "22.454322", "long": "114.174098", "routes": [{"ID": "mtrbusK17I1", "i": 0}]}, "K17-D020": {"stop": "K17-D020", "name_en": "Uptown Plaza", "name_tc": "æ°éå»£å ´", "name_sc": "æ°éå»£å ´", "lat": "22.443712", "long": "114.16991", "routes": [{"ID": "mtrbusK17I1", "i": 1}]}, "K17-D030": {"stop": "K17-D030", "name_en": "Tai Po Market Station", "name_tc": "å¤§åå¢ç«", "name_sc": "å¤§åå¢ç«", "lat": "22.444414", "long": "114.169471", "routes": [{"ID": "mtrbusK17I1", "i": 2}]}, "K18-U010": {"stop": "K18-U010", "name_en": "Tai Po Market Station", "name_tc": "å¤§åå¢ç«", "name_sc": "å¤§åå¢ç«", "lat": "22.444414", "long": "114.169471", "routes": [{"ID": "mtrbusK18O1", "i": 0}]}, "K18-U020": {"stop": "K18-U020", "name_en": "Wang Fuk Court", "name_tc": "å®ç¦è", "name_sc": "å®ç¦è", "lat": "22.447531", "long": "114.17473", "routes": [{"ID": "mtrbusK18O1", "i": 1}]}, "K18-U030": {"stop": "K18-U030", "name_en": "Kwong Fuk", "name_tc": "å»£ç¦", "name_sc": "å»£ç¦", "lat": "22.4487", "long": "114.174398", "routes": [{"ID": "mtrbusK18O1", "i": 2}]}, "K18-D010": {"stop": "K18-D010", "name_en": "Kwong Fuk", "name_tc": "å»£ç¦", "name_sc": "å»£ç¦", "lat": "22.4487", "long": "114.174398", "routes": [{"ID": "mtrbusK18I1", "i": 0}]}, "K18-D020": {"stop": "K18-D020", "name_en": "Uptown Plaza", "name_tc": "æ°éå»£å ´", "name_sc": "æ°éå»£å ´", "lat": "22.443712", "long": "114.16991", "routes": [{"ID": "mtrbusK18I1", "i": 1}]}, "K18-D030": {"stop": "K18-D030", "name_en": "Tai Po Market Station", "name_tc": "å¤§åå¢ç«", "name_sc": "å¤§åå¢ç«", "lat": "22.444414", "long": "114.169471", "routes": [{"ID": "mtrbusK18I1", "i": 2}]}, "506-U010": {"stop": "506-U010", "name_en": "Tuen Mun Ferry Pier", "name_tc": "å±¯éç¢¼é ­", "name_sc": "å±¯éç¢¼é ­", "lat": "22.372986", "long": "113.966502", "routes": [{"ID": "mtrbus506O1", "i": 0}]}, "506-U020": {"stop": "506-U020", "name_en": "Melody Garden", "name_tc": "ç¾æ¨è±å", "name_sc": "ç¾æ¨è±å", "lat": "22.375834", "long": "113.960628", "routes": [{"ID": "mtrbus506O1", "i": 1}]}, "506-U030": {"stop": "506-U030", "name_en": "LR Butterfly Stop", "name_tc": "è¼éµè´è¶ç«", "name_sc": "è¼éµè´è¶ç«", "lat": "22.378364", "long": "113.961965", "routes": [{"ID": "mtrbus506O1", "i": 2}]}, "506-U040": {"stop": "506-U040", "name_en": "Light Rail Depot Stop", "name_tc": "è¼éµè»å» ç«", "name_sc": "è¼éµè»å» ç«", "lat": "22.382203", "long": "113.96359", "routes": [{"ID": "mtrbus506O1", "i": 3}]}, "506-U050": {"stop": "506-U050", "name_en": "LR Lung Mun Stop", "name_tc": "è¼éµé¾éç«", "name_sc": "è¼éµé¾éç«", "lat": "22.385399", "long": "113.965222", "routes": [{"ID": "mtrbus506O1", "i": 4}]}, "506-U060": {"stop": "506-U060", "name_en": "LR Tsing Wun Stop", "name_tc": "è¼éµéé²ç«", "name_sc": "è¼éµéé²ç«", "lat": "22.393627", "long": "113.96752", "routes": [{"ID": "mtrbus506O1", "i": 5}]}, "506-U070": {"stop": "506-U070", "name_en": "LR Kin On Stop", "name_tc": "è¼éµå»ºå®ç«", "name_sc": "è¼éµå»ºå®ç«", "lat": "22.395064", "long": "113.969953", "routes": [{"ID": "mtrbus506O1", "i": 6}]}, "506-U080": {"stop": "506-U080", "name_en": "MTR Tuen Mun Station", "name_tc": "æ¸¯éµå±¯éç«", "name_sc": "æ¸¯éµå±¯éç«", "lat": "22.394117", "long": "113.973992", "routes": [{"ID": "mtrbus506O1", "i": 7}]}, "506-U090": {"stop": "506-U090", "name_en": "Tuen Mun Town Centre", "name_tc": "å±¯éå¸ä¸­å¿", "name_sc": "å±¯éå¸ä¸­å¿", "lat": "22.391352", "long": "113.975474", "routes": [{"ID": "mtrbus506O1", "i": 8}]}, "506-U100": {"stop": "506-U100", "name_en": "On Ting Estate", "name_tc": "å®å®é¨", "name_sc": "å®å®é¨", "lat": "22.387312", "long": "113.975341", "routes": [{"ID": "mtrbus506O1", "i": 9}]}, "506-U110": {"stop": "506-U110", "name_en": "LR Sam Shing Stop", "name_tc": "è¼éµä¸èç«", "name_sc": "è¼éµä¸èç«", "lat": "22.382916", "long": "113.976276", "routes": [{"ID": "mtrbus506O1", "i": 10}]}, "506-U120": {"stop": "506-U120", "name_en": "Siu Lun", "name_tc": "åéº", "name_sc": "åéº", "lat": "22.38551", "long": "113.9767", "routes": [{"ID": "mtrbus506O1", "i": 11}]}, "506-D010": {"stop": "506-D010", "name_en": "Siu Lun", "name_tc": "åéº", "name_sc": "åéº", "lat": "22.38551", "long": "113.9767", "routes": [{"ID": "mtrbus506I1", "i": 0}]}, "506-D020": {"stop": "506-D020", "name_en": "Yau Oi Estate", "name_tc": "åæé¨", "name_sc": "åæé¨", "lat": "22.387783", "long": "113.975189", "routes": [{"ID": "mtrbus506I1", "i": 1}]}, "506-D030": {"stop": "506-D030", "name_en": "LR Town Centre Stop", "name_tc": "è¼éµå¸ä¸­å¿ç«", "name_sc": "è¼éµå¸ä¸­å¿ç«", "lat": "22.392125", "long": "113.975128", "routes": [{"ID": "mtrbus506I1", "i": 2}]}, "506-D040": {"stop": "506-D040", "name_en": "LR Tuen Mun Stop (MTR Tuen Mun Station)", "name_tc": "è¼éµå±¯éç« (æ¸¯éµå±¯éç«)", "name_sc": "è¼éµå±¯éç« (æ¸¯éµå±¯éç«)", "lat": "22.393937", "long": "113.973896", "routes": [{"ID": "mtrbus506I1", "i": 3}]}, "506-D050": {"stop": "506-D050", "name_en": "LR Kin On Stop", "name_tc": "è¼éµå»ºå®ç«", "name_sc": "è¼éµå»ºå®ç«", "lat": "22.394687", "long": "113.970746", "routes": [{"ID": "mtrbus506I1", "i": 4}]}, "506-D060": {"stop": "506-D060", "name_en": "LR Tsing Wun Stop", "name_tc": "è¼éµéé²ç«", "name_sc": "è¼éµéé²ç«", "lat": "22.393382", "long": "113.967707", "routes": [{"ID": "mtrbus506I1", "i": 5}]}, "506-D070": {"stop": "506-D070", "name_en": "SKH St. Peter's Church", "name_tc": "èå½¼å¾å ", "name_sc": "èå½¼å¾å ", "lat": "22.391722", "long": "113.967726", "routes": [{"ID": "mtrbus506I1", "i": 6}]}, "506-D080": {"stop": "506-D080", "name_en": "Glorious Garden", "name_tc": "å¯å¥è±å", "name_sc": "å¯å¥è±å", "lat": "22.383618", "long": "113.964478", "routes": [{"ID": "mtrbus506I1", "i": 7}]}, "506-D090": {"stop": "506-D090", "name_en": "Sun Tuen Mun Centre", "name_tc": "æ°å±¯éä¸­å¿", "name_sc": "æ°å±¯éä¸­å¿", "lat": "22.382269", "long": "113.963833", "routes": [{"ID": "mtrbus506I1", "i": 8}]}, "506-D100": {"stop": "506-D100", "name_en": "LR Butterfly Stop", "name_tc": "è¼éµè´è¶ç«", "name_sc": "è¼éµè´è¶ç«", "lat": "22.377547", "long": "113.961481", "routes": [{"ID": "mtrbus506I1", "i": 9}]}, "506-D110": {"stop": "506-D110", "name_en": "Tip Sum House, Butterfly Estate", "name_tc": "è´è¶é¨è¶å¿æ¨", "name_sc": "è´è¶é¨è¶å¿æ¨", "lat": "22.374219", "long": "113.962106", "routes": [{"ID": "mtrbus506I1", "i": 10}]}, "506-D120": {"stop": "506-D120", "name_en": "Wu Pik House, Wu King Estate", "name_tc": "æ¹æ¯é¨æ¹ç¢§æ¨", "name_sc": "æ¹æ¯é¨æ¹ç¢§æ¨", "lat": "22.373549", "long": "113.964341", "routes": [{"ID": "mtrbus506I1", "i": 11}]}, "506-D130": {"stop": "506-D130", "name_en": "Pierhead Garden", "name_tc": "æµ·ç¿ è±å", "name_sc": "æµ·ç¿ è±å", "lat": "22.373192", "long": "113.966053", "routes": [{"ID": "mtrbus506I1", "i": 12}]}, "506-U011": {"stop": "506-U011", "name_en": "Tuen Mun Ferry Pier", "name_tc": "å±¯éç¢¼é ­", "name_sc": "å±¯éç¢¼é ­", "lat": "22.372986", "long": "113.966502", "routes": [{"ID": "mtrbus506I1", "i": 13}]}, "K51-U010": {"stop": "K51-U010", "name_en": "Fu Tai", "name_tc": "å¯æ³°", "name_sc": "å¯æ³°", "lat": "22.413286", "long": "113.982895", "routes": [{"ID": "mtrbusK51O1", "i": 0}]}, "K51-U020": {"stop": "K51-U020", "name_en": "Beneville", "name_tc": "èåº·å±±è", "name_sc": "èåº·å±±è", "lat": "22.412025", "long": "113.983771", "routes": [{"ID": "mtrbusK51O1", "i": 1}]}, "K51-U030": {"stop": "K51-U030", "name_en": "Lingnan University", "name_tc": "å¶ºåå¤§å­¸", "name_sc": "å¶ºåå¤§å­¸", "lat": "22.41059", "long": "113.982387", "routes": [{"ID": "mtrbusK51O1", "i": 2}]}, "K51-U040": {"stop": "K51-U040", "name_en": "Brilliant Garden", "name_tc": "å½©æè±å", "name_sc": "å½©æè±å", "lat": "22.408575", "long": "113.980046", "routes": [{"ID": "mtrbusK51O1", "i": 3}]}, "K51-U050": {"stop": "K51-U050", "name_en": "MTR Siu Hong Station (South) (LR Siu Hong Stop)", "name_tc": "æ¸¯éµååº·ç« (å) (è¼éµååº·ç«)", "name_sc": "æ¸¯éµååº·ç« (å) (è¼éµååº·ç«)", "lat": "22.410247", "long": "113.978583", "routes": [{"ID": "mtrbusK51O1", "i": 4}]}, "K51-U060": {"stop": "K51-U060", "name_en": "Tseng Choi Street", "name_tc": "äºè²¡è¡", "name_sc": "äºè²¡è¡", "lat": "22.40205", "long": "113.9776", "routes": [{"ID": "mtrbusK51O1", "i": 5}]}, "K51-U070": {"stop": "K51-U070", "name_en": "ACME Shopping Arcade", "name_tc": "éé½åå ´", "name_sc": "éé½åå ´", "lat": "22.39834", "long": "113.9752", "routes": [{"ID": "mtrbusK51O1", "i": 6}]}, "K51-U080": {"stop": "K51-U080", "name_en": "Tak Ching Court (MTR Tuen Mun Station)", "name_tc": "å¾·æ¿å (æ¸¯éµå±¯éç«)", "name_sc": "å¾·æ¿å (æ¸¯éµå±¯éç«)", "lat": "22.39494", "long": "113.9746", "routes": [{"ID": "mtrbusK51O1", "i": 7}]}, "K51-U090": {"stop": "K51-U090", "name_en": "Tuen Mun Town Centre (LR Town Centre Stop)", "name_tc": "å±¯éå¸ä¸­å¿ (è¼éµå¸ä¸­å¿ç«)", "name_sc": "å±¯éå¸ä¸­å¿ (è¼éµå¸ä¸­å¿ç«)", "lat": "22.39153", "long": "113.9755", "routes": [{"ID": "mtrbusK51O1", "i": 8}]}, "K51-U100": {"stop": "K51-U100", "name_en": "Tuen Mun Government Secondary School", "name_tc": "å±¯éå®ç«ä¸­å­¸", "name_sc": "å±¯éå®ç«ä¸­å­¸", "lat": "22.3906", "long": "113.9788", "routes": [{"ID": "mtrbusK51O1", "i": 9}]}, "K51-U110": {"stop": "K51-U110", "name_en": "Handsome Court", "name_tc": "æé å", "name_sc": "æé å", "lat": "22.38771", "long": "113.9807", "routes": [{"ID": "mtrbusK51O1", "i": 10}]}, "K51-U120": {"stop": "K51-U120", "name_en": "Harvest Garden", "name_tc": "æè±å", "name_sc": "æè±å", "lat": "22.38519", "long": "113.981", "routes": [{"ID": "mtrbusK51O1", "i": 11}]}, "K51-U130": {"stop": "K51-U130", "name_en": "Sam Shing Estate", "name_tc": "ä¸èé¨", "name_sc": "ä¸èé¨", "lat": "22.381748", "long": "113.978862", "routes": [{"ID": "mtrbusK51O1", "i": 12}]}, "K51-U140": {"stop": "K51-U140", "name_en": "Castle Peak Beach", "name_tc": "éå±±ç£", "name_sc": "éå±±ç£", "lat": "22.378898", "long": "113.980751", "routes": [{"ID": "mtrbusK51O1", "i": 13}]}, "K51-U150": {"stop": "K51-U150", "name_en": "Seaview Garden", "name_tc": "æµ·æ¯è±å", "name_sc": "æµ·æ¯è±å", "lat": "22.377938", "long": "113.983475", "routes": [{"ID": "mtrbusK51O1", "i": 14}]}, "K51-U160": {"stop": "K51-U160", "name_en": "Cafeteria Beach", "name_tc": "åå¡ç£", "name_sc": "åå¡ç£", "lat": "22.374926", "long": "113.986745", "routes": [{"ID": "mtrbusK51O1", "i": 15}]}, "K51-U170": {"stop": "K51-U170", "name_en": "Golden Beach", "name_tc": "é»éæ³³ç", "name_sc": "é»éæ³³ç", "lat": "22.373784", "long": "113.990756", "routes": [{"ID": "mtrbusK51O1", "i": 16}]}, "K51-U180": {"stop": "K51-U180", "name_en": "Hong Kong Gold Coast", "name_tc": "é¦æ¸¯é»éæµ·å²¸", "name_sc": "é¦æ¸¯é»éæµ·å²¸", "lat": "22.372025", "long": "113.993574", "routes": [{"ID": "mtrbusK51O1", "i": 17}]}, "K51-U190": {"stop": "K51-U190", "name_en": "Kar Wo Lei Tsuen", "name_tc": "åç¦¾éæ", "name_sc": "åç¦¾éæ", "lat": "22.36945", "long": "113.9954", "routes": [{"ID": "mtrbusK51O1", "i": 18}]}, "K51-U200": {"stop": "K51-U200", "name_en": "Siu Sau Tsuen", "name_tc": "å°ç§æ", "name_sc": "å°ç§æ", "lat": "22.36817", "long": "113.9991", "routes": [{"ID": "mtrbusK51O1", "i": 19}]}, "K51-U210": {"stop": "K51-U210", "name_en": "The Aegean", "name_tc": "æç´ç£", "name_sc": "æç´ç£", "lat": "22.36627", "long": "114.0033", "routes": [{"ID": "mtrbusK51O1", "i": 20}]}, "K51-U220": {"stop": "K51-U220", "name_en": "Siu Lam San Tsuen", "name_tc": "å°æ¬æ°æ", "name_sc": "å°æ¬æ°æ", "lat": "22.36638", "long": "114.0063", "routes": [{"ID": "mtrbusK51O1", "i": 21}]}, "K51-U230": {"stop": "K51-U230", "name_en": "Siu Lam Tsuen", "name_tc": "å°æ¬æ", "name_sc": "å°æ¬æ", "lat": "22.3663", "long": "114.0113", "routes": [{"ID": "mtrbusK51O1", "i": 22}]}, "K51-U240": {"stop": "K51-U240", "name_en": "Ching Lai Road Siu Lam", "name_tc": "å°æ¬æ¾éºè·¯", "name_sc": "å°æ¬æ¾éºè·¯", "lat": "22.36497", "long": "114.0133", "routes": [{"ID": "mtrbusK51O1", "i": 23}]}, "K51-U250": {"stop": "K51-U250", "name_en": "Tai Lam", "name_tc": "å¤§æ¬", "name_sc": "å¤§æ¬", "lat": "22.362495", "long": "114.019113", "routes": [{"ID": "mtrbusK51O1", "i": 24}]}, "K51-D010": {"stop": "K51-D010", "name_en": "Tai Lam", "name_tc": "å¤§æ¬", "name_sc": "å¤§æ¬", "lat": "22.362495", "long": "114.019113", "routes": [{"ID": "mtrbusK51I1", "i": 0}]}, "K51-D020": {"stop": "K51-D020", "name_en": "Siu Lam", "name_tc": "å°æ¬", "name_sc": "å°æ¬", "lat": "22.364165", "long": "114.014994", "routes": [{"ID": "mtrbusK51I1", "i": 1}]}, "K51-D030": {"stop": "K51-D030", "name_en": "Ching Lai Road Siu Lam", "name_tc": "å°æ¬æ¾éºè·¯", "name_sc": "å°æ¬æ¾éºè·¯", "lat": "22.365696", "long": "114.01244", "routes": [{"ID": "mtrbusK51I1", "i": 2}]}, "K51-D040": {"stop": "K51-D040", "name_en": "Siu Lam Tsuen", "name_tc": "å°æ¬æ", "name_sc": "å°æ¬æ", "lat": "22.366338", "long": "114.00949", "routes": [{"ID": "mtrbusK51I1", "i": 3}]}, "K51-D050": {"stop": "K51-D050", "name_en": "Siu Lam San Tsuen", "name_tc": "å°æ¬æ°æ", "name_sc": "å°æ¬æ°æ", "lat": "22.366102", "long": "114.005524", "routes": [{"ID": "mtrbusK51I1", "i": 4}]}, "K51-D060": {"stop": "K51-D060", "name_en": "The Aegean", "name_tc": "æç´ç£", "name_sc": "æç´ç£", "lat": "22.366573", "long": "114.001616", "routes": [{"ID": "mtrbusK51I1", "i": 5}]}, "K51-D070": {"stop": "K51-D070", "name_en": "Siu Sau Sheung Tsuen", "name_tc": "å°ç§ä¸æ", "name_sc": "å°ç§ä¸æ", "lat": "22.368003", "long": "113.999085", "routes": [{"ID": "mtrbusK51I1", "i": 6}]}, "K51-D080": {"stop": "K51-D080", "name_en": "Pearl Island", "name_tc": "é¾ç å³¶", "name_sc": "é¾ç å³¶", "lat": "22.368035", "long": "113.996264", "routes": [{"ID": "mtrbusK51I1", "i": 7}]}, "K51-D090": {"stop": "K51-D090", "name_en": "Hong Kong Gold Coast", "name_tc": "é¦æ¸¯é»éæµ·å²¸", "name_sc": "é¦æ¸¯é»éæµ·å²¸", "lat": "22.371285", "long": "113.993882", "routes": [{"ID": "mtrbusK51I1", "i": 8}]}, "K51-D100": {"stop": "K51-D100", "name_en": "Golden Beach", "name_tc": "é»éæ³³ç", "name_sc": "é»éæ³³ç", "lat": "22.373628", "long": "113.991213", "routes": [{"ID": "mtrbusK51I1", "i": 9}]}, "K51-D110": {"stop": "K51-D110", "name_en": "Cafeteria Beach", "name_tc": "åå¡ç£", "name_sc": "åå¡ç£", "lat": "22.3759", "long": "113.985635", "routes": [{"ID": "mtrbusK51I1", "i": 10}]}, "K51-D120": {"stop": "K51-D120", "name_en": "Bayview Terrace", "name_tc": "ç¢§ç¿ è±å", "name_sc": "ç¢§ç¿ è±å", "lat": "22.377927", "long": "113.983242", "routes": [{"ID": "mtrbusK51I1", "i": 11}]}, "K51-D130": {"stop": "K51-D130", "name_en": "Castle Peak Bay Pier", "name_tc": "éå±±ç£ç¢¼é ­", "name_sc": "éå±±ç£ç¢¼é ­", "lat": "22.378957", "long": "113.980602", "routes": [{"ID": "mtrbusK51I1", "i": 12}]}, "K51-D140": {"stop": "K51-D140", "name_en": "Sam Shing Estate", "name_tc": "ä¸èé¨", "name_sc": "ä¸èé¨", "lat": "22.381214", "long": "113.979092", "routes": [{"ID": "mtrbusK51I1", "i": 13}]}, "K51-D150": {"stop": "K51-D150", "name_en": "Hanford Garden (LR Sam Shing Stop)", "name_tc": "æç¦è±å (è¼éµä¸èç«)", "name_sc": "æç¦è±å (è¼éµä¸èç«)", "lat": "22.382064", "long": "113.977151", "routes": [{"ID": "mtrbusK51I1", "i": 14}]}, "K51-D160": {"stop": "K51-D160", "name_en": "Mrs Aw Boon Haw Secondary School", "name_tc": "è¡é³éæä¸­å­¸", "name_sc": "è¡é³éæä¸­å­¸", "lat": "22.383774", "long": "113.97939", "routes": [{"ID": "mtrbusK51I1", "i": 15}]}, "K51-D170": {"stop": "K51-D170", "name_en": "Tsing Sin Playground", "name_tc": "éåéæ¨å ´", "name_sc": "éåéæ¨å ´", "lat": "22.384602", "long": "113.980638", "routes": [{"ID": "mtrbusK51I1", "i": 16}]}, "K51-D180": {"stop": "K51-D180", "name_en": "Chi Lok Fa Yuen", "name_tc": "ç½®æ¨è±å", "name_sc": "ç½®æ¨è±å", "lat": "22.387355", "long": "113.98069", "routes": [{"ID": "mtrbusK51I1", "i": 17}]}, "K51-D190": {"stop": "K51-D190", "name_en": "Tuen Mun Government Secondary School", "name_tc": "å±¯éå®ç«ä¸­å­¸", "name_sc": "å±¯éå®ç«ä¸­å­¸", "lat": "22.390433", "long": "113.978805", "routes": [{"ID": "mtrbusK51I1", "i": 18}]}, "K51-D200": {"stop": "K51-D200", "name_en": "LR Town Centre Stop", "name_tc": "è¼éµå¸ä¸­å¿ç«", "name_sc": "è¼éµå¸ä¸­å¿ç«", "lat": "22.392116", "long": "113.975082", "routes": [{"ID": "mtrbusK51I1", "i": 19}]}, "K51-D210": {"stop": "K51-D210", "name_en": "MTR Tuen Mun Station (LR Tuen Mun Stop)", "name_tc": "æ¸¯éµå±¯éç« (è¼éµå±¯éç«)", "name_sc": "æ¸¯éµå±¯éç« (è¼éµå±¯éç«)", "lat": "22.395021", "long": "113.974444", "routes": [{"ID": "mtrbusK51I1", "i": 20}]}, "K51-D220": {"stop": "K51-D220", "name_en": "SKH St. Simon's Lui Ming Choi Secondary School", "name_tc": "èå¬æèè¥¿éåææä¸­å­¸", "name_sc": "èå¬æèè¥¿éåææä¸­å­¸", "lat": "22.397311", "long": "113.974853", "routes": [{"ID": "mtrbusK51I1", "i": 21}]}, "K51-D230": {"stop": "K51-D230", "name_en": "Prime View Garden", "name_tc": "æ¯å³°è±å", "name_sc": "æ¯å³°è±å", "lat": "22.40334", "long": "113.979247", "routes": [{"ID": "mtrbusK51I1", "i": 22}]}, "K51-D240": {"stop": "K51-D240", "name_en": "LR Fung Tei Stop", "name_tc": "è¼éµé³³å°ç«", "name_sc": "è¼éµé³³å°ç«", "lat": "22.407254", "long": "113.978641", "routes": [{"ID": "mtrbusK51I1", "i": 23}]}, "K51-D250": {"stop": "K51-D250", "name_en": "MTR Siu Hong Station (South) (LR Siu Hong Stop)", "name_tc": "æ¸¯éµååº·ç« (å) (è¼éµååº·ç«)", "name_sc": "æ¸¯éµååº·ç« (å) (è¼éµååº·ç«)", "lat": "22.410378", "long": "113.978607", "routes": [{"ID": "mtrbusK51I1", "i": 24}]}, "K51-D260": {"stop": "K51-D260", "name_en": "Brilliant Garden", "name_tc": "å½©æè±å", "name_sc": "å½©æè±å", "lat": "22.408779", "long": "113.980397", "routes": [{"ID": "mtrbusK51I1", "i": 25}]}, "K51-D270": {"stop": "K51-D270", "name_en": "Lingnan University", "name_tc": "å¶ºåå¤§å­¸", "name_sc": "å¶ºåå¤§å­¸", "lat": "22.410694", "long": "113.982212", "routes": [{"ID": "mtrbusK51I1", "i": 26}]}, "K51-D280": {"stop": "K51-D280", "name_en": "South Hillcrest", "name_tc": "åå¶ºååº­", "name_sc": "åå¶ºååº­", "lat": "22.411927", "long": "113.983128", "routes": [{"ID": "mtrbusK51I1", "i": 27}]}, "K51-D290": {"stop": "K51-D290", "name_en": "Fu Tai", "name_tc": "å¯æ³°", "name_sc": "å¯æ³°", "lat": "22.413286", "long": "113.982895", "routes": [{"ID": "mtrbusK51I1", "i": 28}]}, "K51A-U010": {"stop": "K51A-U010", "name_en": "Fu Tai", "name_tc": "å¯æ³°", "name_sc": "å¯æ³°", "lat": "22.413286", "long": "113.982895", "routes": [{"ID": "mtrbusK51AO1", "i": 0}]}, "K51A-U020": {"stop": "K51A-U020", "name_en": "Beneville", "name_tc": "èåº·å±±è", "name_sc": "èåº·å±±è", "lat": "22.412025", "long": "113.983771", "routes": [{"ID": "mtrbusK51AO1", "i": 1}]}, "K51A-U030": {"stop": "K51A-U030", "name_en": "Lingnan University", "name_tc": "å¶ºåå¤§å­¸", "name_sc": "å¶ºåå¤§å­¸", "lat": "22.41059", "long": "113.982387", "routes": [{"ID": "mtrbusK51AO1", "i": 2}]}, "K51A-U040": {"stop": "K51A-U040", "name_en": "Brilliant Garden", "name_tc": "å½©æè±å", "name_sc": "å½©æè±å", "lat": "22.408575", "long": "113.980046", "routes": [{"ID": "mtrbusK51AO1", "i": 3}]}, "K51A-U050": {"stop": "K51A-U050", "name_en": "MTR Siu Hong Station (South) (LR Siu Hong Stop)", "name_tc": "æ¸¯éµååº·ç« (å) (è¼éµååº·ç«)", "name_sc": "æ¸¯éµååº·ç« (å) (è¼éµååº·ç«)", "lat": "22.410247", "long": "113.978583", "routes": [{"ID": "mtrbusK51AO1", "i": 4}]}, "K51A-U060": {"stop": "K51A-U060", "name_en": "Tseng Choi Street", "name_tc": "äºè²¡è¡", "name_sc": "äºè²¡è¡", "lat": "22.40205", "long": "113.9776", "routes": [{"ID": "mtrbusK51AO1", "i": 5}]}, "K51A-U070": {"stop": "K51A-U070", "name_en": "ACME Shopping Arcade", "name_tc": "éé½åå ´", "name_sc": "éé½åå ´", "lat": "22.39834", "long": "113.9752", "routes": [{"ID": "mtrbusK51AO1", "i": 6}]}, "K51A-U080": {"stop": "K51A-U080", "name_en": "Tak Ching Court (MTR Tuen Mun Station)", "name_tc": "å¾·æ¿å (æ¸¯éµå±¯éç«)", "name_sc": "å¾·æ¿å (æ¸¯éµå±¯éç«)", "lat": "22.39494", "long": "113.9746", "routes": [{"ID": "mtrbusK51AO1", "i": 7}]}, "K51A-U090": {"stop": "K51A-U090", "name_en": "Tuen Mun Town Centre (LR Town Centre Stop)", "name_tc": "å±¯éå¸ä¸­å¿ (è¼éµå¸ä¸­å¿ç«)", "name_sc": "å±¯éå¸ä¸­å¿ (è¼éµå¸ä¸­å¿ç«)", "lat": "22.39153", "long": "113.9755", "routes": [{"ID": "mtrbusK51AO1", "i": 8}]}, "K51A-U100": {"stop": "K51A-U100", "name_en": "Tuen Mun Government Secondary School", "name_tc": "å±¯éå®ç«ä¸­å­¸", "name_sc": "å±¯éå®ç«ä¸­å­¸", "lat": "22.3906", "long": "113.9788", "routes": [{"ID": "mtrbusK51AO1", "i": 9}]}, "K51A-U110": {"stop": "K51A-U110", "name_en": "Handsome Court", "name_tc": "æé å", "name_sc": "æé å", "lat": "22.38771", "long": "113.9807", "routes": [{"ID": "mtrbusK51AO1", "i": 10}]}, "K51A-U120": {"stop": "K51A-U120", "name_en": "Harvest Garden", "name_tc": "æè±å", "name_sc": "æè±å", "lat": "22.38519", "long": "113.981", "routes": [{"ID": "mtrbusK51AO1", "i": 11}]}, "K51A-U130": {"stop": "K51A-U130", "name_en": "Sam Shing Estate", "name_tc": "ä¸èé¨", "name_sc": "ä¸èé¨", "lat": "22.381748", "long": "113.978862", "routes": [{"ID": "mtrbusK51AO1", "i": 12}]}, "K51A-U140": {"stop": "K51A-U140", "name_en": "Castle Peak Beach", "name_tc": "éå±±ç£", "name_sc": "éå±±ç£", "lat": "22.378898", "long": "113.980751", "routes": [{"ID": "mtrbusK51AO1", "i": 13}]}, "K51A-U150": {"stop": "K51A-U150", "name_en": "Seaview Garden", "name_tc": "æµ·æ¯è±å", "name_sc": "æµ·æ¯è±å", "lat": "22.377938", "long": "113.983475", "routes": [{"ID": "mtrbusK51AO1", "i": 14}]}, "K51A-U160": {"stop": "K51A-U160", "name_en": "Cafeteria Beach", "name_tc": "åå¡ç£", "name_sc": "åå¡ç£", "lat": "22.374926", "long": "113.986745", "routes": [{"ID": "mtrbusK51AO1", "i": 15}]}, "K51A-U170": {"stop": "K51A-U170", "name_en": "Golden Beach", "name_tc": "é»éæ³³ç", "name_sc": "é»éæ³³ç", "lat": "22.373784", "long": "113.990756", "routes": [{"ID": "mtrbusK51AO1", "i": 16}]}, "K51A-U180": {"stop": "K51A-U180", "name_en": "Hong Kong Gold Coast", "name_tc": "é¦æ¸¯é»éæµ·å²¸", "name_sc": "é¦æ¸¯é»éæµ·å²¸", "lat": "22.372025", "long": "113.993574", "routes": [{"ID": "mtrbusK51AO1", "i": 17}]}, "K51A-U190": {"stop": "K51A-U190", "name_en": "Aegean Coast", "name_tc": "æç´æµ·å²¸", "name_sc": "æç´æµ·å²¸", "lat": "22.371605", "long": "113.9954", "routes": [{"ID": "mtrbusK51AO1", "i": 18}]}, "K51A-U200": {"stop": "K51A-U200", "name_en": "So Kwun Wat Sub-station", "name_tc": "æç®¡ç¬è®é»ç«", "name_sc": "æç®¡ç¬è®é»ç«", "lat": "22.373878", "long": "113.996144", "routes": [{"ID": "mtrbusK51AO1", "i": 19}]}, "K51A-U210": {"stop": "K51A-U210", "name_en": "So Kwun Wat Tsuen", "name_tc": "æç®¡ç¬æ", "name_sc": "æç®¡ç¬æ", "lat": "22.375743", "long": "113.999829", "routes": [{"ID": "mtrbusK51AO1", "i": 20}]}, "K51A-U220": {"stop": "K51A-U220", "name_en": "So Kwun Wat (Mrs. Cheng Yam On Millennium School)", "name_tc": "æç®¡ç¬ (é­ä»»å®å¤«äººåç¦§å°å­¸)", "name_sc": "æç®¡ç¬ (é­ä»»å®å¤«äººåç¦§å°å­¸)", "lat": "22.372023", "long": "114.003593", "routes": [{"ID": "mtrbusK51AO1", "i": 21}]}, "K51A-U230": {"stop": "K51A-U230", "name_en": "So Kwun Wat Road", "name_tc": "æç®¡ç¬è·¯", "name_sc": "æç®¡ç¬è·¯", "lat": "22.374216", "long": "114.002295", "routes": [{"ID": "mtrbusK51AO1", "i": 22}]}, "K51A-U240": {"stop": "K51A-U240", "name_en": "18 Kwun Chui Road", "name_tc": "ç®¡ç¿ è·¯18è", "name_sc": "ç®¡ç¿ è·¯18è", "lat": "22.373866", "long": "114.001024", "routes": [{"ID": "mtrbusK51AO1", "i": 23}]}, "K51A-U250": {"stop": "K51A-U250", "name_en": "So Kwun Wat Tsuen", "name_tc": "æç®¡ç¬æ", "name_sc": "æç®¡ç¬æ", "lat": "22.375743", "long": "113.999829", "routes": [{"ID": "mtrbusK51AO1", "i": 24}]}, "K51A-D010": {"stop": "K51A-D010", "name_en": "So Kwun Wat Tsuen", "name_tc": "æç®¡ç¬æ", "name_sc": "æç®¡ç¬æ", "lat": "22.375743", "long": "113.999829", "routes": [{"ID": "mtrbusK51AI1", "i": 0}]}, "K51A-D020": {"stop": "K51A-D020", "name_en": "So Kwun Wat (Mrs. Cheng Yam On Millennium School)", "name_tc": "æç®¡ç¬ (é­ä»»å®å¤«äººåç¦§å°å­¸)", "name_sc": "æç®¡ç¬ (é­ä»»å®å¤«äººåç¦§å°å­¸)", "lat": "22.372023", "long": "114.003593", "routes": [{"ID": "mtrbusK51AI1", "i": 1}]}, "K51A-D030": {"stop": "K51A-D030", "name_en": "So Kwun Wat Road", "name_tc": "æç®¡ç¬è·¯", "name_sc": "æç®¡ç¬è·¯", "lat": "22.374216", "long": "114.002295", "routes": [{"ID": "mtrbusK51AI1", "i": 2}]}, "K51A-D040": {"stop": "K51A-D040", "name_en": "18 Kwun Chui Road", "name_tc": "ç®¡ç¿ è·¯18è", "name_sc": "ç®¡ç¿ è·¯18è", "lat": "22.373866", "long": "114.001024", "routes": [{"ID": "mtrbusK51AI1", "i": 3}]}, "K51A-D050": {"stop": "K51A-D050", "name_en": "Kwun Chui Road", "name_tc": "ç®¡ç¿ è·¯", "name_sc": "ç®¡ç¿ è·¯", "lat": "22.375123", "long": "113.997707", "routes": [{"ID": "mtrbusK51AI1", "i": 4}]}, "K51A-D060": {"stop": "K51A-D060", "name_en": "Aegean Coast", "name_tc": "æç´æµ·å²¸", "name_sc": "æç´æµ·å²¸", "lat": "22.371473", "long": "113.995381", "routes": [{"ID": "mtrbusK51AI1", "i": 5}]}, "K51A-D070": {"stop": "K51A-D070", "name_en": "Hong Kong Gold Coast", "name_tc": "é¦æ¸¯é»éæµ·å²¸", "name_sc": "é¦æ¸¯é»éæµ·å²¸", "lat": "22.371294", "long": "113.993906", "routes": [{"ID": "mtrbusK51AI1", "i": 6}]}, "K51A-D080": {"stop": "K51A-D080", "name_en": "Golden Beach", "name_tc": "é»éæ³³ç", "name_sc": "é»éæ³³ç", "lat": "22.373628", "long": "113.991213", "routes": [{"ID": "mtrbusK51AI1", "i": 7}]}, "K51A-D090": {"stop": "K51A-D090", "name_en": "Cafeteria Beach", "name_tc": "åå¡ç£", "name_sc": "åå¡ç£", "lat": "22.3759", "long": "113.985635", "routes": [{"ID": "mtrbusK51AI1", "i": 8}]}, "K51A-D100": {"stop": "K51A-D100", "name_en": "Bayview Terrace", "name_tc": "ç¢§ç¿ è±å", "name_sc": "ç¢§ç¿ è±å", "lat": "22.377927", "long": "113.983242", "routes": [{"ID": "mtrbusK51AI1", "i": 9}]}, "K51A-D110": {"stop": "K51A-D110", "name_en": "Castle Peak Bay Pier", "name_tc": "éå±±ç£ç¢¼é ­", "name_sc": "éå±±ç£ç¢¼é ­", "lat": "22.378957", "long": "113.980602", "routes": [{"ID": "mtrbusK51AI1", "i": 10}]}, "K51A-D120": {"stop": "K51A-D120", "name_en": "Sam Shing Estate", "name_tc": "ä¸èé¨", "name_sc": "ä¸èé¨", "lat": "22.381214", "long": "113.979092", "routes": [{"ID": "mtrbusK51AI1", "i": 11}]}, "K51A-D140": {"stop": "K51A-D140", "name_en": "Mrs Aw Boon Haw Secondary School", "name_tc": "è¡é³éæä¸­å­¸", "name_sc": "è¡é³éæä¸­å­¸", "lat": "22.383774", "long": "113.97939", "routes": [{"ID": "mtrbusK51AI1", "i": 12}]}, "K51A-D150": {"stop": "K51A-D150", "name_en": "Tsing Sin Playground", "name_tc": "éåéæ¨å ´", "name_sc": "éåéæ¨å ´", "lat": "22.384602", "long": "113.980638", "routes": [{"ID": "mtrbusK51AI1", "i": 13}]}, "K51A-D160": {"stop": "K51A-D160", "name_en": "Chi Lok Fa Yuen", "name_tc": "ç½®æ¨è±å", "name_sc": "ç½®æ¨è±å", "lat": "22.387355", "long": "113.98069", "routes": [{"ID": "mtrbusK51AI1", "i": 14}]}, "K51A-D170": {"stop": "K51A-D170", "name_en": "Tuen Mun Government Secondary School", "name_tc": "å±¯éå®ç«ä¸­å­¸", "name_sc": "å±¯éå®ç«ä¸­å­¸", "lat": "22.390433", "long": "113.978805", "routes": [{"ID": "mtrbusK51AI1", "i": 15}]}, "K51A-D180": {"stop": "K51A-D180", "name_en": "LR Town Centre Stop", "name_tc": "è¼éµå¸ä¸­å¿ç«", "name_sc": "è¼éµå¸ä¸­å¿ç«", "lat": "22.392116", "long": "113.975082", "routes": [{"ID": "mtrbusK51AI1", "i": 16}]}, "K51A-D190": {"stop": "K51A-D190", "name_en": "MTR Tuen Mun Station (LR Tuen Mun Stop)", "name_tc": "æ¸¯éµå±¯éç« (è¼éµå±¯éç«)", "name_sc": "æ¸¯éµå±¯éç« (è¼éµå±¯éç«)", "lat": "22.395021", "long": "113.974444", "routes": [{"ID": "mtrbusK51AI1", "i": 17}]}, "K51A-D200": {"stop": "K51A-D200", "name_en": "SKH St. Simon's Lui Ming Choi Secondary School", "name_tc": "èå¬æèè¥¿éåææä¸­å­¸", "name_sc": "èå¬æèè¥¿éåææä¸­å­¸", "lat": "22.397311", "long": "113.974853", "routes": [{"ID": "mtrbusK51AI1", "i": 18}]}, "K51A-D210": {"stop": "K51A-D210", "name_en": "Prime View Garden", "name_tc": "æ¯å³°è±å", "name_sc": "æ¯å³°è±å", "lat": "22.40334", "long": "113.979247", "routes": [{"ID": "mtrbusK51AI1", "i": 19}]}, "K51A-D220": {"stop": "K51A-D220", "name_en": "LR Fung Tei Stop", "name_tc": "è¼éµé³³å°ç«", "name_sc": "è¼éµé³³å°ç«", "lat": "22.407254", "long": "113.978641", "routes": [{"ID": "mtrbusK51AI1", "i": 20}]}, "K51A-D230": {"stop": "K51A-D230", "name_en": "MTR Siu Hong Station (South) (LR Siu Hong Stop)", "name_tc": "æ¸¯éµååº·ç« (å) (è¼éµååº·ç«)", "name_sc": "æ¸¯éµååº·ç« (å) (è¼éµååº·ç«)", "lat": "22.410378", "long": "113.978607", "routes": [{"ID": "mtrbusK51AI1", "i": 21}]}, "K51A-D240": {"stop": "K51A-D240", "name_en": "Brilliant Garden", "name_tc": "å½©æè±å", "name_sc": "å½©æè±å", "lat": "22.408779", "long": "113.980397", "routes": [{"ID": "mtrbusK51AI1", "i": 22}]}, "K51A-D250": {"stop": "K51A-D250", "name_en": "Lingnan University", "name_tc": "å¶ºåå¤§å­¸", "name_sc": "å¶ºåå¤§å­¸", "lat": "22.410694", "long": "113.982212", "routes": [{"ID": "mtrbusK51AI1", "i": 23}]}, "K51A-D260": {"stop": "K51A-D260", "name_en": "South Hillcrest", "name_tc": "åå¶ºååº­", "name_sc": "åå¶ºååº­", "lat": "22.411927", "long": "113.983128", "routes": [{"ID": "mtrbusK51AI1", "i": 24}]}, "K51A-D270": {"stop": "K51A-D270", "name_en": "Fu Tai", "name_tc": "å¯æ³°", "name_sc": "å¯æ³°", "lat": "22.413286", "long": "113.982895", "routes": [{"ID": "mtrbusK51AI1", "i": 25}]}, "K52-nU010": {"stop": "K52-nU010", "name_en": "Yuet Wu Villa", "name_tc": "ææ¹å±±è", "name_sc": "ææ¹å±±è", "lat": "22.375261", "long": "113.968532", "routes": [{"ID": "mtrbusK52O1", "i": 0}]}, "K52-nU020": {"stop": "K52-nU020", "name_en": "Miami Beach Towers", "name_tc": "éäºç¾æµ·ç£", "name_sc": "éäºç¾æµ·ç£", "lat": "22.372808", "long": "113.970095", "routes": [{"ID": "mtrbusK52O1", "i": 1}]}, "K52-nU030": {"stop": "K52-nU030", "name_en": "Tuen Mun Ferry Pier", "name_tc": "å±¯éç¢¼é ­", "name_sc": "å±¯éç¢¼é ­", "lat": "22.372801", "long": "113.967391", "routes": [{"ID": "mtrbusK52O1", "i": 2}]}, "K52-nU040": {"stop": "K52-nU040", "name_en": "Wu Boon House, Wu King Estate", "name_tc": "æ¹æ¯é¨æ¹çæ¨", "name_sc": "æ¹æ¯é¨æ¹çæ¨", "lat": "22.374496", "long": "113.965605", "routes": [{"ID": "mtrbusK52O1", "i": 3}]}, "K52-nU050": {"stop": "K52-nU050", "name_en": "Wu Tsui House, Wu King Estate", "name_tc": "æ¹æ¯é¨æ¹ç¿ æ¨", "name_sc": "æ¹æ¯é¨æ¹ç¿ æ¨", "lat": "22.376739", "long": "113.966289", "routes": [{"ID": "mtrbusK52O1", "i": 4}]}, "K52-nU060": {"stop": "K52-nU060", "name_en": "Tuen Mun Central Square", "name_tc": "å±¯éä¸­å¤®å»£å ´", "name_sc": "å±¯éä¸­å¤®å»£å ´", "lat": "22.381216", "long": "113.972293", "routes": [{"ID": "mtrbusK52O1", "i": 5}]}, "K52-nU070": {"stop": "K52-nU070", "name_en": "LR Sam Shing Stop", "name_tc": "è¼éµä¸èç«", "name_sc": "è¼éµä¸èç«", "lat": "22.382943", "long": "113.976283", "routes": [{"ID": "mtrbusK52O1", "i": 6}]}, "K52-nU080": {"stop": "K52-nU080", "name_en": "Mrs Aw Boon Haw Secondary School", "name_tc": "è¡é³éæä¸­å­¸", "name_sc": "è¡é³éæä¸­å­¸", "lat": "22.383774", "long": "113.97939", "routes": [{"ID": "mtrbusK52O1", "i": 7}]}, "K52-nU090": {"stop": "K52-nU090", "name_en": "Tsing Sin Playground", "name_tc": "éåéæ¨å ´", "name_sc": "éåéæ¨å ´", "lat": "22.38457", "long": "113.98065", "routes": [{"ID": "mtrbusK52O1", "i": 8}]}, "K52-nU100": {"stop": "K52-nU100", "name_en": "Chi Lok Fa Yuen", "name_tc": "ç½®æ¨è±å", "name_sc": "ç½®æ¨è±å", "lat": "22.387385", "long": "113.980666", "routes": [{"ID": "mtrbusK52O1", "i": 9}]}, "K52-nU110": {"stop": "K52-nU110", "name_en": "Tuen Mun Government Secondary School", "name_tc": "å±¯éå®ç«ä¸­å­¸", "name_sc": "å±¯éå®ç«ä¸­å­¸", "lat": "22.390462", "long": "113.97885", "routes": [{"ID": "mtrbusK52O1", "i": 10}]}, "K52-nU120": {"stop": "K52-nU120", "name_en": "LR Town Centre Stop", "name_tc": "è¼éµå¸ä¸­å¿ç«", "name_sc": "è¼éµå¸ä¸­å¿ç«", "lat": "22.392116", "long": "113.975082", "routes": [{"ID": "mtrbusK52O1", "i": 11}]}, "K52-nU140": {"stop": "K52-nU140", "name_en": "LR Tuen Mun Stop (MTR Tuen Mun Station)", "name_tc": "è¼éµå±¯éç« (æ¸¯éµå±¯éç«)", "name_sc": "è¼éµå±¯éç« (æ¸¯éµå±¯éç«)", "lat": "22.393937", "long": "113.973896", "routes": [{"ID": "mtrbusK52O1", "i": 12}]}, "K52-nU150": {"stop": "K52-nU150", "name_en": "LR Kin On Stop", "name_tc": "è¼éµå»ºå®ç«", "name_sc": "è¼éµå»ºå®ç«", "lat": "22.394687", "long": "113.970746", "routes": [{"ID": "mtrbusK52O1", "i": 13}]}, "K52-nU160": {"stop": "K52-nU160", "name_en": "LR Tsing Wun Stop", "name_tc": "è¼éµéé²ç«", "name_sc": "è¼éµéé²ç«", "lat": "22.393382", "long": "113.967707", "routes": [{"ID": "mtrbusK52O1", "i": 14}]}, "K52-nU170": {"stop": "K52-nU170", "name_en": "SKH St. Peter's Church", "name_tc": "èå½¼å¾å ", "name_sc": "èå½¼å¾å ", "lat": "22.391722", "long": "113.967726", "routes": [{"ID": "mtrbusK52O1", "i": 15}]}, "K52-nU180": {"stop": "K52-nU180", "name_en": "Glorious Garden", "name_tc": "å¯å¥è±å", "name_sc": "å¯å¥è±å", "lat": "22.383618", "long": "113.964478", "routes": [{"ID": "mtrbusK52O1", "i": 16}]}, "K52-nU190": {"stop": "K52-nU190", "name_en": "Sun Tuen Mun Centre", "name_tc": "æ°å±¯éä¸­å¿", "name_sc": "æ°å±¯éä¸­å¿", "lat": "22.382269", "long": "113.963833", "routes": [{"ID": "mtrbusK52O1", "i": 17}]}, "K52-nU200": {"stop": "K52-nU200", "name_en": "LR Butterfly Stop", "name_tc": "è¼éµè´è¶ç«", "name_sc": "è¼éµè´è¶ç«", "lat": "22.377549", "long": "113.961472", "routes": [{"ID": "mtrbusK52O1", "i": 18}]}, "K52-nU210": {"stop": "K52-nU210", "name_en": "Tuen Mun Public Riding School", "name_tc": "å±¯éå¬ç¾é¨è¡å­¸æ ¡", "name_sc": "å±¯éå¬ç¾é¨è¡å­¸æ ¡", "lat": "22.375483", "long": "113.959318", "routes": [{"ID": "mtrbusK52O1", "i": 19}]}, "K52-nU220": {"stop": "K52-nU220", "name_en": "Butterfly Beach Park", "name_tc": "è´è¶ç£å¬å", "name_sc": "è´è¶ç£å¬å", "lat": "22.37319", "long": "113.95473", "routes": [{"ID": "mtrbusK52O1", "i": 20}]}, "K52-nU230": {"stop": "K52-nU230", "name_en": "Pillar Point", "name_tc": "æåç³", "name_sc": "æåç³", "lat": "22.368528", "long": "113.948898", "routes": [{"ID": "mtrbusK52O1", "i": 21}]}, "K52-nU240": {"stop": "K52-nU240", "name_en": "Government Depot", "name_tc": "æ¿åºè»å ´", "name_sc": "æ¿åºè»å ´", "lat": "22.366727", "long": "113.94371", "routes": [{"ID": "mtrbusK52O1", "i": 22}]}, "K52-nU250": {"stop": "K52-nU250", "name_en": "River Trade Terminal", "name_tc": "å§æ²³ç¢¼é ­", "name_sc": "å§æ²³ç¢¼é ­", "lat": "22.36857", "long": "113.93822", "routes": [{"ID": "mtrbusK52O1", "i": 23}]}, "K52-nU260": {"stop": "K52-nU260", "name_en": "EcoPark", "name_tc": "ç°ä¿å", "name_sc": "ç°ä¿å", "lat": "22.36999", "long": "113.93403", "routes": [{"ID": "mtrbusK52O1", "i": 24}]}, "K52-nU270": {"stop": "K52-nU270", "name_en": "Shiu Wing Steel Mill", "name_tc": "ç´¹æ¦®é¼éµ", "name_sc": "ç´¹æ¦®é¼éµ", "lat": "22.36995", "long": "113.92874", "routes": [{"ID": "mtrbusK52O1", "i": 25}]}, "K52-nU280": {"stop": "K52-nU280", "name_en": "No.312 Sha Po Kong", "name_tc": "æ²åå´312è", "name_sc": "æ²åå´312è", "lat": "22.386382", "long": "113.921122", "routes": [{"ID": "mtrbusK52O1", "i": 26}]}, "K52-nU290": {"stop": "K52-nU290", "name_en": "No.177 Sha Po Kong", "name_tc": "æ²åå´177è", "name_sc": "æ²åå´177è", "lat": "22.388034", "long": "113.920786", "routes": [{"ID": "mtrbusK52O1", "i": 27}]}, "K52-nU300": {"stop": "K52-nU300", "name_en": "No.127 Sha Po Kong", "name_tc": "æ²åå´127è", "name_sc": "æ²åå´127è", "lat": "22.389307", "long": "113.920224", "routes": [{"ID": "mtrbusK52O1", "i": 28}]}, "K52-nU310": {"stop": "K52-nU310", "name_en": "Lung Kwu Tan", "name_tc": "é¾é¼ç", "name_sc": "é¾é¼ç", "lat": "22.390617", "long": "113.920146", "routes": [{"ID": "mtrbusK52O1", "i": 29}]}, "K52-nD010": {"stop": "K52-nD010", "name_en": "Lung Kwu Tan", "name_tc": "é¾é¼ç", "name_sc": "é¾é¼ç", "lat": "22.390617", "long": "113.920146", "routes": [{"ID": "mtrbusK52I1", "i": 0}]}, "K52-nD020": {"stop": "K52-nD020", "name_en": "No.127 Sha Po Kong", "name_tc": "æ²åå´127è", "name_sc": "æ²åå´127è", "lat": "22.389103", "long": "113.920301", "routes": [{"ID": "mtrbusK52I1", "i": 1}]}, "K52-nD030": {"stop": "K52-nD030", "name_en": "No.177 Sha Po Kong", "name_tc": "æ²åå´177è", "name_sc": "æ²åå´177è", "lat": "22.388058", "long": "113.920786", "routes": [{"ID": "mtrbusK52I1", "i": 2}]}, "K52-nD040": {"stop": "K52-nD040", "name_en": "No.288 Sha Po Kong", "name_tc": "æ²åå´288è", "name_sc": "æ²åå´288è", "lat": "22.386623", "long": "113.921158", "routes": [{"ID": "mtrbusK52I1", "i": 3}]}, "K52-nD050": {"stop": "K52-nD050", "name_en": "No.351 Sha Po Kong", "name_tc": "æ²åå´351è", "name_sc": "æ²åå´351è", "lat": "22.385511", "long": "113.921257", "routes": [{"ID": "mtrbusK52I1", "i": 4}]}, "K52-nD060": {"stop": "K52-nD060", "name_en": "CLP (Plant A)", "name_tc": "ä¸­é» Aå» ", "name_sc": "ä¸­é» Aå» ", "lat": "22.38252", "long": "113.92102", "routes": [{"ID": "mtrbusK52I1", "i": 5}]}, "K52-nD070": {"stop": "K52-nD070", "name_en": "Shiu Wing Steel Mill", "name_tc": "ç´¹æ¦®é¼éµ", "name_sc": "ç´¹æ¦®é¼éµ", "lat": "22.37012", "long": "113.92898", "routes": [{"ID": "mtrbusK52I1", "i": 6}]}, "K52-nD080": {"stop": "K52-nD080", "name_en": "EcoPark", "name_tc": "ç°ä¿å", "name_sc": "ç°ä¿å", "lat": "22.37001", "long": "113.93439", "routes": [{"ID": "mtrbusK52I1", "i": 7}]}, "K52-nD090": {"stop": "K52-nD090", "name_en": "River Trade Terminal", "name_tc": "å§æ²³ç¢¼é ­", "name_sc": "å§æ²³ç¢¼é ­", "lat": "22.36855", "long": "113.938063", "routes": [{"ID": "mtrbusK52I1", "i": 8}]}, "K52-nD100": {"stop": "K52-nD100", "name_en": "Government Depot", "name_tc": "æ¿åºè»å ´", "name_sc": "æ¿åºè»å ´", "lat": "22.366875", "long": "113.944272", "routes": [{"ID": "mtrbusK52I1", "i": 9}]}, "K52-nD110": {"stop": "K52-nD110", "name_en": "Pillar Point", "name_tc": "æåç³", "name_sc": "æåç³", "lat": "22.368667", "long": "113.948837", "routes": [{"ID": "mtrbusK52I1", "i": 10}]}, "K52-nD120": {"stop": "K52-nD120", "name_en": "Butterfly Beach Park", "name_tc": "è´è¶ç£å¬å", "name_sc": "è´è¶ç£å¬å", "lat": "22.3729", "long": "113.954631", "routes": [{"ID": "mtrbusK52I1", "i": 11}]}, "K52-nD130": {"stop": "K52-nD130", "name_en": "Tuen Mun Public Riding School", "name_tc": "å±¯éå¬ç¾é¨è¡å­¸æ ¡", "name_sc": "å±¯éå¬ç¾é¨è¡å­¸æ ¡", "lat": "22.375258", "long": "113.958583", "routes": [{"ID": "mtrbusK52I1", "i": 12}]}, "K52-nD140": {"stop": "K52-nD140", "name_en": "LR Butterfly Stop", "name_tc": "è¼éµè´è¶ç«", "name_sc": "è¼éµè´è¶ç«", "lat": "22.378359", "long": "113.961955", "routes": [{"ID": "mtrbusK52I1", "i": 13}]}, "K52-nD150": {"stop": "K52-nD150", "name_en": "Light Rail Depot Stop", "name_tc": "è¼éµè»å» ç«", "name_sc": "è¼éµè»å» ç«", "lat": "22.382203", "long": "113.96359", "routes": [{"ID": "mtrbusK52I1", "i": 14}]}, "K52-nD160": {"stop": "K52-nD160", "name_en": "LR Lung Mun Stop", "name_tc": "è¼éµé¾éç«", "name_sc": "è¼éµé¾éç«", "lat": "22.385399", "long": "113.965222", "routes": [{"ID": "mtrbusK52I1", "i": 15}]}, "K52-nD170": {"stop": "K52-nD170", "name_en": "LR Tsing Wun Stop", "name_tc": "è¼éµéé²ç«", "name_sc": "è¼éµéé²ç«", "lat": "22.393627", "long": "113.96752", "routes": [{"ID": "mtrbusK52I1", "i": 16}]}, "K52-nD180": {"stop": "K52-nD180", "name_en": "LR Kin On Stop", "name_tc": "è¼éµå»ºå®ç«", "name_sc": "è¼éµå»ºå®ç«", "lat": "22.395064", "long": "113.969953", "routes": [{"ID": "mtrbusK52I1", "i": 17}]}, "K52-nD190": {"stop": "K52-nD190", "name_en": "Tuen Mun Station", "name_tc": "å±¯éç«", "name_sc": "å±¯éç«", "lat": "22.394117", "long": "113.973992", "routes": [{"ID": "mtrbusK52I1", "i": 18}]}, "K52-nD200": {"stop": "K52-nD200", "name_en": "Tuen Mun Town Centre", "name_tc": "å±¯éå¸ä¸­å¿", "name_sc": "å±¯éå¸ä¸­å¿", "lat": "22.391543", "long": "113.975435", "routes": [{"ID": "mtrbusK52I1", "i": 19}]}, "K52-nD210": {"stop": "K52-nD210", "name_en": "Tuen Mun Government Secondary School", "name_tc": "å±¯éå®ç«ä¸­å­¸", "name_sc": "å±¯éå®ç«ä¸­å­¸", "lat": "22.3906", "long": "113.9788", "routes": [{"ID": "mtrbusK52I1", "i": 20}]}, "K52-nD220": {"stop": "K52-nD220", "name_en": "Handsome Court", "name_tc": "æé å", "name_sc": "æé å", "lat": "22.38771", "long": "113.9807", "routes": [{"ID": "mtrbusK52I1", "i": 21}]}, "K52-nD230": {"stop": "K52-nD230", "name_en": "Harvest Garden", "name_tc": "æè±å", "name_sc": "æè±å", "lat": "22.38519", "long": "113.981", "routes": [{"ID": "mtrbusK52I1", "i": 22}]}, "K52-nD240": {"stop": "K52-nD240", "name_en": "LR Sam Shing Stop", "name_tc": "è¼éµä¸èç«", "name_sc": "è¼éµä¸èç«", "lat": "22.382769", "long": "113.976256", "routes": [{"ID": "mtrbusK52I1", "i": 23}]}, "K52-nD250": {"stop": "K52-nD250", "name_en": "Tuen Mun Central Square", "name_tc": "å±¯éä¸­å¤®å»£å ´", "name_sc": "å±¯éä¸­å¤®å»£å ´", "lat": "22.380902", "long": "113.972021", "routes": [{"ID": "mtrbusK52I1", "i": 24}]}, "K52-nD260": {"stop": "K52-nD260", "name_en": "Wu Tsui House, Wu King Estate", "name_tc": "æ¹æ¯é¨æ¹ç¿ æ¨", "name_sc": "æ¹æ¯é¨æ¹ç¿ æ¨", "lat": "22.37652", "long": "113.966372", "routes": [{"ID": "mtrbusK52I1", "i": 25}]}, "K52-nD270": {"stop": "K52-nD270", "name_en": "Siu Hei Court", "name_tc": "åç¦§è", "name_sc": "åç¦§è", "lat": "22.374598", "long": "113.965833", "routes": [{"ID": "mtrbusK52I1", "i": 26}]}, "K52-nD280": {"stop": "K52-nD280", "name_en": "Pierhead Garden", "name_tc": "æµ·ç¿ è±å", "name_sc": "æµ·ç¿ è±å", "lat": "22.373244", "long": "113.965958", "routes": [{"ID": "mtrbusK52I1", "i": 27}]}, "K52-nD290": {"stop": "K52-nD290", "name_en": "Miami Beach Towers", "name_tc": "éäºç¾æµ·ç£", "name_sc": "éäºç¾æµ·ç£", "lat": "22.372843", "long": "113.969696", "routes": [{"ID": "mtrbusK52I1", "i": 28}]}, "K52-nD300": {"stop": "K52-nD300", "name_en": "Yuet Wu Villa", "name_tc": "ææ¹å±±è", "name_sc": "ææ¹å±±è", "lat": "22.375257", "long": "113.968481", "routes": [{"ID": "mtrbusK52I1", "i": 29}]}, "K52A-U010": {"stop": "K52A-U010", "name_en": "Tuen Mun Station (LR Tuen Mun Stop)", "name_tc": "å±¯éç« (è¼éµå±¯éç«)", "name_sc": "å±¯éç« (è¼éµå±¯éç«)", "lat": "22.394225", "long": "113.973358", "routes": [{"ID": "mtrbusK52AO1", "i": 0}]}, "K52A-U015": {"stop": "K52A-U015", "name_en": "LR Tuen Mun Stop (Please refer to Service Time)*", "name_tc": "è¼éµå±¯éç« (è«çææåæé)*", "name_sc": "è¼éµå±¯éç« (è«çææåæé)*", "lat": "22.393937", "long": "113.973896", "routes": [{"ID": "mtrbusK52AO1", "i": 1}]}, "K52A-U020": {"stop": "K52A-U020", "name_en": "LR Kin On Stop", "name_tc": "è¼éµå»ºå®ç«", "name_sc": "è¼éµå»ºå®ç«", "lat": "22.394687", "long": "113.970746", "routes": [{"ID": "mtrbusK52AO1", "i": 2}]}, "K52A-U030": {"stop": "K52A-U030", "name_en": "LR Tsing Wun Stop", "name_tc": "è¼éµéé²ç«", "name_sc": "è¼éµéé²ç«", "lat": "22.393382", "long": "113.967707", "routes": [{"ID": "mtrbusK52AO1", "i": 3}]}, "K52A-U040": {"stop": "K52A-U040", "name_en": "SKH St. Peter's Church", "name_tc": "èå½¼å¾å ", "name_sc": "èå½¼å¾å ", "lat": "22.391722", "long": "113.967726", "routes": [{"ID": "mtrbusK52AO1", "i": 4}]}, "K52A-U050": {"stop": "K52A-U050", "name_en": "Glorious Garden", "name_tc": "å¯å¥è±å", "name_sc": "å¯å¥è±å", "lat": "22.383618", "long": "113.964478", "routes": [{"ID": "mtrbusK52AO1", "i": 5}]}, "K52A-U060": {"stop": "K52A-U060", "name_en": "Sun Tuen Mun Centre", "name_tc": "æ°å±¯éä¸­å¿", "name_sc": "æ°å±¯éä¸­å¿", "lat": "22.382269", "long": "113.963833", "routes": [{"ID": "mtrbusK52AO1", "i": 6}]}, "K52A-U070": {"stop": "K52A-U070", "name_en": "LR Butterfly Stop", "name_tc": "è¼éµè´è¶ç«", "name_sc": "è¼éµè´è¶ç«", "lat": "22.377547", "long": "113.961481", "routes": [{"ID": "mtrbusK52AO1", "i": 7}]}, "K52A-U080": {"stop": "K52A-U080", "name_en": "Tuen Mun Public Riding School", "name_tc": "å±¯éå¬ç¾é¨è¡å­¸æ ¡", "name_sc": "å±¯éå¬ç¾é¨è¡å­¸æ ¡", "lat": "22.375483", "long": "113.959318", "routes": [{"ID": "mtrbusK52AO1", "i": 8}]}, "K52A-U090": {"stop": "K52A-U090", "name_en": "Butterfly Beach Park", "name_tc": "è´è¶ç£å¬å", "name_sc": "è´è¶ç£å¬å", "lat": "22.37319", "long": "113.95473", "routes": [{"ID": "mtrbusK52AO1", "i": 9}]}, "K52A-U100": {"stop": "K52A-U100", "name_en": "Pillar Point", "name_tc": "æåç³", "name_sc": "æåç³", "lat": "22.368528", "long": "113.948898", "routes": [{"ID": "mtrbusK52AO1", "i": 10}]}, "K52A-U110": {"stop": "K52A-U110", "name_en": "Government Depot", "name_tc": "æ¿åºè»å ´", "name_sc": "æ¿åºè»å ´", "lat": "22.366727", "long": "113.94371", "routes": [{"ID": "mtrbusK52AO1", "i": 11}]}, "K52A-U120": {"stop": "K52A-U120", "name_en": "River Trade Terminal", "name_tc": "å§æ²³ç¢¼é ­", "name_sc": "å§æ²³ç¢¼é ­", "lat": "22.36857", "long": "113.93822", "routes": [{"ID": "mtrbusK52AO1", "i": 12}]}, "K52A-U130": {"stop": "K52A-U130", "name_en": "EcoPark", "name_tc": "ç°ä¿å", "name_sc": "ç°ä¿å", "lat": "22.36999", "long": "113.93403", "routes": [{"ID": "mtrbusK52AO1", "i": 13}]}, "K52A-U140": {"stop": "K52A-U140", "name_en": "Shiu Wing Steel Mill", "name_tc": "ç´¹æ¦®é¼éµ", "name_sc": "ç´¹æ¦®é¼éµ", "lat": "22.36995", "long": "113.92874", "routes": [{"ID": "mtrbusK52AO1", "i": 14}]}, "K52A-U150": {"stop": "K52A-U150", "name_en": "No.312 Sha Po Kong", "name_tc": "æ²åå´312è", "name_sc": "æ²åå´312è", "lat": "22.386382", "long": "113.921122", "routes": [{"ID": "mtrbusK52AO1", "i": 15}]}, "K52A-U160": {"stop": "K52A-U160", "name_en": "No.177 Sha Po Kong", "name_tc": "æ²åå´177è", "name_sc": "æ²åå´177è", "lat": "22.388034", "long": "113.920786", "routes": [{"ID": "mtrbusK52AO1", "i": 16}]}, "K52A-U170": {"stop": "K52A-U170", "name_en": "No.127 Sha Po Kong", "name_tc": "æ²åå´127è", "name_sc": "æ²åå´127è", "lat": "22.389307", "long": "113.920224", "routes": [{"ID": "mtrbusK52AO1", "i": 17}]}, "K52A-U180": {"stop": "K52A-U180", "name_en": "Tsang Tsui (Tsang Tsui Columbarium)", "name_tc": "æ¾å (æ¾åéç°å®ç½®æ)", "name_sc": "æ¾å (æ¾åéç°å®ç½®æ)", "lat": "22.420002", "long": "113.919644", "routes": [{"ID": "mtrbusK52AO1", "i": 18}]}, "K52A-D010": {"stop": "K52A-D010", "name_en": "Tsang Tsui (Tsang Tsui Columbarium)", "name_tc": "æ¾å (æ¾åéç°å®ç½®æ)", "name_sc": "æ¾å (æ¾åéç°å®ç½®æ)", "lat": "22.420002", "long": "113.919644", "routes": [{"ID": "mtrbusK52AI1", "i": 0}]}, "K52A-D020": {"stop": "K52A-D020", "name_en": "No.127 Sha Po Kong", "name_tc": "æ²åå´127è", "name_sc": "æ²åå´127è", "lat": "22.389103", "long": "113.920301", "routes": [{"ID": "mtrbusK52AI1", "i": 1}]}, "K52A-D030": {"stop": "K52A-D030", "name_en": "No.177 Sha Po Kong", "name_tc": "æ²åå´177è", "name_sc": "æ²åå´177è", "lat": "22.388058", "long": "113.920786", "routes": [{"ID": "mtrbusK52AI1", "i": 2}]}, "K52A-D040": {"stop": "K52A-D040", "name_en": "No.288 Sha Po Kong", "name_tc": "æ²åå´288è", "name_sc": "æ²åå´288è", "lat": "22.386623", "long": "113.921158", "routes": [{"ID": "mtrbusK52AI1", "i": 3}]}, "K52A-D050": {"stop": "K52A-D050", "name_en": "No.351 Sha Po Kong", "name_tc": "æ²åå´351è", "name_sc": "æ²åå´351è", "lat": "22.385511", "long": "113.921257", "routes": [{"ID": "mtrbusK52AI1", "i": 4}]}, "K52A-D060": {"stop": "K52A-D060", "name_en": "CLP (Plant A)", "name_tc": "ä¸­é» Aå» ", "name_sc": "ä¸­é» Aå» ", "lat": "22.38252", "long": "113.92102", "routes": [{"ID": "mtrbusK52AI1", "i": 5}]}, "K52A-D070": {"stop": "K52A-D070", "name_en": "Shiu Wing Steel Mill", "name_tc": "ç´¹æ¦®é¼éµ", "name_sc": "ç´¹æ¦®é¼éµ", "lat": "22.37012", "long": "113.92898", "routes": [{"ID": "mtrbusK52AI1", "i": 6}]}, "K52A-D080": {"stop": "K52A-D080", "name_en": "EcoPark", "name_tc": "ç°ä¿å", "name_sc": "ç°ä¿å", "lat": "22.37001", "long": "113.93439", "routes": [{"ID": "mtrbusK52AI1", "i": 7}]}, "K52A-D090": {"stop": "K52A-D090", "name_en": "River Trade Terminal", "name_tc": "å§æ²³ç¢¼é ­", "name_sc": "å§æ²³ç¢¼é ­", "lat": "22.36855", "long": "113.938063", "routes": [{"ID": "mtrbusK52AI1", "i": 8}]}, "K52A-D100": {"stop": "K52A-D100", "name_en": "Government Depot", "name_tc": "æ¿åºè»å ´", "name_sc": "æ¿åºè»å ´", "lat": "22.366875", "long": "113.944272", "routes": [{"ID": "mtrbusK52AI1", "i": 9}]}, "K52A-D110": {"stop": "K52A-D110", "name_en": "Pillar Point", "name_tc": "æåç³", "name_sc": "æåç³", "lat": "22.368667", "long": "113.948837", "routes": [{"ID": "mtrbusK52AI1", "i": 10}]}, "K52A-D120": {"stop": "K52A-D120", "name_en": "Butterfly Beach Park", "name_tc": "è´è¶ç£å¬å", "name_sc": "è´è¶ç£å¬å", "lat": "22.3729", "long": "113.954631", "routes": [{"ID": "mtrbusK52AI1", "i": 11}]}, "K52A-D130": {"stop": "K52A-D130", "name_en": "Tuen Mun Public Riding School", "name_tc": "å±¯éå¬ç¾é¨è¡å­¸æ ¡", "name_sc": "å±¯éå¬ç¾é¨è¡å­¸æ ¡", "lat": "22.375258", "long": "113.958583", "routes": [{"ID": "mtrbusK52AI1", "i": 12}]}, "K52A-D140": {"stop": "K52A-D140", "name_en": "LR Butterfly Stop", "name_tc": "è¼éµè´è¶ç«", "name_sc": "è¼éµè´è¶ç«", "lat": "22.378359", "long": "113.961955", "routes": [{"ID": "mtrbusK52AI1", "i": 13}]}, "K52A-D150": {"stop": "K52A-D150", "name_en": "Light Rail Depot Stop", "name_tc": "è¼éµè»å» ç«", "name_sc": "è¼éµè»å» ç«", "lat": "22.382203", "long": "113.96359", "routes": [{"ID": "mtrbusK52AI1", "i": 14}]}, "K52A-D160": {"stop": "K52A-D160", "name_en": "LR Lung Mun Stop", "name_tc": "è¼éµé¾éç«", "name_sc": "è¼éµé¾éç«", "lat": "22.385399", "long": "113.965222", "routes": [{"ID": "mtrbusK52AI1", "i": 15}]}, "K52A-D170": {"stop": "K52A-D170", "name_en": "LR Tsing Wun Stop", "name_tc": "è¼éµéé²ç«", "name_sc": "è¼éµéé²ç«", "lat": "22.393627", "long": "113.96752", "routes": [{"ID": "mtrbusK52AI1", "i": 16}]}, "K52A-D180": {"stop": "K52A-D180", "name_en": "LR Kin On Stop", "name_tc": "è¼éµå»ºå®ç«", "name_sc": "è¼éµå»ºå®ç«", "lat": "22.395064", "long": "113.969953", "routes": [{"ID": "mtrbusK52AI1", "i": 17}]}, "K52A-D190": {"stop": "K52A-D190", "name_en": "Tuen Mun Station (LR Tuen Mun Stop)", "name_tc": "å±¯éç« (è¼éµå±¯éç«)", "name_sc": "å±¯éç« (è¼éµå±¯éç«)", "lat": "22.394225", "long": "113.973358", "routes": [{"ID": "mtrbusK52AI1", "i": 18}]}, "K53-U010": {"stop": "K53-U010", "name_en": "Tuen Mun Station (LR Tuen Mun Stop)", "name_tc": "å±¯éç« (è¼éµå±¯éç«)", "name_sc": "å±¯éç« (è¼éµå±¯éç«)", "lat": "22.394225", "long": "113.973358", "routes": [{"ID": "mtrbusK53O1", "i": 0}]}, "K53-U020": {"stop": "K53-U020", "name_en": "Tuen Mun Town Centre", "name_tc": "å±¯éå¸ä¸­å¿", "name_sc": "å±¯éå¸ä¸­å¿", "lat": "22.391543", "long": "113.975435", "routes": [{"ID": "mtrbusK53O1", "i": 1}]}, "K53-U030": {"stop": "K53-U030", "name_en": "Tuen Mun Government Secondary School", "name_tc": "å±¯éå®ç«ä¸­å­¸", "name_sc": "å±¯éå®ç«ä¸­å­¸", "lat": "22.390622", "long": "113.978751", "routes": [{"ID": "mtrbusK53O1", "i": 2}]}, "K53-U040": {"stop": "K53-U040", "name_en": "Handsome Court", "name_tc": "æé å", "name_sc": "æé å", "lat": "22.387719", "long": "113.980762", "routes": [{"ID": "mtrbusK53O1", "i": 3}]}, "K53-U050": {"stop": "K53-U050", "name_en": "Harvest Garden", "name_tc": "æè±å", "name_sc": "æè±å", "lat": "22.385247", "long": "113.981068", "routes": [{"ID": "mtrbusK53O1", "i": 4}]}, "K53-U060": {"stop": "K53-U060", "name_en": "Sam Shing Estate", "name_tc": "ä¸èé¨", "name_sc": "ä¸èé¨", "lat": "22.381732", "long": "113.978847", "routes": [{"ID": "mtrbusK53O1", "i": 5}]}, "K53-U070": {"stop": "K53-U070", "name_en": "Castle Peak Beach", "name_tc": "éå±±ç£", "name_sc": "éå±±ç£", "lat": "22.378923", "long": "113.980763", "routes": [{"ID": "mtrbusK53O1", "i": 6}]}, "K53-U080": {"stop": "K53-U080", "name_en": "Seaview Garden", "name_tc": "æµ·æ¯è±å", "name_sc": "æµ·æ¯è±å", "lat": "22.377877", "long": "113.983564", "routes": [{"ID": "mtrbusK53O1", "i": 7}]}, "K53-U090": {"stop": "K53-U090", "name_en": "Cafeteria Beach", "name_tc": "åå¡ç£", "name_sc": "åå¡ç£", "lat": "22.374926", "long": "113.986745", "routes": [{"ID": "mtrbusK53O1", "i": 8}]}, "K53-U100": {"stop": "K53-U100", "name_en": "Golden Beach", "name_tc": "é»éæ³³ç", "name_sc": "é»éæ³³ç", "lat": "22.373785", "long": "113.990848", "routes": [{"ID": "mtrbusK53O1", "i": 9}]}, "K53-U110": {"stop": "K53-U110", "name_en": "Hong Kong Gold Coast", "name_tc": "é¦æ¸¯é»éæµ·å²¸", "name_sc": "é¦æ¸¯é»éæµ·å²¸", "lat": "22.372048", "long": "113.993608", "routes": [{"ID": "mtrbusK53O1", "i": 10}]}, "K53-U120": {"stop": "K53-U120", "name_en": "Aegean Coast", "name_tc": "æç´æµ·å²¸", "name_sc": "æç´æµ·å²¸", "lat": "22.371605", "long": "113.9954", "routes": [{"ID": "mtrbusK53O1", "i": 11}]}, "K53-U130": {"stop": "K53-U130", "name_en": "So Kwun Wat Sub-station", "name_tc": "æç®¡ç¬è®é»ç«", "name_sc": "æç®¡ç¬è®é»ç«", "lat": "22.373878", "long": "113.996144", "routes": [{"ID": "mtrbusK53O1", "i": 12}]}, "K53-U140": {"stop": "K53-U140", "name_en": "So Kwun Wat Tsuen", "name_tc": "æç®¡ç¬æ", "name_sc": "æç®¡ç¬æ", "lat": "22.375743", "long": "113.999829", "routes": [{"ID": "mtrbusK53O1", "i": 13}]}, "K53-D010": {"stop": "K53-D010", "name_en": "So Kwun Wat (Mrs. Cheng Yam On Millennium School)", "name_tc": "æç®¡ç¬ (é­ä»»å®å¤«äººåç¦§å°å­¸)", "name_sc": "æç®¡ç¬ (é­ä»»å®å¤«äººåç¦§å°å­¸)", "lat": "22.372023", "long": "114.003593", "routes": [{"ID": "mtrbusK53O1", "i": 14}]}, "K53-D015": {"stop": "K53-D015", "name_en": "So Kwun Wat Road", "name_tc": "æç®¡ç¬è·¯", "name_sc": "æç®¡ç¬è·¯", "lat": "22.374216", "long": "114.002295", "routes": [{"ID": "mtrbusK53O1", "i": 15}]}, "K53-D020": {"stop": "K53-D020", "name_en": "18 Kwun Chui Road", "name_tc": "ç®¡ç¿ è·¯18è", "name_sc": "ç®¡ç¿ è·¯18è", "lat": "22.373866", "long": "114.001024", "routes": [{"ID": "mtrbusK53O1", "i": 16}]}, "K53-D030": {"stop": "K53-D030", "name_en": "Kwun Chui Road", "name_tc": "ç®¡ç¿ è·¯", "name_sc": "ç®¡ç¿ è·¯", "lat": "22.375123", "long": "113.997707", "routes": [{"ID": "mtrbusK53O1", "i": 17}]}, "K53-D040": {"stop": "K53-D040", "name_en": "Aegean Coast", "name_tc": "æç´æµ·å²¸", "name_sc": "æç´æµ·å²¸", "lat": "22.371473", "long": "113.995381", "routes": [{"ID": "mtrbusK53O1", "i": 18}]}, "K53-D050": {"stop": "K53-D050", "name_en": "Hong Kong Gold Coast", "name_tc": "é¦æ¸¯é»éæµ·å²¸", "name_sc": "é¦æ¸¯é»éæµ·å²¸", "lat": "22.371294", "long": "113.993906", "routes": [{"ID": "mtrbusK53O1", "i": 19}]}, "K53-D060": {"stop": "K53-D060", "name_en": "Golden Beach", "name_tc": "é»éæ³³ç", "name_sc": "é»éæ³³ç", "lat": "22.373653", "long": "113.991237", "routes": [{"ID": "mtrbusK53O1", "i": 20}]}, "K53-D070": {"stop": "K53-D070", "name_en": "Cafeteria Beach", "name_tc": "åå¡ç£", "name_sc": "åå¡ç£", "lat": "22.375924", "long": "113.985662", "routes": [{"ID": "mtrbusK53O1", "i": 21}]}, "K53-D080": {"stop": "K53-D080", "name_en": "Bayview Terrace", "name_tc": "ç¢§ç¿ è±å", "name_sc": "ç¢§ç¿ è±å", "lat": "22.377941", "long": "113.983293", "routes": [{"ID": "mtrbusK53O1", "i": 22}]}, "K53-D090": {"stop": "K53-D090", "name_en": "Castle Peak Bay Pier", "name_tc": "éå±±ç£ç¢¼é ­", "name_sc": "éå±±ç£ç¢¼é ­", "lat": "22.378954", "long": "113.980609", "routes": [{"ID": "mtrbusK53O1", "i": 23}]}, "K53-D100": {"stop": "K53-D100", "name_en": "Sam Shing Estate", "name_tc": "ä¸èé¨", "name_sc": "ä¸èé¨", "lat": "22.381245", "long": "113.979119", "routes": [{"ID": "mtrbusK53O1", "i": 24}]}, "K53-D110": {"stop": "K53-D110", "name_en": "Hanford Garden (LR Sam Shing Stop)", "name_tc": "æç¦è±å (è¼éµä¸èç«)", "name_sc": "æç¦è±å (è¼éµä¸èç«)", "lat": "22.382079", "long": "113.977158", "routes": [{"ID": "mtrbusK53O1", "i": 25}]}, "K53-D120": {"stop": "K53-D120", "name_en": "Mrs Aw Boon Haw Secondary School", "name_tc": "è¡é³éæä¸­å­¸", "name_sc": "è¡é³éæä¸­å­¸", "lat": "22.383774", "long": "113.97939", "routes": [{"ID": "mtrbusK53O1", "i": 26}]}, "K53-D130": {"stop": "K53-D130", "name_en": "Tsing Sin Playground", "name_tc": "éåéæ¨å ´", "name_sc": "éåéæ¨å ´", "lat": "22.38463", "long": "113.980641", "routes": [{"ID": "mtrbusK53O1", "i": 27}]}, "K53-D140": {"stop": "K53-D140", "name_en": "Chi Lok Fa Yuen", "name_tc": "ç½®æ¨è±å", "name_sc": "ç½®æ¨è±å", "lat": "22.387328", "long": "113.980668", "routes": [{"ID": "mtrbusK53O1", "i": 28}]}, "K53-D150": {"stop": "K53-D150", "name_en": "Tuen Mun Government Secondary School", "name_tc": "å±¯éå®ç«ä¸­å­¸", "name_sc": "å±¯éå®ç«ä¸­å­¸", "lat": "22.390452", "long": "113.978855", "routes": [{"ID": "mtrbusK53O1", "i": 29}]}, "K53-D160": {"stop": "K53-D160", "name_en": "LR Town Centre Stop", "name_tc": "è¼éµå¸ä¸­å¿ç«", "name_sc": "è¼éµå¸ä¸­å¿ç«", "lat": "22.392116", "long": "113.975082", "routes": [{"ID": "mtrbusK53O1", "i": 30}]}, "K53-D170": {"stop": "K53-D170", "name_en": "Tuen Mun Station (LR Tuen Mun Stop)", "name_tc": "å±¯éç« (è¼éµå±¯éç«)", "name_sc": "å±¯éç« (è¼éµå±¯éç«)", "lat": "22.394225", "long": "113.973358", "routes": [{"ID": "mtrbusK53O1", "i": 31}]}, "K53-D180": {"stop": "K53-D180", "name_en": "Tin Hau Road (Please refer to bus route map for service times)", "name_tc": "å¤©åè·¯(æåæéè«åèè·¯ç¶«å)", "name_sc": "å¤©åè·¯(æåæéè«åèè·¯ç¶«å)", "lat": "22.391668", "long": "113.971547", "routes": [{"ID": "mtrbusK53O1", "i": 32}]}, "K53-D190": {"stop": "K53-D190", "name_en": "Yip Wong Estate (Please refer to bus route map for service times)", "name_tc": "æ¥­æºé¨(æåæéè«åèè·¯ç¶«å)", "name_sc": "æ¥­æºé¨(æåæéè«åèè·¯ç¶«å)", "lat": "22.38814", "long": "113.97015", "routes": [{"ID": "mtrbusK53O1", "i": 33}]}, "K53-U011": {"stop": "K53-U011", "name_en": "Tuen Mun Station (LR Tuen Mun Stop)", "name_tc": "å±¯éç« (è¼éµå±¯éç«)", "name_sc": "å±¯éç« (è¼éµå±¯éç«)", "lat": "22.394225", "long": "113.973358", "routes": [{"ID": "mtrbusK53O1", "i": 34}]}, "K54-U010": {"stop": "K54-U010", "name_en": "Wo Tin Estate", "name_tc": "åç°é¨", "name_sc": "åç°é¨", "lat": "22.41295362", "long": "113.9686386", "routes": [{"ID": "mtrbusK54O1", "i": 0}]}, "K54-U020": {"stop": "K54-U020", "name_en": "Ching Tin Estate", "name_tc": "èç°é¨", "name_sc": "èç°é¨", "lat": "22.41229368", "long": "113.9705794", "routes": [{"ID": "mtrbusK54O1", "i": 1}]}, "K54-U030": {"stop": "K54-U030", "name_en": "Tsz Tin Tsuen", "name_tc": "ç´«ç°æ", "name_sc": "ç´«ç°æ", "lat": "22.41439481", "long": "113.9738808", "routes": [{"ID": "mtrbusK54O1", "i": 2}]}, "K54-U040": {"stop": "K54-U040", "name_en": "Yan Tin Estate", "name_tc": "æ¬£ç°é¨", "name_sc": "æ¬£ç°é¨", "lat": "22.41435", "long": "113.97701", "routes": [{"ID": "mtrbusK54O1", "i": 3}]}, "K54-U050": {"stop": "K54-U050", "name_en": "MTR Siu Hong Station (North) (LR Siu Hong Stop)", "name_tc": "æ¸¯éµååº·ç« (å) (è¼éµååº·ç«)", "name_sc": "æ¸¯éµååº·ç« (å) (è¼éµååº·ç«)", "lat": "22.4134", "long": "113.97902", "routes": [{"ID": "mtrbusK54O1", "i": 4}]}, "K54-U060": {"stop": "K54-U060", "name_en": "Hung Kiu", "name_tc": "ç´æ©", "name_sc": "ç´æ©", "lat": "22.40199647", "long": "113.977489", "routes": [{"ID": "mtrbusK54O1", "i": 5}]}, "K54-U070": {"stop": "K54-U070", "name_en": "Tuen Mun Town Centre", "name_tc": "å±¯éå¸ä¸­å¿", "name_sc": "å±¯éå¸ä¸­å¿", "lat": "22.391389", "long": "113.975465", "routes": [{"ID": "mtrbusK54O1", "i": 6}]}, "K54-D010": {"stop": "K54-D010", "name_en": "Tuen Mun Town Plaza", "name_tc": "å±¯éå¸å»£å ´", "name_sc": "å±¯éå¸å»£å ´", "lat": "22.39272978", "long": "113.9769618", "routes": [{"ID": "mtrbusK54O1", "i": 7}]}, "K54-D020": {"stop": "K54-D020", "name_en": "San Hui Market", "name_tc": "æ°å¢è¡å¸", "name_sc": "æ°å¢è¡å¸", "lat": "22.3989419", "long": "113.9766028", "routes": [{"ID": "mtrbusK54O1", "i": 8}]}, "K54-D030": {"stop": "K54-D030", "name_en": "MTR Siu Hong Station (North) (LR Siu Hong Stop)", "name_tc": "æ¸¯éµååº·ç« (å) (è¼éµååº·ç«)", "name_sc": "æ¸¯éµååº·ç« (å) (è¼éµååº·ç«)", "lat": "22.41357", "long": "113.9791", "routes": [{"ID": "mtrbusK54O1", "i": 9}]}, "K54-D040": {"stop": "K54-D040", "name_en": "Siu Hong Court", "name_tc": "ååº·è", "name_sc": "ååº·è", "lat": "22.414907", "long": "113.977412", "routes": [{"ID": "mtrbusK54O1", "i": 10}]}, "K54-D050": {"stop": "K54-D050", "name_en": "Yan Po Road Public Transport Interchange", "name_tc": "æ¬£å¯¶è·¯å¬å±éè¼¸äº¤å¯è", "name_sc": "æ¬£å¯¶è·¯å¬å±éè¼¸äº¤å¯è", "lat": "22.41309916", "long": "113.9723357", "routes": [{"ID": "mtrbusK54O1", "i": 11}]}, "K54-D060": {"stop": "K54-D060", "name_en": "Ching Tin Estate", "name_tc": "èç°é¨", "name_sc": "èç°é¨", "lat": "22.41197411", "long": "113.9703303", "routes": [{"ID": "mtrbusK54O1", "i": 12}]}, "K54-D070": {"stop": "K54-D070", "name_en": "Wo Tin Estate", "name_tc": "åç°é¨", "name_sc": "åç°é¨", "lat": "22.41295362", "long": "113.9686386", "routes": [{"ID": "mtrbusK54O1", "i": 13}]}, "K54A-U010": {"stop": "K54A-U010", "name_en": "Wo Tin Estate", "name_tc": "åç°é¨", "name_sc": "åç°é¨", "lat": "22.41295362", "long": "113.9686386", "routes": [{"ID": "mtrbusK54AO1", "i": 0}]}, "K54A-U020": {"stop": "K54A-U020", "name_en": "Ching Tin Estate", "name_tc": "èç°é¨", "name_sc": "èç°é¨", "lat": "22.41229368", "long": "113.9705794", "routes": [{"ID": "mtrbusK54AO1", "i": 1}]}, "K54A-U030": {"stop": "K54A-U030", "name_en": "Tsz Tin Tsuen", "name_tc": "ç´«ç°æ", "name_sc": "ç´«ç°æ", "lat": "22.41439481", "long": "113.9738808", "routes": [{"ID": "mtrbusK54AO1", "i": 2}]}, "K54A-U040": {"stop": "K54A-U040", "name_en": "Yan Tin Estate", "name_tc": "æ¬£ç°é¨", "name_sc": "æ¬£ç°é¨", "lat": "22.41435", "long": "113.97701", "routes": [{"ID": "mtrbusK54AO1", "i": 3}]}, "K54A-U050": {"stop": "K54A-U050", "name_en": "MTR Siu Hong Station (North) (LR Siu Hong Stop)", "name_tc": "æ¸¯éµååº·ç« (å) (è¼éµååº·ç«)", "name_sc": "æ¸¯éµååº·ç« (å) (è¼éµååº·ç«)", "lat": "22.4134", "long": "113.97902", "routes": [{"ID": "mtrbusK54AO1", "i": 4}]}, "K54A-D010": {"stop": "K54A-D010", "name_en": "MTR Siu Hong Station (North) (LR Siu Hong Stop)", "name_tc": "æ¸¯éµååº·ç« (å) (è¼éµååº·ç«)", "name_sc": "æ¸¯éµååº·ç« (å) (è¼éµååº·ç«)", "lat": "22.4134", "long": "113.97902", "routes": [{"ID": "mtrbusK54AI1", "i": 0}]}, "K54A-D020": {"stop": "K54A-D020", "name_en": "Siu Hong Court", "name_tc": "ååº·è", "name_sc": "ååº·è", "lat": "22.414907", "long": "113.977412", "routes": [{"ID": "mtrbusK54AI1", "i": 1}]}, "K54A-D030": {"stop": "K54A-D030", "name_en": "Yan Po Road Public Transport Interchange", "name_tc": "æ¬£å¯¶è·¯å¬å±éè¼¸äº¤å¯è", "name_sc": "æ¬£å¯¶è·¯å¬å±éè¼¸äº¤å¯è", "lat": "22.41309916", "long": "113.9723357", "routes": [{"ID": "mtrbusK54AI1", "i": 2}]}, "K54A-D040": {"stop": "K54A-D040", "name_en": "Ching Tin Estate", "name_tc": "èç°é¨", "name_sc": "èç°é¨", "lat": "22.41197411", "long": "113.9703303", "routes": [{"ID": "mtrbusK54AI1", "i": 3}]}, "K54A-D050": {"stop": "K54A-D050", "name_en": "Wo Tin Estate", "name_tc": "åç°é¨", "name_sc": "åç°é¨", "lat": "22.41295362", "long": "113.9686386", "routes": [{"ID": "mtrbusK54AI1", "i": 4}]}, "K58-U010": {"stop": "K58-U010", "name_en": "Fu Tai", "name_tc": "å¯æ³°", "name_sc": "å¯æ³°", "lat": "22.412815", "long": "113.982949", "routes": [{"ID": "mtrbusK58O1", "i": 0}]}, "K58-U020": {"stop": "K58-U020", "name_en": "Beneville", "name_tc": "èåº·å±±è", "name_sc": "èåº·å±±è", "lat": "22.412004", "long": "113.98378", "routes": [{"ID": "mtrbusK58O1", "i": 1}]}, "K58-U023": {"stop": "K58-U023", "name_en": "Lingnan University", "name_tc": "å¶ºåå¤§å­¸", "name_sc": "å¶ºåå¤§å­¸", "lat": "22.41059", "long": "113.982387", "routes": [{"ID": "mtrbusK58O1", "i": 2}]}, "K58-U026": {"stop": "K58-U026", "name_en": "Brilliant Garden", "name_tc": "å½©æè±å", "name_sc": "å½©æè±å", "lat": "22.408575", "long": "113.980046", "routes": [{"ID": "mtrbusK58O1", "i": 3}]}, "K58-U030": {"stop": "K58-U030", "name_en": "MTR Siu Hong Station (South) (LR Siu Hong Stop)", "name_tc": "æ¸¯éµååº·ç« (å) (è¼éµååº·ç«)", "name_sc": "æ¸¯éµååº·ç« (å) (è¼éµååº·ç«)", "lat": "22.410247", "long": "113.978583", "routes": [{"ID": "mtrbusK58O1", "i": 4}]}, "K58-U040": {"stop": "K58-U040", "name_en": "Siu Hong Court", "name_tc": "ååº·è", "name_sc": "ååº·è", "lat": "22.4137", "long": "113.976951", "routes": [{"ID": "mtrbusK58O1", "i": 5}]}, "K58-U050": {"stop": "K58-U050", "name_en": "LR Kei Lun Stop", "name_tc": "è¼éµéºéºç«", "name_sc": "è¼éµéºéºç«", "lat": "22.41013", "long": "113.976505", "routes": [{"ID": "mtrbusK58O1", "i": 6}]}, "K58-U060": {"stop": "K58-U060", "name_en": "Tuen Mun Hospital", "name_tc": "å±¯éé«é¢", "name_sc": "å±¯éé«é¢", "lat": "22.408609", "long": "113.975571", "routes": [{"ID": "mtrbusK58O1", "i": 7}]}, "K58-U070": {"stop": "K58-U070", "name_en": "Tsing Chung Koon", "name_tc": "éæ¾è§", "name_sc": "éæ¾è§", "lat": "22.406276", "long": "113.971935", "routes": [{"ID": "mtrbusK58O1", "i": 8}]}, "K58-U080": {"stop": "K58-U080", "name_en": "PLK Vicwood K.T. Chong No.2 Primary School", "name_tc": "ä¿è¯å±èåç¨ç¬¬äºå°å­¸", "name_sc": "ä¿è¯å±èåç¨ç¬¬äºå°å­¸", "lat": "22.404952", "long": "113.968844", "routes": [{"ID": "mtrbusK58O1", "i": 9}]}, "K58-U090": {"stop": "K58-U090", "name_en": "Ho Sau Kei Primary School", "name_tc": "ä½å£½åºå°å­¸", "name_sc": "ä½å£½åºå°å­¸", "lat": "22.405728", "long": "113.967008", "routes": [{"ID": "mtrbusK58O1", "i": 10}]}, "K58-U100": {"stop": "K58-U100", "name_en": "Leung King Estate", "name_tc": "è¯æ¯é¨", "name_sc": "è¯æ¯é¨", "lat": "22.407089", "long": "113.964247", "routes": [{"ID": "mtrbusK58O1", "i": 11}]}, "K58-U110": {"stop": "K58-U110", "name_en": "LR San Wai Stop", "name_tc": "è¼éµæ°åç«", "name_sc": "è¼éµæ°åç«", "lat": "22.405394", "long": "113.964648", "routes": [{"ID": "mtrbusK58O1", "i": 12}]}, "K58-U120": {"stop": "K58-U120", "name_en": "LR Shek Pai Stop", "name_tc": "è¼éµç³æç«", "name_sc": "è¼éµç³æç«", "lat": "22.401886", "long": "113.96805", "routes": [{"ID": "mtrbusK58O1", "i": 13}]}, "K58-U130": {"stop": "K58-U130", "name_en": "LR Ming Kum Stop", "name_tc": "è¼éµé³´ç´ç«", "name_sc": "è¼éµé³´ç´ç«", "lat": "22.396961", "long": "113.967622", "routes": [{"ID": "mtrbusK58O1", "i": 14}]}, "K58-U140": {"stop": "K58-U140", "name_en": "LR Kin On Stop", "name_tc": "è¼éµå»ºå®ç«", "name_sc": "è¼éµå»ºå®ç«", "lat": "22.395021", "long": "113.969976", "routes": [{"ID": "mtrbusK58O1", "i": 15}]}, "K58-U150": {"stop": "K58-U150", "name_en": "MTR Tuen Mun Station", "name_tc": "æ¸¯éµå±¯éç«", "name_sc": "æ¸¯éµå±¯éç«", "lat": "22.394225", "long": "113.973358", "routes": [{"ID": "mtrbusK58O1", "i": 16}]}, "K58-U160": {"stop": "K58-U160", "name_en": "Tuen Mun Town Centre", "name_tc": "å±¯éå¸ä¸­å¿", "name_sc": "å±¯éå¸ä¸­å¿", "lat": "22.391389", "long": "113.975465", "routes": [{"ID": "mtrbusK58O1", "i": 17}]}, "K58-U170": {"stop": "K58-U170", "name_en": "Tuen Mun Government Secondary School", "name_tc": "å±¯éå®ç«ä¸­å­¸", "name_sc": "å±¯éå®ç«ä¸­å­¸", "lat": "22.390652", "long": "113.978795", "routes": [{"ID": "mtrbusK58O1", "i": 18}]}, "K58-U180": {"stop": "K58-U180", "name_en": "Handsome Court", "name_tc": "æé å", "name_sc": "æé å", "lat": "22.387795", "long": "113.980743", "routes": [{"ID": "mtrbusK58O1", "i": 19}]}, "K58-U190": {"stop": "K58-U190", "name_en": "Harvest Garden", "name_tc": "æè±å", "name_sc": "æè±å", "lat": "22.385271", "long": "113.981071", "routes": [{"ID": "mtrbusK58O1", "i": 20}]}, "K58-U200": {"stop": "K58-U200", "name_en": "Sam Shing Estate", "name_tc": "ä¸èé¨", "name_sc": "ä¸èé¨", "lat": "22.381705", "long": "113.978852", "routes": [{"ID": "mtrbusK58O1", "i": 21}]}, "K58-U215": {"stop": "K58-U215", "name_en": "Castle Peak Beach", "name_tc": "éå±±ç£", "name_sc": "éå±±ç£", "lat": "22.378923", "long": "113.980763", "routes": [{"ID": "mtrbusK58O1", "i": 22}]}, "K58-U220": {"stop": "K58-U220", "name_en": "Seaview Garden", "name_tc": "æµ·æ¯è±å", "name_sc": "æµ·æ¯è±å", "lat": "22.377877", "long": "113.983564", "routes": [{"ID": "mtrbusK58O1", "i": 23}]}, "K58-U230": {"stop": "K58-U230", "name_en": "Cafeteria Beach", "name_tc": "åå¡ç£", "name_sc": "åå¡ç£", "lat": "22.374926", "long": "113.986745", "routes": [{"ID": "mtrbusK58O1", "i": 24}]}, "K58-U240": {"stop": "K58-U240", "name_en": "Golden Beach", "name_tc": "é»éæ³³ç", "name_sc": "é»éæ³³ç", "lat": "22.373785", "long": "113.990848", "routes": [{"ID": "mtrbusK58O1", "i": 25}]}, "K58-U250": {"stop": "K58-U250", "name_en": "Hong Kong Gold Coast", "name_tc": "é¦æ¸¯é»éæµ·å²¸", "name_sc": "é¦æ¸¯é»éæµ·å²¸", "lat": "22.372048", "long": "113.993608", "routes": [{"ID": "mtrbusK58O1", "i": 26}]}, "K58-U260": {"stop": "K58-U260", "name_en": "Aegean Coast", "name_tc": "æç´æµ·å²¸", "name_sc": "æç´æµ·å²¸", "lat": "22.371605", "long": "113.9954", "routes": [{"ID": "mtrbusK58O1", "i": 27}]}, "K58-U270": {"stop": "K58-U270", "name_en": "So Kwun Wat Sub-station", "name_tc": "æç®¡ç¬è®é»ç«", "name_sc": "æç®¡ç¬è®é»ç«", "lat": "22.373878", "long": "113.996144", "routes": [{"ID": "mtrbusK58O1", "i": 28}]}, "K58-U280": {"stop": "K58-U280", "name_en": "So Kwun Wat Tsuen", "name_tc": "æç®¡ç¬æ", "name_sc": "æç®¡ç¬æ", "lat": "22.375743", "long": "113.999829", "routes": [{"ID": "mtrbusK58O1", "i": 29}]}, "K58-U290": {"stop": "K58-U290", "name_en": "So Kwun Wat (Mrs. Cheng Yam On Millennium School)", "name_tc": "æç®¡ç¬ (é­ä»»å®å¤«äººåç¦§å°å­¸)", "name_sc": "æç®¡ç¬ (é­ä»»å®å¤«äººåç¦§å°å­¸)", "lat": "22.372023", "long": "114.003593", "routes": [{"ID": "mtrbusK58O1", "i": 30}]}, "K58-U300": {"stop": "K58-U300", "name_en": "So Kwun Wat Road", "name_tc": "æç®¡ç¬è·¯", "name_sc": "æç®¡ç¬è·¯", "lat": "22.374216", "long": "114.002295", "routes": [{"ID": "mtrbusK58O1", "i": 31}]}, "K58-U310": {"stop": "K58-U310", "name_en": "18 Kwun Chui Road", "name_tc": "ç®¡ç¿ è·¯18è", "name_sc": "ç®¡ç¿ è·¯18è", "lat": "22.373866", "long": "114.001024", "routes": [{"ID": "mtrbusK58O1", "i": 32}]}, "K58-U320": {"stop": "K58-U320", "name_en": "Kwun Chui Road", "name_tc": "ç®¡ç¿ è·¯", "name_sc": "ç®¡ç¿ è·¯", "lat": "22.375123", "long": "113.997707", "routes": [{"ID": "mtrbusK58O1", "i": 33}]}, "K58-D001": {"stop": "K58-D001", "name_en": "So Kwun Wat Tsuen", "name_tc": "æç®¡ç¬æ", "name_sc": "æç®¡ç¬æ", "lat": "22.375743", "long": "113.999829", "routes": [{"ID": "mtrbusK58I1", "i": 0}]}, "K58-D002": {"stop": "K58-D002", "name_en": "So Kwun Wat (Mrs. Cheng Yam On Millennium School)", "name_tc": "æç®¡ç¬  (é­ä»»å®å¤«äººåç¦§å°å­¸)", "name_sc": "æç®¡ç¬  (é­ä»»å®å¤«äººåç¦§å°å­¸)", "lat": "22.372023", "long": "114.003593", "routes": [{"ID": "mtrbusK58I1", "i": 1}]}, "K58-D003": {"stop": "K58-D003", "name_en": "So Kwun Wat Road", "name_tc": "æç®¡ç¬è·¯", "name_sc": "æç®¡ç¬è·¯", "lat": "22.374216", "long": "114.002295", "routes": [{"ID": "mtrbusK58I1", "i": 2}]}, "K58-D004": {"stop": "K58-D004", "name_en": "18 Kwun Chui Road", "name_tc": "ç®¡ç¿ è·¯18è", "name_sc": "ç®¡ç¿ è·¯18è", "lat": "22.373866", "long": "114.001024", "routes": [{"ID": "mtrbusK58I1", "i": 3}]}, "K58-D005": {"stop": "K58-D005", "name_en": "Kwun Chui Road", "name_tc": "ç®¡ç¿ è·¯", "name_sc": "ç®¡ç¿ è·¯", "lat": "22.375123", "long": "113.997707", "routes": [{"ID": "mtrbusK58I1", "i": 4}]}, "K58-D006": {"stop": "K58-D006", "name_en": "Aegean Coast", "name_tc": "æç´æµ·å²¸", "name_sc": "æç´æµ·å²¸", "lat": "22.371473", "long": "113.995381", "routes": [{"ID": "mtrbusK58I1", "i": 5}]}, "K58-D007": {"stop": "K58-D007", "name_en": "Hong Kong Gold Coast", "name_tc": "é¦æ¸¯é»éæµ·å²¸", "name_sc": "é¦æ¸¯é»éæµ·å²¸", "lat": "22.371294", "long": "113.993906", "routes": [{"ID": "mtrbusK58I1", "i": 6}]}, "K58-D008": {"stop": "K58-D008", "name_en": "Golden Beach", "name_tc": "é»éæ³³ç", "name_sc": "é»éæ³³ç", "lat": "22.373653", "long": "113.991237", "routes": [{"ID": "mtrbusK58I1", "i": 7}]}, "K58-D009": {"stop": "K58-D009", "name_en": "Cafeteria Beach", "name_tc": "åå¡ç£", "name_sc": "åå¡ç£", "lat": "22.375924", "long": "113.985662", "routes": [{"ID": "mtrbusK58I1", "i": 8}]}, "K58-D011": {"stop": "K58-D011", "name_en": "Bayview Terrace", "name_tc": "ç¢§ç¿ è±å", "name_sc": "ç¢§ç¿ è±å", "lat": "22.377941", "long": "113.983293", "routes": [{"ID": "mtrbusK58I1", "i": 9}]}, "K58-D012": {"stop": "K58-D012", "name_en": "Castle Peak Bay Pier", "name_tc": "éå±±ç£ç¢¼é ­", "name_sc": "éå±±ç£ç¢¼é ­", "lat": "22.378954", "long": "113.980609", "routes": [{"ID": "mtrbusK58I1", "i": 10}]}, "K58-D020": {"stop": "K58-D020", "name_en": "Sam Shing Estate", "name_tc": "ä¸èé¨", "name_sc": "ä¸èé¨", "lat": "22.381189", "long": "113.979146", "routes": [{"ID": "mtrbusK58I1", "i": 11}]}, "K58-D030": {"stop": "K58-D030", "name_en": "Mrs Aw Boon Haw Secondary School", "name_tc": "è¡é³éæä¸­å­¸", "name_sc": "è¡é³éæä¸­å­¸", "lat": "22.383774", "long": "113.97939", "routes": [{"ID": "mtrbusK58I1", "i": 12}]}, "K58-D040": {"stop": "K58-D040", "name_en": "Tsing Sin Playground", "name_tc": "éåéæ¨å ´", "name_sc": "éåéæ¨å ´", "lat": "22.38458", "long": "113.980659", "routes": [{"ID": "mtrbusK58I1", "i": 13}]}, "K58-D050": {"stop": "K58-D050", "name_en": "Chi Lok Fa Yuen", "name_tc": "ç½®æ¨è±å", "name_sc": "ç½®æ¨è±å", "lat": "22.387305", "long": "113.980672", "routes": [{"ID": "mtrbusK58I1", "i": 14}]}, "K58-D060": {"stop": "K58-D060", "name_en": "Tuen Mun Government Secondary School", "name_tc": "å±¯éå®ç«ä¸­å­¸", "name_sc": "å±¯éå®ç«ä¸­å­¸", "lat": "22.39043", "long": "113.978867", "routes": [{"ID": "mtrbusK58I1", "i": 15}]}, "K58-D070": {"stop": "K58-D070", "name_en": "LR Town Centre Stop", "name_tc": "è¼éµå¸ä¸­å¿ç«", "name_sc": "è¼éµå¸ä¸­å¿ç«", "lat": "22.392096", "long": "113.97512", "routes": [{"ID": "mtrbusK58I1", "i": 16}]}, "K58-D080": {"stop": "K58-D080", "name_en": "LR Tuen Mun Stop (MTR Tuen Mun Station)", "name_tc": "è¼éµå±¯éç« (æ¸¯éµå±¯éç«)", "name_sc": "è¼éµå±¯éç« (æ¸¯éµå±¯éç«)", "lat": "22.39395", "long": "113.9737", "routes": [{"ID": "mtrbusK58I1", "i": 17}]}, "K58-D090": {"stop": "K58-D090", "name_en": "LR Kin On Stop", "name_tc": "è¼éµå»ºå®ç«", "name_sc": "è¼éµå»ºå®ç«", "lat": "22.394699", "long": "113.970762", "routes": [{"ID": "mtrbusK58I1", "i": 18}]}, "K58-D100": {"stop": "K58-D100", "name_en": "LR Ming Kum Stop", "name_tc": "è¼éµé³´ç´ç«", "name_sc": "è¼éµé³´ç´ç«", "lat": "22.396769", "long": "113.967425", "routes": [{"ID": "mtrbusK58I1", "i": 19}]}, "K58-D110": {"stop": "K58-D110", "name_en": "LR Shek Pai Stop", "name_tc": "è¼éµç³æç«", "name_sc": "è¼éµç³æç«", "lat": "22.401983", "long": "113.967883", "routes": [{"ID": "mtrbusK58I1", "i": 20}]}, "K58-D120": {"stop": "K58-D120", "name_en": "LR San Wai Stop", "name_tc": "è¼éµæ°åç«", "name_sc": "è¼éµæ°åç«", "lat": "22.405404", "long": "113.963966", "routes": [{"ID": "mtrbusK58I1", "i": 21}]}, "K58-D130": {"stop": "K58-D130", "name_en": "LR Tin King Stop", "name_tc": "è¼éµç°æ¯ç«", "name_sc": "è¼éµç°æ¯ç«", "lat": "22.407716", "long": "113.96598", "routes": [{"ID": "mtrbusK58I1", "i": 22}]}, "K58-D140": {"stop": "K58-D140", "name_en": "Tsing Tin Playground", "name_tc": "éç°éæ¨å ´", "name_sc": "éç°éæ¨å ´", "lat": "22.405974", "long": "113.967207", "routes": [{"ID": "mtrbusK58I1", "i": 23}]}, "K58-D150": {"stop": "K58-D150", "name_en": "Lok Sang House, Kin Sang Estate", "name_tc": "å»ºçé¨æ¨çæ¨", "name_sc": "å»ºçé¨æ¨çæ¨", "lat": "22.405169", "long": "113.968901", "routes": [{"ID": "mtrbusK58I1", "i": 24}]}, "K58-D160": {"stop": "K58-D160", "name_en": "Tai Sang House, Kin Sang Estate", "name_tc": "å»ºçé¨æ³°çæ¨", "name_sc": "å»ºçé¨æ³°çæ¨", "lat": "22.406394", "long": "113.971667", "routes": [{"ID": "mtrbusK58I1", "i": 25}]}, "K58-D170": {"stop": "K58-D170", "name_en": "LR Kei Lun Stop", "name_tc": "è¼éµéºéºç«", "name_sc": "è¼éµéºéºç«", "lat": "22.411042", "long": "113.97648", "routes": [{"ID": "mtrbusK58I1", "i": 26}]}, "K58-D180": {"stop": "K58-D180", "name_en": "Yan Tin Estate", "name_tc": "æ¬£ç°é¨", "name_sc": "æ¬£ç°é¨", "lat": "22.414291", "long": "113.977143", "routes": [{"ID": "mtrbusK58I1", "i": 27}]}, "K58-D190": {"stop": "K58-D190", "name_en": "MTR Siu Hong Station (South) (LR Siu Hong Stop)", "name_tc": "æ¸¯éµååº·ç« (å) (è¼éµååº·ç«)", "name_sc": "æ¸¯éµååº·ç« (å) (è¼éµååº·ç«)", "lat": "22.410378", "long": "113.978607", "routes": [{"ID": "mtrbusK58I1", "i": 28}]}, "K58-D193": {"stop": "K58-D193", "name_en": "Brilliant Garden", "name_tc": "å½©æè±å", "name_sc": "å½©æè±å", "lat": "22.408779", "long": "113.980397", "routes": [{"ID": "mtrbusK58I1", "i": 29}]}, "K58-D196": {"stop": "K58-D196", "name_en": "Lingnan University", "name_tc": "å¶ºåå¤§å­¸", "name_sc": "å¶ºåå¤§å­¸", "lat": "22.410694", "long": "113.982212", "routes": [{"ID": "mtrbusK58I1", "i": 30}]}, "K58-D200": {"stop": "K58-D200", "name_en": "South Hillcrest", "name_tc": "åå¶ºååº­", "name_sc": "åå¶ºååº­", "lat": "22.411915", "long": "113.983238", "routes": [{"ID": "mtrbusK58I1", "i": 31}]}, "K58-D210": {"stop": "K58-D210", "name_en": "Fu Tai", "name_tc": "å¯æ³°", "name_sc": "å¯æ³°", "lat": "22.412815", "long": "113.982949", "routes": [{"ID": "mtrbusK58I1", "i": 32}]}, "K65-U010": {"stop": "K65-U010", "name_en": "Yuen Long Station (LR Yuen Long Stop) (MTR Yuen Long Station)", "name_tc": "åæç« (è¼éµåæç«) (æ¸¯éµåæç«)", "name_sc": "åæç« (è¼éµåæç«) (æ¸¯éµåæç«)", "lat": "22.446443", "long": "114.034518", "routes": [{"ID": "mtrbusK65O1", "i": 0}]}, "K65-U020": {"stop": "K65-U020", "name_en": "Yau San Street", "name_tc": "åæ°è¡", "name_sc": "åæ°è¡", "lat": "22.44451201", "long": "114.0315245", "routes": [{"ID": "mtrbusK65O1", "i": 1}]}, "K65-U030": {"stop": "K65-U030", "name_en": "Tai Tong Road", "name_tc": "å¤§æ£ è·¯", "name_sc": "å¤§æ£ è·¯", "lat": "22.4446245", "long": "114.028421", "routes": [{"ID": "mtrbusK65O1", "i": 2}]}, "K65-U040": {"stop": "K65-U040", "name_en": "Hong Lok Road", "name_tc": "åº·æ¨è·¯", "name_sc": "åº·æ¨è·¯", "lat": "22.44478103", "long": "114.026429", "routes": [{"ID": "mtrbusK65O1", "i": 3}]}, "K65-U050": {"stop": "K65-U050", "name_en": "Yuen Long Police Station", "name_tc": "åæè­¦ç½²", "name_sc": "åæè­¦ç½²", "lat": "22.44449303", "long": "114.024142", "routes": [{"ID": "mtrbusK65O1", "i": 4}]}, "K65-U060": {"stop": "K65-U060", "name_en": "LR Shui Pin Wai Stop", "name_tc": "è¼éµæ°´éåç«", "name_sc": "è¼éµæ°´éåç«", "lat": "22.44449303", "long": "114.02119", "routes": [{"ID": "mtrbusK65O1", "i": 5}]}, "K65-U070": {"stop": "K65-U070", "name_en": "Yuen Long Park", "name_tc": "åæå¬å", "name_sc": "åæå¬å", "lat": "22.44416303", "long": "114.018772", "routes": [{"ID": "mtrbusK65O1", "i": 6}]}, "K65-U080": {"stop": "K65-U080", "name_en": "Long Bin", "name_tc": "æé", "name_sc": "æé", "lat": "22.44347999", "long": "114.014914", "routes": [{"ID": "mtrbusK65O1", "i": 7}]}, "K65-U090": {"stop": "K65-U090", "name_en": "Ping Hing Lane, Ping Shan", "name_tc": "å±å±±å±èé", "name_sc": "å±å±±å±èé", "lat": "22.443597", "long": "114.009912", "routes": [{"ID": "mtrbusK65O1", "i": 8}]}, "K65-U100": {"stop": "K65-U100", "name_en": "Hang Mei Tsuen", "name_tc": "åå°¾æ", "name_sc": "åå°¾æ", "lat": "22.44378098", "long": "114.007739", "routes": [{"ID": "mtrbusK65O1", "i": 9}]}, "K65-U110": {"stop": "K65-U110", "name_en": "LR Hang Mei Tsuen Stop", "name_tc": "è¼éµåå°¾æç«", "name_sc": "è¼éµåå°¾æç«", "lat": "22.445754", "long": "114.004915", "routes": [{"ID": "mtrbusK65O1", "i": 10}]}, "K65-U120": {"stop": "K65-U120", "name_en": "Tin Shing Court (MTR Tin Shui Wai Station)", "name_tc": "å¤©çè (æ¸¯éµå¤©æ°´åç«)", "name_sc": "å¤©çè (æ¸¯éµå¤©æ°´åç«)", "lat": "22.44692696", "long": "114.003126", "routes": [{"ID": "mtrbusK65O1", "i": 11}]}, "K65-U130": {"stop": "K65-U130", "name_en": "Shek Po Road", "name_tc": "ç³åè·¯", "name_sc": "ç³åè·¯", "lat": "22.44667601", "long": "113.998121", "routes": [{"ID": "mtrbusK65O1", "i": 12}]}, "K65-U140": {"stop": "K65-U140", "name_en": "Sha Chau Lei Tsuen", "name_tc": "æ²æ´²éæ", "name_sc": "æ²æ´²éæ", "lat": "22.44606899", "long": "113.995464", "routes": [{"ID": "mtrbusK65O1", "i": 13}]}, "K65-U150": {"stop": "K65-U150", "name_en": "Ha Tsuen", "name_tc": "å»æ", "name_sc": "å»æ", "lat": "22.44756503", "long": "113.9938825", "routes": [{"ID": "mtrbusK65O1", "i": 14}]}, "K65-U160": {"stop": "K65-U160", "name_en": "Shek Kong Wai", "name_tc": "é«éå", "name_sc": "é«éå", "lat": "22.44952099", "long": "113.994281", "routes": [{"ID": "mtrbusK65O1", "i": 15}]}, "K65-U170": {"stop": "K65-U170", "name_en": "Lo Uk Tsuen", "name_tc": "ç¾å±æ", "name_sc": "ç¾å±æ", "lat": "22.451291", "long": "113.994884", "routes": [{"ID": "mtrbusK65O1", "i": 16}]}, "K65-U180": {"stop": "K65-U180", "name_en": "Tung Tau Tsuen (South)", "name_tc": "æ±é ­æ (å)", "name_sc": "æ±é ­æ (å)", "lat": "22.45294902", "long": "113.994668", "routes": [{"ID": "mtrbusK65O1", "i": 17}]}, "K65-U190": {"stop": "K65-U190", "name_en": "Tung Tau Tsuen (North)", "name_tc": "æ±é ­æ (å)", "name_sc": "æ±é ­æ (å)", "lat": "22.45670102", "long": "113.991661", "routes": [{"ID": "mtrbusK65O1", "i": 18}]}, "K65-U200": {"stop": "K65-U200", "name_en": "Fung Kong Tsuen", "name_tc": "é³³éæ", "name_sc": "é³³éæ", "lat": "22.45909799", "long": "113.990368", "routes": [{"ID": "mtrbusK65O1", "i": 19}]}, "K65-U210": {"stop": "K65-U210", "name_en": "Sha Kong Wai", "name_tc": "æ²æ±å", "name_sc": "æ²æ±å", "lat": "22.46156302", "long": "113.988875", "routes": [{"ID": "mtrbusK65O1", "i": 20}]}, "K65-U220": {"stop": "K65-U220", "name_en": "San Hing Tsuen", "name_tc": "æ°æ¶æ", "name_sc": "æ°æ¶æ", "lat": "22.46464396", "long": "113.986202", "routes": [{"ID": "mtrbusK65O1", "i": 21}]}, "K65-U230": {"stop": "K65-U230", "name_en": "Lau Fau Shan", "name_tc": "æµæµ®å±±", "name_sc": "æµæµ®å±±", "lat": "22.467614", "long": "113.983984", "routes": [{"ID": "mtrbusK65O1", "i": 22}]}, "K65-D010": {"stop": "K65-D010", "name_en": "Lau Fau Shan", "name_tc": "æµæµ®å±±", "name_sc": "æµæµ®å±±", "lat": "22.467614", "long": "113.983984", "routes": [{"ID": "mtrbusK65I1", "i": 0}]}, "K65-D020": {"stop": "K65-D020", "name_en": "San Hing Tsuen", "name_tc": "æ°æ¶æ", "name_sc": "æ°æ¶æ", "lat": "22.46416401", "long": "113.986741", "routes": [{"ID": "mtrbusK65I1", "i": 1}]}, "K65-D030": {"stop": "K65-D030", "name_en": "Sha Kong Wai", "name_tc": "æ²æ±å", "name_sc": "æ²æ±å", "lat": "22.46140502", "long": "113.989344", "routes": [{"ID": "mtrbusK65I1", "i": 2}]}, "K65-D040": {"stop": "K65-D040", "name_en": "Fung Kong Tsuen", "name_tc": "é³³éæ", "name_sc": "é³³éæ", "lat": "22.45915096", "long": "113.990515", "routes": [{"ID": "mtrbusK65I1", "i": 3}]}, "K65-D050": {"stop": "K65-D050", "name_en": "Tung Tau Tsuen", "name_tc": "æ±é ­æ", "name_sc": "æ±é ­æ", "lat": "22.45592603", "long": "113.992509", "routes": [{"ID": "mtrbusK65I1", "i": 4}]}, "K65-D060": {"stop": "K65-D060", "name_en": "Lo Uk Tsuen", "name_tc": "ç¾å±æ", "name_sc": "ç¾å±æ", "lat": "22.45256698", "long": "113.994935", "routes": [{"ID": "mtrbusK65I1", "i": 5}]}, "K65-D070": {"stop": "K65-D070", "name_en": "Shek Kong Wai", "name_tc": "é«éå", "name_sc": "é«éå", "lat": "22.44876897", "long": "113.994128", "routes": [{"ID": "mtrbusK65I1", "i": 6}]}, "K65-D080": {"stop": "K65-D080", "name_en": "Ha Tsuen", "name_tc": "å»æ", "name_sc": "å»æ", "lat": "22.44670803", "long": "113.994761", "routes": [{"ID": "mtrbusK65I1", "i": 7}]}, "K65-D090": {"stop": "K65-D090", "name_en": "Sha Chau Lei Tsuen", "name_tc": "æ²æ´²éæ", "name_sc": "æ²æ´²éæ", "lat": "22.44663703", "long": "113.997152", "routes": [{"ID": "mtrbusK65I1", "i": 8}]}, "K65-D100": {"stop": "K65-D100", "name_en": "Tin Shing Court (MTR Tin Shui Wai Station)", "name_tc": "å¤©çè (æ¸¯éµå¤©æ°´åç«)", "name_sc": "å¤©çè (æ¸¯éµå¤©æ°´åç«)", "lat": "22.44694096", "long": "114.00282", "routes": [{"ID": "mtrbusK65I1", "i": 9}]}, "K65-D110": {"stop": "K65-D110", "name_en": "LR Hang Mei Tsuen Stop", "name_tc": "è¼éµåå°¾æç«", "name_sc": "è¼éµåå°¾æç«", "lat": "22.44588903", "long": "114.00512", "routes": [{"ID": "mtrbusK65I1", "i": 10}]}, "K65-D120": {"stop": "K65-D120", "name_en": "Hang Mei Tsuen", "name_tc": "åå°¾æ", "name_sc": "åå°¾æ", "lat": "22.44390302", "long": "114.007678", "routes": [{"ID": "mtrbusK65I1", "i": 11}]}, "K65-D130": {"stop": "K65-D130", "name_en": "Ping Hing Lane, Ping Shan", "name_tc": "å±å±±å±èé", "name_sc": "å±å±±å±èé", "lat": "22.44370999", "long": "114.010233", "routes": [{"ID": "mtrbusK65I1", "i": 12}]}, "K65-D140": {"stop": "K65-D140", "name_en": "LR Ping Shan Stop", "name_tc": "è¼éµå±å±±ç«", "name_sc": "è¼éµå±å±±ç«", "lat": "22.44322099", "long": "114.012915", "routes": [{"ID": "mtrbusK65I1", "i": 13}]}, "K65-D150": {"stop": "K65-D150", "name_en": "LR Shui Pin Wai Stop", "name_tc": "è¼éµæ°´éåç«", "name_sc": "è¼éµæ°´éåç«", "lat": "22.44457601", "long": "114.019733", "routes": [{"ID": "mtrbusK65I1", "i": 14}]}, "K65-D160": {"stop": "K65-D160", "name_en": "Yuen Long Plaza", "name_tc": "åæå»£å ´", "name_sc": "åæå»£å ´", "lat": "22.44457601", "long": "114.023787", "routes": [{"ID": "mtrbusK65I1", "i": 15}]}, "K65-D170": {"stop": "K65-D170", "name_en": "Yuen Long Landmark", "name_tc": "éå¿å»£å ´", "name_sc": "éå¿å»£å ´", "lat": "22.44446897", "long": "114.02828", "routes": [{"ID": "mtrbusK65I1", "i": 16}]}, "K65-D180": {"stop": "K65-D180", "name_en": "Kuk Ting Street", "name_tc": "è°·äº­è¡", "name_sc": "è°·äº­è¡", "lat": "22.44441197", "long": "114.030327", "routes": [{"ID": "mtrbusK65I1", "i": 17}]}, "K65-D190": {"stop": "K65-D190", "name_en": "Yuen Long Station (LR Yuen Long Stop, MTR Yuen Long Station)", "name_tc": "åæç« (è¼éµåæç«, æ¸¯éµåæç«)", "name_sc": "åæç« (è¼éµåæç«, æ¸¯éµåæç«)", "lat": "22.446443", "long": "114.034518", "routes": [{"ID": "mtrbusK65I1", "i": 18}]}, "K65A-U010": {"stop": "K65A-U010", "name_en": "Tin Shui Wai Station (LR Tin Shui Wai Stop)", "name_tc": "å¤©æ°´åç« (è¼éµå¤©æ°´åç«)", "name_sc": "å¤©æ°´åç« (è¼éµå¤©æ°´åç«)", "lat": "22.44654", "long": "114.0037516", "routes": [{"ID": "mtrbusK65AO1", "i": 0}]}, "K65A-U020": {"stop": "K65A-U020", "name_en": "Tin Shing Court (MTR Tin Shui Wai Station)", "name_tc": "å¤©çè (æ¸¯éµå¤©æ°´åç«)", "name_sc": "å¤©çè (æ¸¯éµå¤©æ°´åç«)", "lat": "22.44692696", "long": "114.003126", "routes": [{"ID": "mtrbusK65AO1", "i": 1}]}, "K65A-U030": {"stop": "K65A-U030", "name_en": "Shek Po Road", "name_tc": "ç³åè·¯", "name_sc": "ç³åè·¯", "lat": "22.44667601", "long": "113.998121", "routes": [{"ID": "mtrbusK65AO1", "i": 2}]}, "K65A-U040": {"stop": "K65A-U040", "name_en": "Sha Chau Lei Tsuen", "name_tc": "æ²æ´²éæ", "name_sc": "æ²æ´²éæ", "lat": "22.44606899", "long": "113.995464", "routes": [{"ID": "mtrbusK65AO1", "i": 3}]}, "K65A-U050": {"stop": "K65A-U050", "name_en": "Ha Tsuen", "name_tc": "å»æ", "name_sc": "å»æ", "lat": "22.44756503", "long": "113.9938825", "routes": [{"ID": "mtrbusK65AO1", "i": 4}]}, "K65A-U060": {"stop": "K65A-U060", "name_en": "Shek Kong Wai", "name_tc": "é«éå", "name_sc": "é«éå", "lat": "22.44952099", "long": "113.994281", "routes": [{"ID": "mtrbusK65AO1", "i": 5}]}, "K65A-U070": {"stop": "K65A-U070", "name_en": "Lo Uk Tsuen", "name_tc": "ç¾å±æ", "name_sc": "ç¾å±æ", "lat": "22.451291", "long": "113.994884", "routes": [{"ID": "mtrbusK65AO1", "i": 6}]}, "K65A-U080": {"stop": "K65A-U080", "name_en": "Tung Tau Tsuen (South)", "name_tc": "æ±é ­æ (å)", "name_sc": "æ±é ­æ (å)", "lat": "22.45294902", "long": "113.994668", "routes": [{"ID": "mtrbusK65AO1", "i": 7}]}, "K65A-U090": {"stop": "K65A-U090", "name_en": "Tung Tau Tsuen (North)", "name_tc": "æ±é ­æ (å)", "name_sc": "æ±é ­æ (å)", "lat": "22.45670102", "long": "113.991661", "routes": [{"ID": "mtrbusK65AO1", "i": 8}]}, "K65A-U100": {"stop": "K65A-U100", "name_en": "Fung Kong Tsuen", "name_tc": "é³³éæ", "name_sc": "é³³éæ", "lat": "22.45909799", "long": "113.990368", "routes": [{"ID": "mtrbusK65AO1", "i": 9}]}, "K65A-U110": {"stop": "K65A-U110", "name_en": "Sha Kong Wai", "name_tc": "æ²æ±å", "name_sc": "æ²æ±å", "lat": "22.46156302", "long": "113.988875", "routes": [{"ID": "mtrbusK65AO1", "i": 10}]}, "K65A-U120": {"stop": "K65A-U120", "name_en": "San Hing Tsuen", "name_tc": "æ°æ¶æ", "name_sc": "æ°æ¶æ", "lat": "22.46464396", "long": "113.986202", "routes": [{"ID": "mtrbusK65AO1", "i": 11}]}, "K65A-U130": {"stop": "K65A-U130", "name_en": "Lau Fau Shan", "name_tc": "æµæµ®å±±", "name_sc": "æµæµ®å±±", "lat": "22.467614", "long": "113.983984", "routes": [{"ID": "mtrbusK65AO1", "i": 12}]}, "K65A-D010": {"stop": "K65A-D010", "name_en": "Lau Fau Shan", "name_tc": "æµæµ®å±±", "name_sc": "æµæµ®å±±", "lat": "22.467614", "long": "113.983984", "routes": [{"ID": "mtrbusK65AI1", "i": 0}]}, "K65A-D020": {"stop": "K65A-D020", "name_en": "San Hing Tsuen", "name_tc": "æ°æ¶æ", "name_sc": "æ°æ¶æ", "lat": "22.46416401", "long": "113.986741", "routes": [{"ID": "mtrbusK65AI1", "i": 1}]}, "K65A-D030": {"stop": "K65A-D030", "name_en": "Sha Kong Wai", "name_tc": "æ²æ±å", "name_sc": "æ²æ±å", "lat": "22.46140502", "long": "113.989344", "routes": [{"ID": "mtrbusK65AI1", "i": 2}]}, "K65A-D040": {"stop": "K65A-D040", "name_en": "Fung Kong Tsuen", "name_tc": "é³³éæ", "name_sc": "é³³éæ", "lat": "22.45915096", "long": "113.990515", "routes": [{"ID": "mtrbusK65AI1", "i": 3}]}, "K65A-D050": {"stop": "K65A-D050", "name_en": "Tung Tau Tsuen", "name_tc": "æ±é ­æ", "name_sc": "æ±é ­æ", "lat": "22.45592603", "long": "113.992509", "routes": [{"ID": "mtrbusK65AI1", "i": 4}]}, "K65A-D060": {"stop": "K65A-D060", "name_en": "Lo Uk Tsuen", "name_tc": "ç¾å±æ", "name_sc": "ç¾å±æ", "lat": "22.45256698", "long": "113.994935", "routes": [{"ID": "mtrbusK65AI1", "i": 5}]}, "K65A-D070": {"stop": "K65A-D070", "name_en": "Shek Kong Wai", "name_tc": "é«éå", "name_sc": "é«éå", "lat": "22.44876897", "long": "113.994128", "routes": [{"ID": "mtrbusK65AI1", "i": 6}]}, "K65A-D080": {"stop": "K65A-D080", "name_en": "Ha Tsuen", "name_tc": "å»æ", "name_sc": "å»æ", "lat": "22.44670803", "long": "113.994761", "routes": [{"ID": "mtrbusK65AI1", "i": 7}]}, "K65A-D090": {"stop": "K65A-D090", "name_en": "Sha Chau Lei Tsuen", "name_tc": "æ²æ´²éæ", "name_sc": "æ²æ´²éæ", "lat": "22.44663703", "long": "113.997152", "routes": [{"ID": "mtrbusK65AI1", "i": 8}]}, "K65A-D100": {"stop": "K65A-D100", "name_en": "Tin Shing Court (MTR Tin Shui Wai Station)", "name_tc": "å¤©çè (æ¸¯éµå¤©æ°´åç«)", "name_sc": "å¤©çè (æ¸¯éµå¤©æ°´åç«)", "lat": "22.44694096", "long": "114.00282", "routes": [{"ID": "mtrbusK65AI1", "i": 9}]}, "K65A-D110": {"stop": "K65A-D110", "name_en": "Tin Shui Wai Station (LR Tin Shui Wai Stop)", "name_tc": "å¤©æ°´åç« (è¼éµå¤©æ°´åç«)", "name_sc": "å¤©æ°´åç« (è¼éµå¤©æ°´åç«)", "lat": "22.44654", "long": "114.0037516", "routes": [{"ID": "mtrbusK65AI1", "i": 10}]}, "K66-U010": {"stop": "K66-U010", "name_en": "Long Ping", "name_tc": "æå±", "name_sc": "æå±", "lat": "22.45078121", "long": "114.0229286", "routes": [{"ID": "mtrbusK66O1", "i": 0}]}, "K66-U020": {"stop": "K66-U020", "name_en": "Yeung Uk Tsuen", "name_tc": "æ¥å±æ", "name_sc": "æ¥å±æ", "lat": "22.45134693", "long": "114.0254022", "routes": [{"ID": "mtrbusK66O1", "i": 1}]}, "K66-U030": {"stop": "K66-U030", "name_en": "Ping Cheong Path (MTR Long Ping Station)", "name_tc": "å±æå¾ (æ¸¯éµæå±ç«)", "name_sc": "å±æå¾ (æ¸¯éµæå±ç«)", "lat": "22.447672", "long": "114.023295", "routes": [{"ID": "mtrbusK66O1", "i": 2}]}, "K66-U040": {"stop": "K66-U040", "name_en": "Yuen Long Home for the Aged Blind", "name_tc": "åæç²äººå®èé¢", "name_sc": "åæç²äººå®èé¢", "lat": "22.446002", "long": "114.022607", "routes": [{"ID": "mtrbusK66O1", "i": 3}]}, "K66-U050": {"stop": "K66-U050", "name_en": "Yuen Long Town Hall (LR Fung Nin Road Stop)", "name_tc": "åæå¤§æå  (è¼éµè±å¹´è·¯ç«)", "name_sc": "åæå¤§æå  (è¼éµè±å¹´è·¯ç«)", "lat": "22.4434668", "long": "114.0223167", "routes": [{"ID": "mtrbusK66O1", "i": 4}]}, "K66-U060": {"stop": "K66-U060", "name_en": "On Hong Road", "name_tc": "å®åº·è·¯", "name_sc": "å®åº·è·¯", "lat": "22.44306167", "long": "114.0236577", "routes": [{"ID": "mtrbusK66O1", "i": 5}]}, "K66-U070": {"stop": "K66-U070", "name_en": "Yuen Long Commercial Centre", "name_tc": "åæåæ¥­ä¸­å¿", "name_sc": "åæåæ¥­ä¸­å¿", "lat": "22.44297", "long": "114.027754", "routes": [{"ID": "mtrbusK66O1", "i": 6}]}, "K66-U080": {"stop": "K66-U080", "name_en": "Manhattan Plaza", "name_tc": "å¯éå»£å ´", "name_sc": "å¯éå»£å ´", "lat": "22.44120404", "long": "114.0294022", "routes": [{"ID": "mtrbusK66O1", "i": 7}]}, "K66-U090": {"stop": "K66-U090", "name_en": "Sereno Verde", "name_tc": "è¶ç¿ å³°", "name_sc": "è¶ç¿ å³°", "lat": "22.436903", "long": "114.029411", "routes": [{"ID": "mtrbusK66O1", "i": 8}]}, "K66-U100": {"stop": "K66-U100", "name_en": "Fraser Village", "name_tc": "ç¦®ä¿®æ", "name_sc": "ç¦®ä¿®æ", "lat": "22.435406", "long": "114.0287683", "routes": [{"ID": "mtrbusK66O1", "i": 9}]}, "K66-U110": {"stop": "K66-U110", "name_en": "Sham Chung Tsuen", "name_tc": "æ·±æ¶æ", "name_sc": "æ·±æ¶æ", "lat": "22.43369688", "long": "114.0285876", "routes": [{"ID": "mtrbusK66O1", "i": 10}]}, "K66-U120": {"stop": "K66-U120", "name_en": "Law Ka Yuen", "name_tc": "ç¾å®¶å", "name_sc": "ç¾å®¶å", "lat": "22.43240032", "long": "114.0285171", "routes": [{"ID": "mtrbusK66O1", "i": 11}]}, "K66-U130": {"stop": "K66-U130", "name_en": "Shung Ching School", "name_tc": "å´æ­£å¬ç«å­¸æ ¡", "name_sc": "å´æ­£å¬ç«å­¸æ ¡", "lat": "22.42978906", "long": "114.0286105", "routes": [{"ID": "mtrbusK66O1", "i": 12}]}, "K66-U140": {"stop": "K66-U140", "name_en": "Shung Ching Vegetable Market", "name_tc": "å´æ­£èç«", "name_sc": "å´æ­£èç«", "lat": "22.42739559", "long": "114.0295088", "routes": [{"ID": "mtrbusK66O1", "i": 13}]}, "K66-U150": {"stop": "K66-U150", "name_en": "Lo Wai", "name_tc": "èå", "name_sc": "èå", "lat": "22.42562276", "long": "114.0312735", "routes": [{"ID": "mtrbusK66O1", "i": 14}]}, "K66-U160": {"stop": "K66-U160", "name_en": "Chun Wah Villas", "name_tc": "æ¯è¯è±å", "name_sc": "æ¯è¯è±å", "lat": "22.42356303", "long": "114.0321846", "routes": [{"ID": "mtrbusK66O1", "i": 15}]}, "K66-U170": {"stop": "K66-U170", "name_en": "Nam Hang Pai", "name_tc": "ååæ", "name_sc": "ååæ", "lat": "22.42265522", "long": "114.0308948", "routes": [{"ID": "mtrbusK66O1", "i": 16}]}, "K66-U180": {"stop": "K66-U180", "name_en": "Shui Chiu San Tsuen", "name_tc": "æ°´èæ°æ", "name_sc": "æ°´èæ°æ", "lat": "22.42247664", "long": "114.0298802", "routes": [{"ID": "mtrbusK66O1", "i": 17}]}, "K66-U190": {"stop": "K66-U190", "name_en": "Wah Yuen", "name_tc": "è¯è", "name_sc": "è¯è", "lat": "22.42193919", "long": "114.0282615", "routes": [{"ID": "mtrbusK66O1", "i": 18}]}, "K66-U200": {"stop": "K66-U200", "name_en": "Tai Tong Roundabout", "name_tc": "å¤§æ£ è¿´æè", "name_sc": "å¤§æ£ è¿´æè", "lat": "22.41836575", "long": "114.0256553", "routes": [{"ID": "mtrbusK66O1", "i": 19}]}, "K66-U210": {"stop": "K66-U210", "name_en": "Tai Tong Shan Road", "name_tc": "å¤§æ£ å±±è·¯", "name_sc": "å¤§æ£ å±±è·¯", "lat": "22.41618728", "long": "114.0236994", "routes": [{"ID": "mtrbusK66O1", "i": 20}]}, "K66-U220": {"stop": "K66-U220", "name_en": "Tai Tong Wong Nai Tun Tsuen", "name_tc": "å¤§æ£ é»æ³¥å¢©æ", "name_sc": "å¤§æ£ é»æ³¥å¢©æ", "lat": "22.416389", "long": "114.021874", "routes": [{"ID": "mtrbusK66O1", "i": 21}]}, "K66-D010": {"stop": "K66-D010", "name_en": "Tai Tong Wong Nai Tun Tsuen", "name_tc": "å¤§æ£ é»æ³¥å¢©æ", "name_sc": "å¤§æ£ é»æ³¥å¢©æ", "lat": "22.416389", "long": "114.021874", "routes": [{"ID": "mtrbusK66I1", "i": 0}]}, "K66-D020": {"stop": "K66-D020", "name_en": "Tai Tong Shan Road", "name_tc": "å¤§æ£ å±±è·¯", "name_sc": "å¤§æ£ å±±è·¯", "lat": "22.41620604", "long": "114.0238973", "routes": [{"ID": "mtrbusK66I1", "i": 1}]}, "K66-D030": {"stop": "K66-D030", "name_en": "Tai Tong Roundabout", "name_tc": "å¤§æ£ è¿´æè", "name_sc": "å¤§æ£ è¿´æè", "lat": "22.418334", "long": "114.02484", "routes": [{"ID": "mtrbusK66I1", "i": 2}]}, "K66-D040": {"stop": "K66-D040", "name_en": "Wah Yuen", "name_tc": "è¯è", "name_sc": "è¯è", "lat": "22.42207521", "long": "114.0283849", "routes": [{"ID": "mtrbusK66I1", "i": 3}]}, "K66-D050": {"stop": "K66-D050", "name_en": "Shui Chiu San Tsuen", "name_tc": "æ°´èæ°æ", "name_sc": "æ°´èæ°æ", "lat": "22.42253674", "long": "114.0299286", "routes": [{"ID": "mtrbusK66I1", "i": 4}]}, "K66-D060": {"stop": "K66-D060", "name_en": "Nam Hang Pai", "name_tc": "ååæ", "name_sc": "ååæ", "lat": "22.42270841", "long": "114.0310276", "routes": [{"ID": "mtrbusK66I1", "i": 5}]}, "K66-D070": {"stop": "K66-D070", "name_en": "Nam Hang Tsuen", "name_tc": "ååæ", "name_sc": "ååæ", "lat": "22.42418205", "long": "114.0322333", "routes": [{"ID": "mtrbusK66I1", "i": 6}]}, "K66-D080": {"stop": "K66-D080", "name_en": "Hung Tso Tin Tsuen", "name_tc": "ç´æ£ç°æ", "name_sc": "ç´æ£ç°æ", "lat": "22.42571102", "long": "114.0311155", "routes": [{"ID": "mtrbusK66I1", "i": 7}]}, "K66-D090": {"stop": "K66-D090", "name_en": "Po Shing Wai", "name_tc": "æ®çå", "name_sc": "æ®çå", "lat": "22.42751631", "long": "114.0293547", "routes": [{"ID": "mtrbusK66I1", "i": 8}]}, "K66-D100": {"stop": "K66-D100", "name_en": "Shung Ching School", "name_tc": "å´æ­£å¬ç«å­¸æ ¡", "name_sc": "å´æ­£å¬ç«å­¸æ ¡", "lat": "22.42993918", "long": "114.0285687", "routes": [{"ID": "mtrbusK66I1", "i": 9}]}, "K66-D110": {"stop": "K66-D110", "name_en": "Law Ka Yuen", "name_tc": "ç¾å®¶å", "name_sc": "ç¾å®¶å", "lat": "22.4321724", "long": "114.0284926", "routes": [{"ID": "mtrbusK66I1", "i": 10}]}, "K66-D120": {"stop": "K66-D120", "name_en": "Sham Chung Tsuen", "name_tc": "æ·±æ¶æ", "name_sc": "æ·±æ¶æ", "lat": "22.43377173", "long": "114.0285624", "routes": [{"ID": "mtrbusK66I1", "i": 11}]}, "K66-D130": {"stop": "K66-D130", "name_en": "Fraser Village", "name_tc": "ç¦®ä¿®æ", "name_sc": "ç¦®ä¿®æ", "lat": "22.43543081", "long": "114.0287164", "routes": [{"ID": "mtrbusK66I1", "i": 12}]}, "K66-D140": {"stop": "K66-D140", "name_en": "Sereno Verde", "name_tc": "è¶ç¿ å³°", "name_sc": "è¶ç¿ å³°", "lat": "22.43724051", "long": "114.0295783", "routes": [{"ID": "mtrbusK66I1", "i": 13}]}, "K66-D150": {"stop": "K66-D150", "name_en": "Hang Heung Cake Shop", "name_tc": "æé¦è£½é¤å» ", "name_sc": "æé¦è£½é¤å» ", "lat": "22.43836882", "long": "114.0294482", "routes": [{"ID": "mtrbusK66I1", "i": 14}]}, "K66-D160": {"stop": "K66-D160", "name_en": "Manhattan Plaza", "name_tc": "å¯éå»£å ´", "name_sc": "å¯éå»£å ´", "lat": "22.44119428", "long": "114.0293385", "routes": [{"ID": "mtrbusK66I1", "i": 15}]}, "K66-D170": {"stop": "K66-D170", "name_en": "Citi Mall", "name_tc": "åè²å»£å ´", "name_sc": "åè²å»£å ´", "lat": "22.44298197", "long": "114.0278032", "routes": [{"ID": "mtrbusK66I1", "i": 16}]}, "K66-D180": {"stop": "K66-D180", "name_en": "On Hong Road", "name_tc": "å®åº·è·¯", "name_sc": "å®åº·è·¯", "lat": "22.44302568", "long": "114.0230108", "routes": [{"ID": "mtrbusK66I1", "i": 17}]}, "K66-D190": {"stop": "K66-D190", "name_en": "Yuen Long Town Hall (LR Fung Nin Road Stop)", "name_tc": "åæå¤§æå  (è¼éµè±å¹´è·¯ç«)", "name_sc": "åæå¤§æå  (è¼éµè±å¹´è·¯ç«)", "lat": "22.44362078", "long": "114.0222338", "routes": [{"ID": "mtrbusK66I1", "i": 18}]}, "K66-D200": {"stop": "K66-D200", "name_en": "Hong Shui House, Shui Pin Wai Estate", "name_tc": "æ°´éåé¨åº·æ°´æ¨", "name_sc": "æ°´éåé¨åº·æ°´æ¨", "lat": "22.44613943", "long": "114.0213445", "routes": [{"ID": "mtrbusK66I1", "i": 19}]}, "K66-D210": {"stop": "K66-D210", "name_en": "Yuet Ping House, Long Ping Estate (MTR Long Ping Station)", "name_tc": "æå±é¨æå±æ¨ (æ¸¯éµæå±ç«)", "name_sc": "æå±é¨æå±æ¨ (æ¸¯éµæå±ç«)", "lat": "22.44785153", "long": "114.0227269", "routes": [{"ID": "mtrbusK66I1", "i": 20}]}, "K66-D220": {"stop": "K66-D220", "name_en": "Wai Chow School", "name_tc": "æ å·å­¸æ ¡", "name_sc": "æ å·å­¸æ ¡", "lat": "22.449515", "long": "114.025532", "routes": [{"ID": "mtrbusK66I1", "i": 21}]}, "K66-D230": {"stop": "K66-D230", "name_en": "Chu Ping House, Long Ping Estate", "name_tc": "æå±é¨ç å±æ¨", "name_sc": "æå±é¨ç å±æ¨", "lat": "22.451414", "long": "114.025334", "routes": [{"ID": "mtrbusK66I1", "i": 22}]}, "K66-D240": {"stop": "K66-D240", "name_en": "Long Ping", "name_tc": "æå±", "name_sc": "æå±", "lat": "22.45078121", "long": "114.0229286", "routes": [{"ID": "mtrbusK66I1", "i": 23}]}, "K68-U010": {"stop": "K68-U010", "name_en": "Yuen Long Industrial Estate", "name_tc": "åæå·¥æ¥­é¨", "name_sc": "åæå·¥æ¥­é¨", "lat": "22.460827", "long": "114.026513", "routes": [{"ID": "mtrbusK68O1", "i": 0}]}, "K68-U020": {"stop": "K68-U020", "name_en": "Toppan Forms Card Tech Ltd", "name_tc": "å¸çè³è¨å¡", "name_sc": "å¸çè³è¨å¡", "lat": "22.462075", "long": "114.028979", "routes": [{"ID": "mtrbusK68O1", "i": 1}]}, "K68-U030": {"stop": "K68-U030", "name_en": "Nestle (HK) Ltd", "name_tc": "éå·¢", "name_sc": "éå·¢", "lat": "22.463753", "long": "114.027581", "routes": [{"ID": "mtrbusK68O1", "i": 2}]}, "K68-U040": {"stop": "K68-U040", "name_en": "Yuen Long Sewage Treatment Works", "name_tc": "åææ±¡æ°´èçå» ", "name_sc": "åææ±¡æ°´èçå» ", "lat": "22.465525", "long": "114.026843", "routes": [{"ID": "mtrbusK68O1", "i": 3}]}, "K68-U050": {"stop": "K68-U050", "name_en": "Wai Yuen Tong Medicine Building", "name_tc": "ä½åå è¥æ¥­å¤§å»", "name_sc": "ä½åå è¥æ¥­å¤§å»", "lat": "22.464754", "long": "114.024822", "routes": [{"ID": "mtrbusK68O1", "i": 4}]}, "K68-U060": {"stop": "K68-U060", "name_en": "TDK Manufacturing (HK) Co Ltd", "name_tc": "æ±é»åé»å­é¶ä»¶", "name_sc": "æ±é»åé»å­é¶ä»¶", "lat": "22.462219", "long": "114.023448", "routes": [{"ID": "mtrbusK68O1", "i": 5}]}, "K68-U070": {"stop": "K68-U070", "name_en": "Toppan Printing Co (HK) Ltd", "name_tc": "å¸çå°å·", "name_sc": "å¸çå°å·", "lat": "22.46039", "long": "114.022169", "routes": [{"ID": "mtrbusK68O1", "i": 6}]}, "K68-U080": {"stop": "K68-U080", "name_en": "Telford International Industries Ltd", "name_tc": "å¯æ³åéå¯¦æ¥­", "name_sc": "å¯æ³åéå¯¦æ¥­", "lat": "22.45845", "long": "114.023157", "routes": [{"ID": "mtrbusK68O1", "i": 7}]}, "K68-U090": {"stop": "K68-U090", "name_en": "Wang Chau Fuk Hing Tsuen", "name_tc": "æ©«æ´²ç¦æ¶æ", "name_sc": "æ©«æ´²ç¦æ¶æ", "lat": "22.455119", "long": "114.024092", "routes": [{"ID": "mtrbusK68O1", "i": 8}]}, "K68-U100": {"stop": "K68-U100", "name_en": "Long Ping (Bus Terminus)", "name_tc": "æå± (å·´å£«ç¸½ç«)", "name_sc": "æå± (å·´å£«ç¸½ç«)", "lat": "22.45078121", "long": "114.0229286", "routes": [{"ID": "mtrbusK68O1", "i": 9}]}, "K68-U110": {"stop": "K68-U110", "name_en": "Yeung Uk Tsuen", "name_tc": "æ¥å±æ", "name_sc": "æ¥å±æ", "lat": "22.451379", "long": "114.025576", "routes": [{"ID": "mtrbusK68O1", "i": 10}]}, "K68-U120": {"stop": "K68-U120", "name_en": "Ping Cheong Path (MTR Long Ping Station)", "name_tc": "å±æå¾ (æ¸¯éµæå±ç«)", "name_sc": "å±æå¾ (æ¸¯éµæå±ç«)", "lat": "22.447648", "long": "114.023001", "routes": [{"ID": "mtrbusK68O1", "i": 11}]}, "K68-U130": {"stop": "K68-U130", "name_en": "Yuen Long Home for the Aged Blind", "name_tc": "åæç²äººå®èé¢", "name_sc": "åæç²äººå®èé¢", "lat": "22.446002", "long": "114.022607", "routes": [{"ID": "mtrbusK68O1", "i": 12}]}, "K68-U140": {"stop": "K68-U140", "name_en": "Lut Sau Hall (LR Fung Nin Road Stop)", "name_tc": "è¿ä¿®å  (è¼éµè±å¹´è·¯ç«)", "name_sc": "è¿ä¿®å  (è¼éµè±å¹´è·¯ç«)", "lat": "22.442588", "long": "114.022245", "routes": [{"ID": "mtrbusK68O1", "i": 13}]}, "K68-U150": {"stop": "K68-U150", "name_en": "Yuen Long Theatre", "name_tc": "åæåé¢", "name_sc": "åæåé¢", "lat": "22.441306", "long": "114.02224", "routes": [{"ID": "mtrbusK68O1", "i": 14}]}, "K68-U160": {"stop": "K68-U160", "name_en": "Silver Field Garden", "name_tc": "éç°è±å", "name_sc": "éç°è±å", "lat": "22.43953", "long": "114.02226", "routes": [{"ID": "mtrbusK68O1", "i": 15}]}, "K68-U170": {"stop": "K68-U170", "name_en": "South Yuen Long Government Primary School", "name_tc": "ååæå®ç«å°å­¸", "name_sc": "ååæå®ç«å°å­¸", "lat": "22.438801", "long": "114.02024", "routes": [{"ID": "mtrbusK68O1", "i": 16}]}, "K68-D010": {"stop": "K68-D010", "name_en": "Yuen Long Park", "name_tc": "åæå¬å", "name_sc": "åæå¬å", "lat": "22.44193", "long": "114.02007", "routes": [{"ID": "mtrbusK68O1", "i": 17}]}, "K68-D020": {"stop": "K68-D020", "name_en": "Park Royale", "name_tc": "å¾¡è±ªå±±è", "name_sc": "å¾¡è±ªå±±è", "lat": "22.442503", "long": "114.017663", "routes": [{"ID": "mtrbusK68O1", "i": 18}]}, "K68-D030": {"stop": "K68-D030", "name_en": "Villa Art Deco", "name_tc": "èå¸å±", "name_sc": "èå¸å±", "lat": "22.440088", "long": "114.019048", "routes": [{"ID": "mtrbusK68O1", "i": 19}]}, "K68-D040": {"stop": "K68-D040", "name_en": "Springdale Villas", "name_tc": "å¾¡åº­å±", "name_sc": "å¾¡åº­å±", "lat": "22.440407", "long": "114.021312", "routes": [{"ID": "mtrbusK68O1", "i": 20}]}, "K68-D050": {"stop": "K68-D050", "name_en": "Yuen Long Swimming Pool", "name_tc": "åææ¸¸æ³³æ± ", "name_sc": "åææ¸¸æ³³æ± ", "lat": "22.44149722", "long": "114.0221389", "routes": [{"ID": "mtrbusK68O1", "i": 21}]}, "K68-D060": {"stop": "K68-D060", "name_en": "Yuen Long Town Hall", "name_tc": "åæå¤§æå ", "name_sc": "åæå¤§æå ", "lat": "22.443644", "long": "114.022164", "routes": [{"ID": "mtrbusK68O1", "i": 22}]}, "K68-D070": {"stop": "K68-D070", "name_en": "Yuen Long Plaza (LR Fung Nin Road Stop)", "name_tc": "åæå»£å ´ (è¼éµè±å¹´è·¯ç«)", "name_sc": "åæå»£å ´ (è¼éµè±å¹´è·¯ç«)", "lat": "22.444676", "long": "114.023705", "routes": [{"ID": "mtrbusK68O1", "i": 23}]}, "K68-D080": {"stop": "K68-D080", "name_en": "Yuen Long On Ning Road", "name_tc": "åæå®å¯§è·¯", "name_sc": "åæå®å¯§è·¯", "lat": "22.446157", "long": "114.026583", "routes": [{"ID": "mtrbusK68O1", "i": 24}]}, "K68-D090": {"stop": "K68-D090", "name_en": "Tai Kiu Tsuen (MTR Long Ping Station)", "name_tc": "å¤§æ©æ (æ¸¯éµæå±ç«)", "name_sc": "å¤§æ©æ (æ¸¯éµæå±ç«)", "lat": "22.447538", "long": "114.026826", "routes": [{"ID": "mtrbusK68O1", "i": 25}]}, "K68-D100": {"stop": "K68-D100", "name_en": "Wai Chow School", "name_tc": "æ å·å­¸æ ¡", "name_sc": "æ å·å­¸æ ¡", "lat": "22.449497", "long": "114.025532", "routes": [{"ID": "mtrbusK68O1", "i": 26}]}, "K68-D110": {"stop": "K68-D110", "name_en": "Chu Ping House, Long Ping Estate", "name_tc": "æå±é¨ç å±æ¨", "name_sc": "æå±é¨ç å±æ¨", "lat": "22.451434", "long": "114.025324", "routes": [{"ID": "mtrbusK68O1", "i": 27}]}, "K68-D120": {"stop": "K68-D120", "name_en": "Long Ping (Bus Terminus)", "name_tc": "æå± (å·´å£«ç¸½ç«)", "name_sc": "æå± (å·´å£«ç¸½ç«)", "lat": "22.45078121", "long": "114.0229286", "routes": [{"ID": "mtrbusK68O1", "i": 28}]}, "K68-D130": {"stop": "K68-D130", "name_en": "Wang Chau Fuk Hing Tsuen", "name_tc": "æ©«æ´²ç¦æ¶æ", "name_sc": "æ©«æ´²ç¦æ¶æ", "lat": "22.455166", "long": "114.02403", "routes": [{"ID": "mtrbusK68O1", "i": 29}]}, "K68-D140": {"stop": "K68-D140", "name_en": "Yuen Long Textile Co Ltd", "name_tc": "åæç´¡ç¹å", "name_sc": "åæç´¡ç¹å", "lat": "22.45789", "long": "114.023353", "routes": [{"ID": "mtrbusK68O1", "i": 30}]}, "K68-D150": {"stop": "K68-D150", "name_en": "DCH Food Processing & Logistics Centre", "name_tc": "å¤§æè¡é£åå å·¥åç©æµä¸­å¿", "name_sc": "å¤§æè¡é£åå å·¥åç©æµä¸­å¿", "lat": "22.460236", "long": "114.022242", "routes": [{"ID": "mtrbusK68O1", "i": 31}]}, "K68-D160": {"stop": "K68-D160", "name_en": "Yau Sang Galvanizers (Hot-Dip) Co Ltd", "name_tc": "æçéæ°´(ç±æµ¸é)", "name_sc": "æçéæ°´(ç±æµ¸é)", "lat": "22.462306", "long": "114.023412", "routes": [{"ID": "mtrbusK68O1", "i": 32}]}, "K68-D170": {"stop": "K68-D170", "name_en": "Eu Yan Sang Centre", "name_tc": "ä½ä»çä¸­å¿", "name_sc": "ä½ä»çä¸­å¿", "lat": "22.464968", "long": "114.024783", "routes": [{"ID": "mtrbusK68O1", "i": 33}]}, "K68-D180": {"stop": "K68-D180", "name_en": "Yuen Long Sewage Treatment Works", "name_tc": "åææ±¡æ°´èçå» ", "name_sc": "åææ±¡æ°´èçå» ", "lat": "22.465479", "long": "114.026899", "routes": [{"ID": "mtrbusK68O1", "i": 34}]}, "K68-D190": {"stop": "K68-D190", "name_en": "Nestle (HK) Ltd", "name_tc": "éå·¢", "name_sc": "éå·¢", "lat": "22.463782", "long": "114.027638", "routes": [{"ID": "mtrbusK68O1", "i": 35}]}, "K68-D200": {"stop": "K68-D200", "name_en": "Ushio HK Ltd", "name_tc": "çå°¾é¦æ¸¯", "name_sc": "çå°¾é¦æ¸¯", "lat": "22.461655", "long": "114.029313", "routes": [{"ID": "mtrbusK68O1", "i": 36}]}, "K68-U011": {"stop": "K68-U011", "name_en": "Yuen Long Industrial Estate", "name_tc": "åæå·¥æ¥­é¨", "name_sc": "åæå·¥æ¥­é¨", "lat": "22.460827", "long": "114.026513", "routes": [{"ID": "mtrbusK68O1", "i": 37}]}, "K73-U010": {"stop": "K73-U010", "name_en": "Tin Heng", "name_tc": "å¤©æ", "name_sc": "å¤©æ", "lat": "22.469006", "long": "113.999661", "routes": [{"ID": "mtrbusK73O1", "i": 0}]}, "K73-U020": {"stop": "K73-U020", "name_en": "Yat Tam House, Tin Yat Estate", "name_tc": "å¤©é¸é¨é¸æ½­æ¨", "name_sc": "å¤©é¸é¨é¸æ½­æ¨", "lat": "22.468098", "long": "113.999163", "routes": [{"ID": "mtrbusK73O1", "i": 1}]}, "K73-U030": {"stop": "K73-U030", "name_en": "Yat Yeung House, Tin Yat Estate", "name_tc": "å¤©é¸é¨é¸æ´æ¨", "name_sc": "å¤©é¸é¨é¸æ´æ¨", "lat": "22.465511", "long": "114.00016", "routes": [{"ID": "mtrbusK73O1", "i": 2}]}, "K73-U040": {"stop": "K73-U040", "name_en": "Ching Pik House, Tin Ching Estate", "name_tc": "å¤©æ´é¨æ´ç¢§æ¨", "name_sc": "å¤©æ´é¨æ´ç¢§æ¨", "lat": "22.464482", "long": "114.003129", "routes": [{"ID": "mtrbusK73O1", "i": 3}]}, "K73-U050": {"stop": "K73-U050", "name_en": "HKFYG Lee Shau Kee College", "name_tc": "é¦æ¸¯éå¹´åææååºæ¸é¢", "name_sc": "é¦æ¸¯éå¹´åææååºæ¸é¢", "lat": "22.463253", "long": "114.004136", "routes": [{"ID": "mtrbusK73O1", "i": 4}]}, "K73-U060": {"stop": "K73-U060", "name_en": "Maywood Court, Tin Kwai Road", "name_tc": "å¤©èµè·¯ç¾æ¹å±", "name_sc": "å¤©èµè·¯ç¾æ¹å±", "lat": "22.46082", "long": "114.004565", "routes": [{"ID": "mtrbusK73O1", "i": 5}]}, "K73-U070": {"stop": "K73-U070", "name_en": "Kenswood Court, Tin Shing Road", "name_tc": "å¤©åè·¯æ¯æ¹å±", "name_sc": "å¤©åè·¯æ¯æ¹å±", "lat": "22.457444", "long": "114.005577", "routes": [{"ID": "mtrbusK73O1", "i": 6}]}, "K73-U080": {"stop": "K73-U080", "name_en": "Tin Tsz Estate", "name_tc": "å¤©æé¨", "name_sc": "å¤©æé¨", "lat": "22.453279", "long": "114.006118", "routes": [{"ID": "mtrbusK73O1", "i": 7}]}, "K73-U090": {"stop": "K73-U090", "name_en": "Fung Chi Tsuen", "name_tc": "é³³æ± æ", "name_sc": "é³³æ± æ", "lat": "22.44845", "long": "114.018634", "routes": [{"ID": "mtrbusK73O1", "i": 8}]}, "K73-U100": {"stop": "K73-U100", "name_en": "Long Ping (Bus Terminus)", "name_tc": "æå± (å·´å£«ç¸½ç«)", "name_sc": "æå± (å·´å£«ç¸½ç«)", "lat": "22.45078121", "long": "114.0229286", "routes": [{"ID": "mtrbusK73O1", "i": 9}]}, "K73-U110": {"stop": "K73-U110", "name_en": "Yuen Long Home for the Aged Blind", "name_tc": "åæç²äººå®èé¢", "name_sc": "åæç²äººå®èé¢", "lat": "22.446002", "long": "114.022607", "routes": [{"ID": "mtrbusK73O1", "i": 10}]}, "K73-U120": {"stop": "K73-U120", "name_en": "Yuen Long West (LR Fung Nin Road Stop)", "name_tc": "åæè¥¿ (è¼éµè±å¹´è·¯ç«)", "name_sc": "åæè¥¿ (è¼éµè±å¹´è·¯ç«)", "lat": "22.445181", "long": "114.024919", "routes": [{"ID": "mtrbusK73O1", "i": 11}]}, "K73-D010": {"stop": "K73-D010", "name_en": "Yuen Long West (LR Fung Nin Road Stop)", "name_tc": "åæè¥¿ (è¼éµè±å¹´è·¯ç«)", "name_sc": "åæè¥¿ (è¼éµè±å¹´è·¯ç«)", "lat": "22.445181", "long": "114.024919", "routes": [{"ID": "mtrbusK73I1", "i": 0}]}, "K73-D020": {"stop": "K73-D020", "name_en": "Yuen Long On Ning Road", "name_tc": "åæå®å¯§è·¯", "name_sc": "åæå®å¯§è·¯", "lat": "22.446162", "long": "114.026731", "routes": [{"ID": "mtrbusK73I1", "i": 1}]}, "K73-D030": {"stop": "K73-D030", "name_en": "Tai Kiu Tsuen (MTR Long Ping Station)", "name_tc": "å¤§æ©æ (æ¸¯éµæå±ç«)", "name_sc": "å¤§æ©æ (æ¸¯éµæå±ç«)", "lat": "22.447489", "long": "114.026856", "routes": [{"ID": "mtrbusK73I1", "i": 2}]}, "K73-D040": {"stop": "K73-D040", "name_en": "Wai Chow School", "name_tc": "æ å·å­¸æ ¡", "name_sc": "æ å·å­¸æ ¡", "lat": "22.449497", "long": "114.02552", "routes": [{"ID": "mtrbusK73I1", "i": 3}]}, "K73-D050": {"stop": "K73-D050", "name_en": "Chu Ping House, Long Ping Estate", "name_tc": "æå±é¨ç å±æ¨", "name_sc": "æå±é¨ç å±æ¨", "lat": "22.451408", "long": "114.025329", "routes": [{"ID": "mtrbusK73I1", "i": 4}]}, "K73-D070": {"stop": "K73-D070", "name_en": "Long Ping (Bus Terminus)", "name_tc": "æå± (å·´å£«ç¸½ç«)", "name_sc": "æå± (å·´å£«ç¸½ç«)", "lat": "22.45078121", "long": "114.0229286", "routes": [{"ID": "mtrbusK73I1", "i": 5}]}, "K73-D080": {"stop": "K73-D080", "name_en": "Fung Chi Tsuen", "name_tc": "é³³æ± æ", "name_sc": "é³³æ± æ", "lat": "22.448299", "long": "114.018562", "routes": [{"ID": "mtrbusK73I1", "i": 6}]}, "K73-D090": {"stop": "K73-D090", "name_en": "LR Tin Tsz Stop", "name_tc": "è¼éµå¤©æç«", "name_sc": "è¼éµå¤©æç«", "lat": "22.453358", "long": "114.00589", "routes": [{"ID": "mtrbusK73I1", "i": 7}]}, "K73-D100": {"stop": "K73-D100", "name_en": "Tin Shui Wai Swimming Pool", "name_tc": "å¤©æ°´åæ¸¸æ³³æ± ", "name_sc": "å¤©æ°´åæ¸¸æ³³æ± ", "lat": "22.455038", "long": "114.007159", "routes": [{"ID": "mtrbusK73I1", "i": 8}]}, "K73-D110": {"stop": "K73-D110", "name_en": "Kenswood Court, Tin Lung Road", "name_tc": "å¤©é¾è·¯æ¯æ¹å±", "name_sc": "å¤©é¾è·¯æ¯æ¹å±", "lat": "22.458987", "long": "114.005282", "routes": [{"ID": "mtrbusK73I1", "i": 9}]}, "K73-D120": {"stop": "K73-D120", "name_en": "Lynwood Court, Tin Kwai Road", "name_tc": "å¤©èµè·¯éºæ¹å±", "name_sc": "å¤©èµè·¯éºæ¹å±", "lat": "22.460486", "long": "114.004634", "routes": [{"ID": "mtrbusK73I1", "i": 10}]}, "K73-D130": {"stop": "K73-D130", "name_en": "Ching Wan House, Tin Ching Estate", "name_tc": "å¤©æ´é¨æ´é²æ¨", "name_sc": "å¤©æ´é¨æ´é²æ¨", "lat": "22.463375", "long": "114.00392", "routes": [{"ID": "mtrbusK73I1", "i": 11}]}, "K73-D140": {"stop": "K73-D140", "name_en": "Nang Fu House, Tin Fu Court", "name_tc": "å¤©å¯èè½å¯é£", "name_sc": "å¤©å¯èè½å¯é£", "lat": "22.465398", "long": "114.000072", "routes": [{"ID": "mtrbusK73I1", "i": 12}]}, "K73-D150": {"stop": "K73-D150", "name_en": "Tin Chak Estate", "name_tc": "å¤©æ¾¤é¨", "name_sc": "å¤©æ¾¤é¨", "lat": "22.468127", "long": "113.999183", "routes": [{"ID": "mtrbusK73I1", "i": 13}]}, "K73-D160": {"stop": "K73-D160", "name_en": "Tin Heng", "name_tc": "å¤©æ", "name_sc": "å¤©æ", "lat": "22.469006", "long": "113.999661", "routes": [{"ID": "mtrbusK73I1", "i": 14}]}, "K74-U001": {"stop": "K74-U001", "name_en": "Tin Shui Wai Town Centre", "name_tc": "å¤©æ°´åå¸ä¸­å¿", "name_sc": "å¤©æ°´åå¸ä¸­å¿", "lat": "22.458553", "long": "114.001415", "routes": [{"ID": "mtrbusK74O1", "i": 0}]}, "K74-U004": {"stop": "K74-U004", "name_en": "Chung Ki House Tin Chung Court", "name_tc": "å¤©é èé æ£é£", "name_sc": "å¤©é èé æ£é£", "lat": "22.461849", "long": "114.000382", "routes": [{"ID": "mtrbusK74O1", "i": 1}]}, "K74-U007": {"stop": "K74-U007", "name_en": "Tin Chung Court", "name_tc": "å¤©é è", "name_sc": "å¤©é è", "lat": "22.460735", "long": "113.997158", "routes": [{"ID": "mtrbusK74O1", "i": 2}]}, "K74-U010": {"stop": "K74-U010", "name_en": "Tin Shui", "name_tc": "å¤©ç", "name_sc": "å¤©ç", "lat": "22.455322", "long": "113.998689", "routes": [{"ID": "mtrbusK74O1", "i": 3}]}, "K74-U020": {"stop": "K74-U020", "name_en": "Tin Shui Wai Park", "name_tc": "å¤©æ°´åå¬å", "name_sc": "å¤©æ°´åå¬å", "lat": "22.454452", "long": "114.003146", "routes": [{"ID": "mtrbusK74O1", "i": 4}]}, "K74-U030": {"stop": "K74-U030", "name_en": "Tin Tsz Estate", "name_tc": "å¤©æé¨", "name_sc": "å¤©æé¨", "lat": "22.453288", "long": "114.006135", "routes": [{"ID": "mtrbusK74O1", "i": 5}]}, "K74-U040": {"stop": "K74-U040", "name_en": "Fung Chi Tsuen", "name_tc": "é³³æ± æ", "name_sc": "é³³æ± æ", "lat": "22.448467", "long": "114.018601", "routes": [{"ID": "mtrbusK74O1", "i": 6}]}, "K74-U050": {"stop": "K74-U050", "name_en": "Long Ping (Bus Terminus)", "name_tc": "æå± (å·´å£«ç¸½ç«)", "name_sc": "æå± (å·´å£«ç¸½ç«)", "lat": "22.450549", "long": "114.022688", "routes": [{"ID": "mtrbusK74O1", "i": 7}]}, "K74-U060": {"stop": "K74-U060", "name_en": "Yuen Long Home for the Aged Blind", "name_tc": "åæç²äººå®èé¢", "name_sc": "åæç²äººå®èé¢", "lat": "22.445968", "long": "114.022572", "routes": [{"ID": "mtrbusK74O1", "i": 8}]}, "K74-U070": {"stop": "K74-U070", "name_en": "Yuen Long Plaza (LR Fung Nin Road Stop)", "name_tc": "åæå»£å ´ (è¼éµè±å¹´è·¯ç«)", "name_sc": "åæå»£å ´ (è¼éµè±å¹´è·¯ç«)", "lat": "22.44467", "long": "114.023718", "routes": [{"ID": "mtrbusK74O1", "i": 9}]}, "K74-U080": {"stop": "K74-U080", "name_en": "Yuen Long Landmark", "name_tc": "éå¿å»£å ´", "name_sc": "éå¿å»£å ´", "lat": "22.4444", "long": "114.02836", "routes": [{"ID": "mtrbusK74O1", "i": 10}]}, "K74-U090": {"stop": "K74-U090", "name_en": "MTR Yuen Long Station (Long Yat Road) (MTR Yuen Long Station)", "name_tc": "æ¸¯éµåæç«(ææ¥è·¯)  (æ¸¯éµåæç«)", "name_sc": "æ¸¯éµåæç«(ææ¥è·¯)  (æ¸¯éµåæç«)", "lat": "22.446625", "long": "114.0349444", "routes": [{"ID": "mtrbusK74O1", "i": 11}]}, "K74-U100": {"stop": "K74-U100", "name_en": "Pok Oi Hospital", "name_tc": "åæé«é¢", "name_sc": "åæé«é¢", "lat": "22.444787", "long": "114.040379", "routes": [{"ID": "mtrbusK74O1", "i": 12}]}, "K74-D010": {"stop": "K74-D010", "name_en": "Tung Shing Lei", "name_tc": "æ±æé", "name_sc": "æ±æé", "lat": "22.44436944", "long": "114.0436667", "routes": [{"ID": "mtrbusK74O1", "i": 13}]}, "K74-D020": {"stop": "K74-D020", "name_en": "TWGHs C.Y.Ma Memorial College (near Long Shin Estate)", "name_tc": "æ±è¯ä¸é¢é¦¬æ¯çä¸­å­¸(è¿æåé¨)", "name_sc": "æ±è¯ä¸é¢é¦¬æ¯çä¸­å­¸(è¿æåé¨)", "lat": "22.44403889", "long": "114.0439444", "routes": [{"ID": "mtrbusK74O1", "i": 14}]}, "K74-D030": {"stop": "K74-D030", "name_en": "Tai Kiu Tsuen (MTR Long Ping Station)", "name_tc": "å¤§æ©æ (æ¸¯éµæå±ç«)", "name_sc": "å¤§æ©æ (æ¸¯éµæå±ç«)", "lat": "22.447487", "long": "114.026853", "routes": [{"ID": "mtrbusK74O1", "i": 15}]}, "K74-D040": {"stop": "K74-D040", "name_en": "Wai Chow School", "name_tc": "æ å·å­¸æ ¡", "name_sc": "æ å·å­¸æ ¡", "lat": "22.449502", "long": "114.025527", "routes": [{"ID": "mtrbusK74O1", "i": 16}]}, "K74-D050": {"stop": "K74-D050", "name_en": "Chu Ping House, Long Ping Estate", "name_tc": "æå±é¨ç å±æ¨", "name_sc": "æå±é¨ç å±æ¨", "lat": "22.451421", "long": "114.025317", "routes": [{"ID": "mtrbusK74O1", "i": 17}]}, "K74-D060": {"stop": "K74-D060", "name_en": "Long Ping (Bus Terminus)", "name_tc": "æå± (å·´å£«ç¸½ç«)", "name_sc": "æå± (å·´å£«ç¸½ç«)", "lat": "22.450549", "long": "114.022688", "routes": [{"ID": "mtrbusK74O1", "i": 18}]}, "K74-D070": {"stop": "K74-D070", "name_en": "Fung Chi Tsuen", "name_tc": "é³³æ± æ", "name_sc": "é³³æ± æ", "lat": "22.448256", "long": "114.018583", "routes": [{"ID": "mtrbusK74O1", "i": 19}]}, "K74-D080": {"stop": "K74-D080", "name_en": "LR Tin Tsz Stop", "name_tc": "è¼éµå¤©æç«", "name_sc": "è¼éµå¤©æç«", "lat": "22.45321", "long": "114.005918", "routes": [{"ID": "mtrbusK74O1", "i": 20}]}, "K74-D090": {"stop": "K74-D090", "name_en": "Tin Shui Wai Park", "name_tc": "å¤©æ°´åå¬å", "name_sc": "å¤©æ°´åå¬å", "lat": "22.454616", "long": "114.002637", "routes": [{"ID": "mtrbusK74O1", "i": 21}]}, "K74-U011": {"stop": "K74-U011", "name_en": "Tin Shui", "name_tc": "å¤©ç", "name_sc": "å¤©ç", "lat": "22.45677", "long": "113.999096", "routes": [{"ID": "mtrbusK74O1", "i": 22}]}, "K74-D100": {"stop": "K74-D100", "name_en": "Tin Wah Estate", "name_tc": "å¤©è¯é¨", "name_sc": "å¤©è¯é¨", "lat": "22.460285", "long": "113.997021", "routes": [{"ID": "mtrbusK74O1", "i": 23}]}, "K74-D110": {"stop": "K74-D110", "name_en": "Tin Yuet Estate", "name_tc": "å¤©æé¨", "name_sc": "å¤©æé¨", "lat": "22.462045", "long": "113.999639", "routes": [{"ID": "mtrbusK74O1", "i": 24}]}, "K74-U002": {"stop": "K74-U002", "name_en": "Tin Shui Wai Town Centre", "name_tc": "å¤©æ°´åå¸ä¸­å¿", "name_sc": "å¤©æ°´åå¸ä¸­å¿", "lat": "22.458332", "long": "114.001471", "routes": [{"ID": "mtrbusK74O1", "i": 25}]}, "K75A-U010": {"stop": "K75A-U010", "name_en": "Tin Shui Wai Station (LR Tin Shui Wai Stop)", "name_tc": "å¤©æ°´åç« (è¼éµå¤©æ°´åç«)", "name_sc": "å¤©æ°´åç« (è¼éµå¤©æ°´åç«)", "lat": "22.44654", "long": "114.0037516", "routes": [{"ID": "mtrbusK75AO1", "i": 0}]}, "K75A-U020": {"stop": "K75A-U020", "name_en": "Tin Shing Court (MTR Tin Shui Wai Station)", "name_tc": "å¤©çè (æ¸¯éµå¤©æ°´åç«)", "name_sc": "å¤©çè (æ¸¯éµå¤©æ°´åç«)", "lat": "22.446839", "long": "114.00307", "routes": [{"ID": "mtrbusK75AO1", "i": 1}]}, "K75A-U030": {"stop": "K75A-U030", "name_en": "Shek Po Tsuen", "name_tc": "ç³åæ", "name_sc": "ç³åæ", "lat": "22.440307", "long": "113.998965", "routes": [{"ID": "mtrbusK75AO1", "i": 2}]}, "K75A-D010": {"stop": "K75A-D010", "name_en": "LR Hung Shui Kiu Stop", "name_tc": "è¼éµæ´ªæ°´æ©ç«", "name_sc": "è¼éµæ´ªæ°´æ©ç«", "lat": "22.433489", "long": "113.99772", "routes": [{"ID": "mtrbusK75AO1", "i": 3}]}, "K75A-D020": {"stop": "K75A-D020", "name_en": "Rural Committee", "name_tc": "éäºå§å¡æ", "name_sc": "éäºå§å¡æ", "lat": "22.432897", "long": "113.992837", "routes": [{"ID": "mtrbusK75AO1", "i": 4}]}, "K75A-D030": {"stop": "K75A-D030", "name_en": "Tin Sam", "name_tc": "ç°å¿", "name_sc": "ç°å¿", "lat": "22.434526", "long": "113.992613", "routes": [{"ID": "mtrbusK75AO1", "i": 5}]}, "K75A-D040": {"stop": "K75A-D040", "name_en": "San Lee Uk Tsuen", "name_tc": "æ°æå±æ", "name_sc": "æ°æå±æ", "lat": "22.436504", "long": "113.991851", "routes": [{"ID": "mtrbusK75AO1", "i": 6}]}, "K75A-D050": {"stop": "K75A-D050", "name_en": "San Sang Tsuen", "name_tc": "æ°çæ", "name_sc": "æ°çæ", "lat": "22.439615", "long": "113.991583", "routes": [{"ID": "mtrbusK75AO1", "i": 7}]}, "K75A-D060": {"stop": "K75A-D060", "name_en": "Lee Uk Tsuen", "name_tc": "æå±æ", "name_sc": "æå±æ", "lat": "22.443545", "long": "113.991309", "routes": [{"ID": "mtrbusK75AO1", "i": 8}]}, "K75A-D070": {"stop": "K75A-D070", "name_en": "San Uk Tsuen", "name_tc": "æ°å±æ", "name_sc": "æ°å±æ", "lat": "22.445107", "long": "113.992349", "routes": [{"ID": "mtrbusK75AO1", "i": 9}]}, "K75A-D080": {"stop": "K75A-D080", "name_en": "Ha Tsuen Shi", "name_tc": "å»æå¸", "name_sc": "å»æå¸", "lat": "22.446257", "long": "113.993342", "routes": [{"ID": "mtrbusK75AO1", "i": 10}]}, "K75A-D090": {"stop": "K75A-D090", "name_en": "Ha Tsuen ", "name_tc": "å»æ", "name_sc": "å»æ", "lat": "22.44670803", "long": "113.994761", "routes": [{"ID": "mtrbusK75AO1", "i": 11}]}, "K75A-D100": {"stop": "K75A-D100", "name_en": "Sha Chau Lei Tsuen", "name_tc": "æ²æ´²éæ", "name_sc": "æ²æ´²éæ", "lat": "22.44663703", "long": "113.997152", "routes": [{"ID": "mtrbusK75AO1", "i": 12}]}, "K75A-D110": {"stop": "K75A-D110", "name_en": "Tin Shing Court (MTR Tin Shui Wai Station)", "name_tc": "å¤©çè (æ¸¯éµå¤©æ°´åç«)", "name_sc": "å¤©çè (æ¸¯éµå¤©æ°´åç«)", "lat": "22.446928", "long": "114.002891", "routes": [{"ID": "mtrbusK75AO1", "i": 13}]}, "K75A-U011": {"stop": "K75A-U011", "name_en": "Tin Shui Wai Station (LR Tin Shui Wai Stop)", "name_tc": "å¤©æ°´åç« (è¼éµå¤©æ°´åç«)", "name_sc": "å¤©æ°´åç« (è¼éµå¤©æ°´åç«)", "lat": "22.44654", "long": "114.0037516", "routes": [{"ID": "mtrbusK75AO1", "i": 14}]}, "K75P-U010": {"stop": "K75P-U010", "name_en": "Tin Shui", "name_tc": "å¤©ç", "name_sc": "å¤©ç", "lat": "22.455356", "long": "113.998975", "routes": [{"ID": "mtrbusK75PO1", "i": 0}]}, "K75P-U020": {"stop": "K75P-U020", "name_en": "Tin Shui Wai Park", "name_tc": "å¤©æ°´åå¬å", "name_sc": "å¤©æ°´åå¬å", "lat": "22.454494", "long": "114.003128", "routes": [{"ID": "mtrbusK75PO1", "i": 1}]}, "K75P-U030": {"stop": "K75P-U030", "name_en": "Yiu Shing House, Tin Yiu Estate", "name_tc": "å¤©èé¨èçæ¨", "name_sc": "å¤©èé¨èçæ¨", "lat": "22.452347", "long": "114.002244", "routes": [{"ID": "mtrbusK75PO1", "i": 2}]}, "K75P-U040": {"stop": "K75P-U040", "name_en": "LR Tin Yiu Stop", "name_tc": "è¼éµå¤©èç«", "name_sc": "è¼éµå¤©èç«", "lat": "22.450039", "long": "114.002836", "routes": [{"ID": "mtrbusK75PO1", "i": 3}]}, "K75P-U050": {"stop": "K75P-U050", "name_en": "Tin Shing Court (MTR Tin Shui Wai Station)", "name_tc": "å¤©çè (æ¸¯éµå¤©æ°´åç«)", "name_sc": "å¤©çè (æ¸¯éµå¤©æ°´åç«)", "lat": "22.446917", "long": "114.003097", "routes": [{"ID": "mtrbusK75PO1", "i": 4}]}, "K75P-U060": {"stop": "K75P-U060", "name_en": "Shek Po Road", "name_tc": "ç³åè·¯", "name_sc": "ç³åè·¯", "lat": "22.446711", "long": "113.998247", "routes": [{"ID": "mtrbusK75PO1", "i": 5}]}, "K75P-U070": {"stop": "K75P-U070", "name_en": "Sha Chau Lei Tsuen", "name_tc": "æ²æ´²éæ", "name_sc": "æ²æ´²éæ", "lat": "22.446108", "long": "113.995617", "routes": [{"ID": "mtrbusK75PO1", "i": 6}]}, "K75P-U080": {"stop": "K75P-U080", "name_en": "Ha Tsuen Shi", "name_tc": "å»æå¸", "name_sc": "å»æå¸", "lat": "22.446186", "long": "113.993353", "routes": [{"ID": "mtrbusK75PO1", "i": 7}]}, "K75P-U090": {"stop": "K75P-U090", "name_en": "San Uk Tsuen", "name_tc": "æ°å±æ", "name_sc": "æ°å±æ", "lat": "22.445111", "long": "113.992378", "routes": [{"ID": "mtrbusK75PO1", "i": 8}]}, "K75P-U100": {"stop": "K75P-U100", "name_en": "Lee Uk Tsuen", "name_tc": "æå±æ", "name_sc": "æå±æ", "lat": "22.443717", "long": "113.991383", "routes": [{"ID": "mtrbusK75PO1", "i": 9}]}, "K75P-U110": {"stop": "K75P-U110", "name_en": "San Sang Tsuen", "name_tc": "æ°çæ", "name_sc": "æ°çæ", "lat": "22.440183", "long": "113.991708", "routes": [{"ID": "mtrbusK75PO1", "i": 10}]}, "K75P-U120": {"stop": "K75P-U120", "name_en": "San Lee Uk Tsuen", "name_tc": "æ°æå±æ", "name_sc": "æ°æå±æ", "lat": "22.436125", "long": "113.992242", "routes": [{"ID": "mtrbusK75PO1", "i": 11}]}, "K75P-U130": {"stop": "K75P-U130", "name_en": "Tin Sam", "name_tc": "ç°å¿", "name_sc": "ç°å¿", "lat": "22.433431", "long": "113.992694", "routes": [{"ID": "mtrbusK75PO1", "i": 12}]}, "K75P-U140": {"stop": "K75P-U140", "name_en": "Rural Committee", "name_tc": "éäºå§å¡æ", "name_sc": "éäºå§å¡æ", "lat": "22.431597", "long": "113.992822", "routes": [{"ID": "mtrbusK75PO1", "i": 13}]}, "K75P-D010": {"stop": "K75P-D010", "name_en": "LR Hung Shui Kiu Stop", "name_tc": "è¼éµæ´ªæ°´æ©ç«", "name_sc": "è¼éµæ´ªæ°´æ©ç«", "lat": "22.433889", "long": "113.997633", "routes": [{"ID": "mtrbusK75PO1", "i": 14}]}, "K75P-D020": {"stop": "K75P-D020", "name_en": "Hung Shui Kiu Bus Depot", "name_tc": "æ´ªæ°´æ©å·´å£«å» ", "name_sc": "æ´ªæ°´æ©å·´å£«å» ", "lat": "22.436081", "long": "113.99985", "routes": [{"ID": "mtrbusK75PO1", "i": 15}]}, "K75P-D030": {"stop": "K75P-D030", "name_en": "Hung Fuk Estate", "name_tc": "æ´ªç¦é¨", "name_sc": "æ´ªç¦é¨", "lat": "22.437436", "long": "113.999028", "routes": [{"ID": "mtrbusK75PO1", "i": 16}]}, "K75P-D040": {"stop": "K75P-D040", "name_en": "Shek Po Tsuen", "name_tc": "ç³åæ", "name_sc": "ç³åæ", "lat": "22.440381", "long": "113.998406", "routes": [{"ID": "mtrbusK75PO1", "i": 17}]}, "K75P-D050": {"stop": "K75P-D050", "name_en": "Tin Shing Court (MTR Tin Shui Wai Station)", "name_tc": "å¤©çè (æ¸¯éµå¤©æ°´åç«)", "name_sc": "å¤©çè (æ¸¯éµå¤©æ°´åç«)", "lat": "22.446897", "long": "114.002789", "routes": [{"ID": "mtrbusK75PO1", "i": 18}]}, "K75P-D060": {"stop": "K75P-D060", "name_en": "Tin Shui Wai Police Station", "name_tc": "å¤©æ°´åè­¦ç½²", "name_sc": "å¤©æ°´åè­¦ç½²", "lat": "22.449461", "long": "114.002956", "routes": [{"ID": "mtrbusK75PO1", "i": 19}]}, "K75P-D070": {"stop": "K75P-D070", "name_en": "Sherwood Court", "name_tc": "è³æ¹å±", "name_sc": "è³æ¹å±", "lat": "22.452539", "long": "114.002228", "routes": [{"ID": "mtrbusK75PO1", "i": 20}]}, "K75P-D080": {"stop": "K75P-D080", "name_en": "Tin Shui Wai Park", "name_tc": "å¤©æ°´åå¬å", "name_sc": "å¤©æ°´åå¬å", "lat": "22.454522", "long": "114.002736", "routes": [{"ID": "mtrbusK75PO1", "i": 21}]}, "K75P-U011": {"stop": "K75P-U011", "name_en": "Tin Shui", "name_tc": "å¤©ç", "name_sc": "å¤©ç", "lat": "22.455356", "long": "113.998975", "routes": [{"ID": "mtrbusK75PO1", "i": 22}]}, "K76-U010": {"stop": "K76-U010", "name_en": "Tin Heng", "name_tc": "å¤©æ", "name_sc": "å¤©æ", "lat": "22.469006", "long": "113.999661", "routes": [{"ID": "mtrbusK76O1", "i": 0}]}, "K76-U020": {"stop": "K76-U020", "name_en": "Yat Tam House, Tin Yat Estate", "name_tc": "å¤©é¸é¨é¸æ½­æ¨", "name_sc": "å¤©é¸é¨é¸æ½­æ¨", "lat": "22.468178", "long": "113.999383", "routes": [{"ID": "mtrbusK76O1", "i": 1}]}, "K76-U030": {"stop": "K76-U030", "name_en": "Yan Fu House, Tin Fu Court", "name_tc": "å¤©å¯èæ¬£å¯é£", "name_sc": "å¤©å¯èæ¬£å¯é£", "lat": "22.464353", "long": "113.997442", "routes": [{"ID": "mtrbusK76O1", "i": 2}]}, "K76-U040": {"stop": "K76-U040", "name_en": "Tin Shing Court (MTR Tin Shui Wai Station)", "name_tc": "å¤©çè (æ¸¯éµå¤©æ°´åç«)", "name_sc": "å¤©çè (æ¸¯éµå¤©æ°´åç«)", "lat": "22.446864", "long": "114.002819", "routes": [{"ID": "mtrbusK76O1", "i": 3}]}, "K76-U050": {"stop": "K76-U050", "name_en": "Tin Shui Wai Station (MTR Tin Shui Wai Station)", "name_tc": "å¤©æ°´åç« (æ¸¯éµå¤©æ°´åç«)", "name_sc": "å¤©æ°´åç« (æ¸¯éµå¤©æ°´åç«)", "lat": "22.446556", "long": "114.003731", "routes": [{"ID": "mtrbusK76O1", "i": 4}]}, "K76-D010": {"stop": "K76-D010", "name_en": "Tin Shui Wai Station (MTR Tin Shui Wai Station)", "name_tc": "å¤©æ°´åç« (æ¸¯éµå¤©æ°´åç«)", "name_sc": "å¤©æ°´åç« (æ¸¯éµå¤©æ°´åç«)", "lat": "22.446556", "long": "114.003731", "routes": [{"ID": "mtrbusK76I1", "i": 0}]}, "K76-D020": {"stop": "K76-D020", "name_en": "Tin Yan Estate", "name_tc": "å¤©æ©é¨", "name_sc": "å¤©æ©é¨", "lat": "22.464592", "long": "113.99725", "routes": [{"ID": "mtrbusK76I1", "i": 1}]}, "K76-D030": {"stop": "K76-D030", "name_en": "Tin Chak Estate", "name_tc": "å¤©æ¾¤é¨", "name_sc": "å¤©æ¾¤é¨", "lat": "22.468061", "long": "113.999058", "routes": [{"ID": "mtrbusK76I1", "i": 2}]}, "K76-D040": {"stop": "K76-D040", "name_en": "Tin Heng", "name_tc": "å¤©æ", "name_sc": "å¤©æ", "lat": "22.469006", "long": "113.999661", "routes": [{"ID": "mtrbusK76I1", "i": 3}]}}