{"AWE": {"stop": "AWE", "name_en": "AsiaWorld-Expo", "name_tc": "åè¦½é¤¨", "name_sc": "åè¦½é¤¨", "lat": 22.4921038605387, "long": 114.13867307108252, "routes": [{"ID": "mtrAELDT1", "i": 0}, {"ID": "mtrAELUT1", "i": 4}]}, "AIR": {"stop": "AIR", "name_en": "Airport", "name_tc": "æ©å ´", "name_sc": "æ©å ´", "lat": 22.4921038605387, "long": 114.13867307108252, "routes": [{"ID": "mtrAELDT1", "i": 1}, {"ID": "mtrAELUT1", "i": 3}]}, "TSY": {"stop": "TSY", "name_en": "Tsing Yi", "name_tc": "éè¡£", "name_sc": "éè¡£", "lat": 22.4921038605387, "long": 114.13867307108252, "routes": [{"ID": "mtrAELDT1", "i": 2}, {"ID": "mtrAELUT1", "i": 2}, {"ID": "mtrTCLDT1", "i": 2}, {"ID": "mtrTCLUT1", "i": 5}]}, "KOW": {"stop": "KOW", "name_en": "Kowloon", "name_tc": "ä¹é¾", "name_sc": "ä¹é¾", "lat": 22.4921038605387, "long": 114.13867307108252, "routes": [{"ID": "mtrAELDT1", "i": 3}, {"ID": "mtrAELUT1", "i": 1}, {"ID": "mtrTCLDT1", "i": 6}, {"ID": "mtrTCLUT1", "i": 1}]}, "HOK": {"stop": "HOK", "name_en": "Hong Kong", "name_tc": "é¦æ¸¯", "name_sc": "é¦æ¸¯", "lat": 22.4921038605387, "long": 114.13867307108252, "routes": [{"ID": "mtrAELDT1", "i": 4}, {"ID": "mtrAELUT1", "i": 0}, {"ID": "mtrTCLDT1", "i": 7}, {"ID": "mtrTCLUT1", "i": 0}]}, "SUN": {"stop": "SUN", "name_en": "Sunny Bay", "name_tc": "æ¬£æ¾³", "name_sc": "æ¬£æ¾³", "lat": 22.4921038605387, "long": 114.13867307108252, "routes": [{"ID": "mtrDRLDT1", "i": 0}, {"ID": "mtrDRLUT1", "i": 1}, {"ID": "mtrTCLDT1", "i": 1}, {"ID": "mtrTCLUT1", "i": 6}]}, "DIS": {"stop": "DIS", "name_en": "Disneyland Resort", "name_tc": "è¿ªå£«å°¼", "name_sc": "è¿ªå£«å°¼", "lat": 22.4921038605387, "long": 114.13867307108252, "routes": [{"ID": "mtrDRLDT1", "i": 1}, {"ID": "mtrDRLUT1", "i": 0}]}, "LOW": {"stop": "LOW", "name_en": "Lo Wu", "name_tc": "ç¾æ¹", "name_sc": "ç¾æ¹", "lat": 22.4921038605387, "long": 114.13867307108252, "routes": [{"ID": "mtrEALDT1", "i": 0}, {"ID": "mtrEALUT1", "i": 13}]}, "SHS": {"stop": "SHS", "name_en": "Sheung Shui", "name_tc": "ä¸æ°´", "name_sc": "ä¸æ°´", "lat": 22.4921038605387, "long": 114.13867307108252, "routes": [{"ID": "mtrEALDT1", "i": 1}, {"ID": "mtrEALLMC-DT1", "i": 1}, {"ID": "mtrEALLMC-UT1", "i": 12}, {"ID": "mtrEALUT1", "i": 12}]}, "FAN": {"stop": "FAN", "name_en": "Fanling", "name_tc": "ç²å¶º", "name_sc": "ç²å¶º", "lat": 22.4921038605387, "long": 114.13867307108252, "routes": [{"ID": "mtrEALDT1", "i": 2}, {"ID": "mtrEALLMC-DT1", "i": 2}, {"ID": "mtrEALLMC-UT1", "i": 11}, {"ID": "mtrEALUT1", "i": 11}]}, "TWO": {"stop": "TWO", "name_en": "Tai Wo", "name_tc": "å¤ªå", "name_sc": "å¤ªå", "lat": 22.4921038605387, "long": 114.13867307108252, "routes": [{"ID": "mtrEALDT1", "i": 3}, {"ID": "mtrEALLMC-DT1", "i": 3}, {"ID": "mtrEALLMC-UT1", "i": 10}, {"ID": "mtrEALUT1", "i": 10}]}, "TAP": {"stop": "TAP", "name_en": "Tai Po Market", "name_tc": "å¤§åå¢", "name_sc": "å¤§åå¢", "lat": 22.4921038605387, "long": 114.13867307108252, "routes": [{"ID": "mtrEALDT1", "i": 4}, {"ID": "mtrEALLMC-DT1", "i": 4}, {"ID": "mtrEALLMC-UT1", "i": 9}, {"ID": "mtrEALUT1", "i": 9}]}, "UNI": {"stop": "UNI", "name_en": "University", "name_tc": "å¤§å­¸", "name_sc": "å¤§å­¸", "lat": 22.4921038605387, "long": 114.13867307108252, "routes": [{"ID": "mtrEALDT1", "i": 5}, {"ID": "mtrEALLMC-DT1", "i": 5}, {"ID": "mtrEALLMC-UT1", "i": 8}, {"ID": "mtrEALUT1", "i": 8}]}, "FOT": {"stop": "FOT", "name_en": "Fo Tan", "name_tc": "ç«ç­", "name_sc": "ç«ç­", "lat": 22.4921038605387, "long": 114.13867307108252, "routes": [{"ID": "mtrEALDT1", "i": 6}, {"ID": "mtrEALLMC-DT1", "i": 6}, {"ID": "mtrEALLMC-UT1", "i": 7}, {"ID": "mtrEALUT1", "i": 7}]}, "SHT": {"stop": "SHT", "name_en": "Sha Tin", "name_tc": "æ²ç°", "name_sc": "æ²ç°", "lat": 22.4921038605387, "long": 114.13867307108252, "routes": [{"ID": "mtrEALDT1", "i": 7}, {"ID": "mtrEALLMC-DT1", "i": 7}, {"ID": "mtrEALLMC-UT1", "i": 6}, {"ID": "mtrEALUT1", "i": 6}]}, "TAW": {"stop": "TAW", "name_en": "Tai Wai", "name_tc": "å¤§å", "name_sc": "å¤§å", "lat": 22.4921038605387, "long": 114.13867307108252, "routes": [{"ID": "mtrEALDT1", "i": 8}, {"ID": "mtrEALLMC-DT1", "i": 8}, {"ID": "mtrEALLMC-UT1", "i": 5}, {"ID": "mtrEALUT1", "i": 5}, {"ID": "mtrTMLUT1", "i": 8}, {"ID": "mtrTMLDT1", "i": 18}]}, "KOT": {"stop": "KOT", "name_en": "Kowloon Tong", "name_tc": "ä¹é¾å¡", "name_sc": "ä¹é¾å¡", "lat": 22.4921038605387, "long": 114.13867307108252, "routes": [{"ID": "mtrEALDT1", "i": 9}, {"ID": "mtrEALLMC-DT1", "i": 9}, {"ID": "mtrEALLMC-UT1", "i": 4}, {"ID": "mtrEALUT1", "i": 4}, {"ID": "mtrKTLDT1", "i": 10}, {"ID": "mtrKTLUT1", "i": 6}]}, "MKK": {"stop": "MKK", "name_en": "Mong Kok East", "name_tc": "æºè§æ±", "name_sc": "æºè§æ±", "lat": 22.4921038605387, "long": 114.13867307108252, "routes": [{"ID": "mtrEALDT1", "i": 10}, {"ID": "mtrEALLMC-DT1", "i": 10}, {"ID": "mtrEALLMC-UT1", "i": 3}, {"ID": "mtrEALUT1", "i": 3}]}, "HUH": {"stop": "HUH", "name_en": "Hung Hom", "name_tc": "ç´ç£¡", "name_sc": "ç´ç£¡", "lat": 22.4921038605387, "long": 114.13867307108252, "routes": [{"ID": "mtrEALDT1", "i": 11}, {"ID": "mtrEALLMC-DT1", "i": 11}, {"ID": "mtrEALLMC-UT1", "i": 2}, {"ID": "mtrEALUT1", "i": 2}, {"ID": "mtrTMLUT1", "i": 15}, {"ID": "mtrTMLDT1", "i": 11}]}, "EXC": {"stop": "EXC", "name_en": "Exhibition Centre", "name_tc": "æå±", "name_sc": "æå±", "lat": 22.4921038605387, "long": 114.13867307108252, "routes": [{"ID": "mtrEALDT1", "i": 12}, {"ID": "mtrEALLMC-DT1", "i": 12}, {"ID": "mtrEALLMC-UT1", "i": 1}, {"ID": "mtrEALUT1", "i": 1}]}, "ADM": {"stop": "ADM", "name_en": "Admiralty", "name_tc": "éé", "name_sc": "éé", "lat": 22.4921038605387, "long": 114.13867307108252, "routes": [{"ID": "mtrEALDT1", "i": 13}, {"ID": "mtrEALLMC-DT1", "i": 13}, {"ID": "mtrEALLMC-UT1", "i": 0}, {"ID": "mtrEALUT1", "i": 0}, {"ID": "mtrISLDT1", "i": 11}, {"ID": "mtrISLUT1", "i": 5}, {"ID": "mtrTWLDT1", "i": 14}, {"ID": "mtrTWLUT1", "i": 1}, {"ID": "mtrSILUT1", "i": 0}, {"ID": "mtrSILDT1", "i": 4}]}, "LMC": {"stop": "LMC", "name_en": "Lok Ma Chau", "name_tc": "è½é¦¬æ´²", "name_sc": "è½é¦¬æ´²", "lat": 22.4921038605387, "long": 114.13867307108252, "routes": [{"ID": "mtrEALLMC-DT1", "i": 0}, {"ID": "mtrEALLMC-UT1", "i": 13}]}, "CHW": {"stop": "CHW", "name_en": "Chai Wan", "name_tc": "æ´ç£", "name_sc": "æ´ç£", "lat": 22.4921038605387, "long": 114.13867307108252, "routes": [{"ID": "mtrISLDT1", "i": 0}, {"ID": "mtrISLUT1", "i": 16}]}, "HFC": {"stop": "HFC", "name_en": "Heng Fa Chuen", "name_tc": "æè±é¨", "name_sc": "æè±é¨", "lat": 22.4921038605387, "long": 114.13867307108252, "routes": [{"ID": "mtrISLDT1", "i": 1}, {"ID": "mtrISLUT1", "i": 15}]}, "SKW": {"stop": "SKW", "name_en": "Shau Kei Wan", "name_tc": "ç­²ç®ç£", "name_sc": "ç­²ç®ç£", "lat": 22.4921038605387, "long": 114.13867307108252, "routes": [{"ID": "mtrISLDT1", "i": 2}, {"ID": "mtrISLUT1", "i": 14}]}, "SWH": {"stop": "SWH", "name_en": "Sai Wan Ho", "name_tc": "è¥¿ç£æ²³", "name_sc": "è¥¿ç£æ²³", "lat": 22.4921038605387, "long": 114.13867307108252, "routes": [{"ID": "mtrISLDT1", "i": 3}, {"ID": "mtrISLUT1", "i": 13}]}, "TAK": {"stop": "TAK", "name_en": "Tai Koo", "name_tc": "å¤ªå¤", "name_sc": "å¤ªå¤", "lat": 22.4921038605387, "long": 114.13867307108252, "routes": [{"ID": "mtrISLDT1", "i": 4}, {"ID": "mtrISLUT1", "i": 12}]}, "QUB": {"stop": "QUB", "name_en": "Quarry Bay", "name_tc": "é°é­æ¶", "name_sc": "é°é­æ¶", "lat": 22.4921038605387, "long": 114.13867307108252, "routes": [{"ID": "mtrISLDT1", "i": 5}, {"ID": "mtrISLUT1", "i": 11}, {"ID": "mtrTKLDT1", "i": 5}, {"ID": "mtrTKLUT1", "i": 1}]}, "NOP": {"stop": "NOP", "name_en": "North Point", "name_tc": "åè§", "name_sc": "åè§", "lat": 22.4921038605387, "long": 114.13867307108252, "routes": [{"ID": "mtrISLDT1", "i": 6}, {"ID": "mtrISLUT1", "i": 10}, {"ID": "mtrTKLDT1", "i": 6}, {"ID": "mtrTKLUT1", "i": 0}]}, "FOH": {"stop": "FOH", "name_en": "Fortress Hill", "name_tc": "ç®å°å±±", "name_sc": "ç®å°å±±", "lat": 22.4921038605387, "long": 114.13867307108252, "routes": [{"ID": "mtrISLDT1", "i": 7}, {"ID": "mtrISLUT1", "i": 9}]}, "TIH": {"stop": "TIH", "name_en": "Tin Hau", "name_tc": "å¤©å", "name_sc": "å¤©å", "lat": 22.4921038605387, "long": 114.13867307108252, "routes": [{"ID": "mtrISLDT1", "i": 8}, {"ID": "mtrISLUT1", "i": 8}]}, "CAB": {"stop": "CAB", "name_en": "Causeway Bay", "name_tc": "éé¼ç£", "name_sc": "éé¼ç£", "lat": 22.4921038605387, "long": 114.13867307108252, "routes": [{"ID": "mtrISLDT1", "i": 9}, {"ID": "mtrISLUT1", "i": 7}]}, "WAC": {"stop": "WAC", "name_en": "Wan Chai", "name_tc": "ç£ä»", "name_sc": "ç£ä»", "lat": 22.4921038605387, "long": 114.13867307108252, "routes": [{"ID": "mtrISLDT1", "i": 10}, {"ID": "mtrISLUT1", "i": 6}]}, "CEN": {"stop": "CEN", "name_en": "Central", "name_tc": "ä¸­ç°", "name_sc": "ä¸­ç°", "lat": 22.4921038605387, "long": 114.13867307108252, "routes": [{"ID": "mtrISLDT1", "i": 12}, {"ID": "mtrISLUT1", "i": 4}, {"ID": "mtrTWLDT1", "i": 15}, {"ID": "mtrTWLUT1", "i": 0}]}, "SHW": {"stop": "SHW", "name_en": "Sheung Wan", "name_tc": "ä¸ç°", "name_sc": "ä¸ç°", "lat": 22.4921038605387, "long": 114.13867307108252, "routes": [{"ID": "mtrISLDT1", "i": 13}, {"ID": "mtrISLUT1", "i": 3}]}, "SYP": {"stop": "SYP", "name_en": "Sai Ying Pun", "name_tc": "è¥¿çç¤", "name_sc": "è¥¿çç¤", "lat": 22.4921038605387, "long": 114.13867307108252, "routes": [{"ID": "mtrISLDT1", "i": 14}, {"ID": "mtrISLUT1", "i": 2}]}, "HKU": {"stop": "HKU", "name_en": "HKU", "name_tc": "é¦æ¸¯å¤§å­¸", "name_sc": "é¦æ¸¯å¤§å­¸", "lat": 22.4921038605387, "long": 114.13867307108252, "routes": [{"ID": "mtrISLDT1", "i": 15}, {"ID": "mtrISLUT1", "i": 1}]}, "KET": {"stop": "KET", "name_en": "Kennedy Town", "name_tc": "å å°¼å°å", "name_sc": "å å°¼å°å", "lat": 22.4921038605387, "long": 114.13867307108252, "routes": [{"ID": "mtrISLDT1", "i": 16}, {"ID": "mtrISLUT1", "i": 0}]}, "TIK": {"stop": "TIK", "name_en": "Tiu Keng Leng", "name_tc": "èª¿æ¯å¶º", "name_sc": "èª¿æ¯å¶º", "lat": 22.4921038605387, "long": 114.13867307108252, "routes": [{"ID": "mtrKTLDT1", "i": 0}, {"ID": "mtrKTLUT1", "i": 16}, {"ID": "mtrTKLDT1", "i": 3}, {"ID": "mtrTKLTKS-DT1", "i": 2}, {"ID": "mtrTKLTKS-UT1", "i": 0}, {"ID": "mtrTKLUT1", "i": 3}]}, "YAT": {"stop": "YAT", "name_en": "Yau Tong", "name_tc": "æ²¹å¡", "name_sc": "æ²¹å¡", "lat": 22.4921038605387, "long": 114.13867307108252, "routes": [{"ID": "mtrKTLDT1", "i": 1}, {"ID": "mtrKTLUT1", "i": 15}, {"ID": "mtrTKLDT1", "i": 4}, {"ID": "mtrTKLUT1", "i": 2}]}, "LAT": {"stop": "LAT", "name_en": "Lam Tin", "name_tc": "èç°", "name_sc": "èç°", "lat": 22.4921038605387, "long": 114.13867307108252, "routes": [{"ID": "mtrKTLDT1", "i": 2}, {"ID": "mtrKTLUT1", "i": 14}]}, "KWT": {"stop": "KWT", "name_en": "Kwun Tong", "name_tc": "è§å¡", "name_sc": "è§å¡", "lat": 22.4921038605387, "long": 114.13867307108252, "routes": [{"ID": "mtrKTLDT1", "i": 3}, {"ID": "mtrKTLUT1", "i": 13}]}, "NTK": {"stop": "NTK", "name_en": "Ngau Tau Kok", "name_tc": "çé ­è§", "name_sc": "çé ­è§", "lat": 22.4921038605387, "long": 114.13867307108252, "routes": [{"ID": "mtrKTLDT1", "i": 4}, {"ID": "mtrKTLUT1", "i": 12}]}, "KOB": {"stop": "KOB", "name_en": "Kowloon Bay", "name_tc": "ä¹é¾ç£", "name_sc": "ä¹é¾ç£", "lat": 22.4921038605387, "long": 114.13867307108252, "routes": [{"ID": "mtrKTLDT1", "i": 5}, {"ID": "mtrKTLUT1", "i": 11}]}, "CHH": {"stop": "CHH", "name_en": "Choi Hung", "name_tc": "å½©è¹", "name_sc": "å½©è¹", "lat": 22.4921038605387, "long": 114.13867307108252, "routes": [{"ID": "mtrKTLDT1", "i": 6}, {"ID": "mtrKTLUT1", "i": 10}]}, "DIH": {"stop": "DIH", "name_en": "Diamond Hill", "name_tc": "é½ç³å±±", "name_sc": "é½ç³å±±", "lat": 22.4921038605387, "long": 114.13867307108252, "routes": [{"ID": "mtrKTLDT1", "i": 7}, {"ID": "mtrKTLUT1", "i": 9}, {"ID": "mtrTMLUT1", "i": 10}, {"ID": "mtrTMLDT1", "i": 16}]}, "WTS": {"stop": "WTS", "name_en": "Wong Tai Sin", "name_tc": "é»å¤§ä»", "name_sc": "é»å¤§ä»", "lat": 22.4921038605387, "long": 114.13867307108252, "routes": [{"ID": "mtrKTLDT1", "i": 8}, {"ID": "mtrKTLUT1", "i": 8}]}, "LOF": {"stop": "LOF", "name_en": "Lok Fu", "name_tc": "æ¨å¯", "name_sc": "æ¨å¯", "lat": 22.4921038605387, "long": 114.13867307108252, "routes": [{"ID": "mtrKTLDT1", "i": 9}, {"ID": "mtrKTLUT1", "i": 7}]}, "SKM": {"stop": "SKM", "name_en": "Shek Kip Mei", "name_tc": "ç³ç¡¤å°¾", "name_sc": "ç³ç¡¤å°¾", "lat": 22.4921038605387, "long": 114.13867307108252, "routes": [{"ID": "mtrKTLDT1", "i": 11}, {"ID": "mtrKTLUT1", "i": 5}]}, "PRE": {"stop": "PRE", "name_en": "Prince Edward", "name_tc": "å¤ªå­", "name_sc": "å¤ªå­", "lat": 22.4921038605387, "long": 114.13867307108252, "routes": [{"ID": "mtrKTLDT1", "i": 12}, {"ID": "mtrKTLUT1", "i": 4}, {"ID": "mtrTWLDT1", "i": 9}, {"ID": "mtrTWLUT1", "i": 6}]}, "MOK": {"stop": "MOK", "name_en": "Mong Kok", "name_tc": "æºè§", "name_sc": "æºè§", "lat": 22.4921038605387, "long": 114.13867307108252, "routes": [{"ID": "mtrKTLDT1", "i": 13}, {"ID": "mtrKTLUT1", "i": 3}, {"ID": "mtrTWLDT1", "i": 10}, {"ID": "mtrTWLUT1", "i": 5}]}, "YMT": {"stop": "YMT", "name_en": "Yau Ma Tei", "name_tc": "æ²¹éº»å°", "name_sc": "æ²¹éº»å°", "lat": 22.4921038605387, "long": 114.13867307108252, "routes": [{"ID": "mtrKTLDT1", "i": 14}, {"ID": "mtrKTLUT1", "i": 2}, {"ID": "mtrTWLDT1", "i": 11}, {"ID": "mtrTWLUT1", "i": 4}]}, "HOM": {"stop": "HOM", "name_en": "Ho Man Tin", "name_tc": "ä½æç°", "name_sc": "ä½æç°", "lat": 22.4921038605387, "long": 114.13867307108252, "routes": [{"ID": "mtrKTLDT1", "i": 15}, {"ID": "mtrKTLUT1", "i": 1}, {"ID": "mtrTMLUT1", "i": 14}, {"ID": "mtrTMLDT1", "i": 12}]}, "WHA": {"stop": "WHA", "name_en": "Whampo", "name_tc": "é»å", "name_sc": "é»å", "lat": 22.4921038605387, "long": 114.13867307108252, "routes": [{"ID": "mtrKTLDT1", "i": 16}, {"ID": "mtrKTLUT1", "i": 0}]}, "WKS": {"stop": "WKS", "name_en": "Wu Kai Sha", "name_tc": "çæºªæ²", "name_sc": "çæºªæ²", "lat": 22.4921038605387, "long": 114.13867307108252, "routes": [{"ID": "mtrTMLUT1", "i": 0}, {"ID": "mtrTMLDT1", "i": 26}]}, "MOS": {"stop": "MOS", "name_en": "Ma On Shan", "name_tc": "é¦¬éå±±", "name_sc": "é¦¬éå±±", "lat": 22.4921038605387, "long": 114.13867307108252, "routes": [{"ID": "mtrTMLUT1", "i": 1}, {"ID": "mtrTMLDT1", "i": 25}]}, "HEO": {"stop": "HEO", "name_en": "Heng On", "name_tc": "æå®", "name_sc": "æå®", "lat": 22.4921038605387, "long": 114.13867307108252, "routes": [{"ID": "mtrTMLUT1", "i": 2}, {"ID": "mtrTMLDT1", "i": 24}]}, "TSH": {"stop": "TSH", "name_en": "Tai Shui Hang", "name_tc": "å¤§æ°´å", "name_sc": "å¤§æ°´å", "lat": 22.4921038605387, "long": 114.13867307108252, "routes": [{"ID": "mtrTMLUT1", "i": 3}, {"ID": "mtrTMLDT1", "i": 23}]}, "SHM": {"stop": "SHM", "name_en": "Shek Mun", "name_tc": "ç³é", "name_sc": "ç³é", "lat": 22.4921038605387, "long": 114.13867307108252, "routes": [{"ID": "mtrTMLUT1", "i": 4}, {"ID": "mtrTMLDT1", "i": 22}]}, "CIO": {"stop": "CIO", "name_en": "City One", "name_tc": "ç¬¬ä¸å", "name_sc": "ç¬¬ä¸å", "lat": 22.4921038605387, "long": 114.13867307108252, "routes": [{"ID": "mtrTMLUT1", "i": 5}, {"ID": "mtrTMLDT1", "i": 21}]}, "STW": {"stop": "STW", "name_en": "Sha Tin Wai", "name_tc": "æ²ç°å", "name_sc": "æ²ç°å", "lat": 22.4921038605387, "long": 114.13867307108252, "routes": [{"ID": "mtrTMLUT1", "i": 6}, {"ID": "mtrTMLDT1", "i": 20}]}, "CKT": {"stop": "CKT", "name_en": "Che Kung Temple", "name_tc": "è»å¬å»", "name_sc": "è»å¬å»", "lat": 22.4921038605387, "long": 114.13867307108252, "routes": [{"ID": "mtrTMLUT1", "i": 7}, {"ID": "mtrTMLDT1", "i": 19}]}, "HIK": {"stop": "HIK", "name_en": "Hin Keng", "name_tc": "é¡¯å¾", "name_sc": "é¡¯å¾", "lat": 22.4921038605387, "long": 114.13867307108252, "routes": [{"ID": "mtrTMLUT1", "i": 9}, {"ID": "mtrTMLDT1", "i": 17}]}, "KAT": {"stop": "KAT", "name_en": "Kai Tak", "name_tc": "åå¾·", "name_sc": "åå¾·", "lat": 22.4921038605387, "long": 114.13867307108252, "routes": [{"ID": "mtrTMLUT1", "i": 11}, {"ID": "mtrTMLDT1", "i": 15}]}, "SUW": {"stop": "SUW", "name_en": "Sung Wong Toi", "name_tc": "å®çèº", "name_sc": "å®çèº", "lat": 22.4921038605387, "long": 114.13867307108252, "routes": [{"ID": "mtrTMLUT1", "i": 12}, {"ID": "mtrTMLDT1", "i": 14}]}, "TKW": {"stop": "TKW", "name_en": "To Kwa Wan", "name_tc": "åçç£", "name_sc": "åçç£", "lat": 22.4921038605387, "long": 114.13867307108252, "routes": [{"ID": "mtrTMLUT1", "i": 13}, {"ID": "mtrTMLDT1", "i": 13}]}, "ETS": {"stop": "ETS", "name_en": "East Tsim Sha Tsui", "name_tc": "å°æ±", "name_sc": "å°æ±", "lat": 22.4921038605387, "long": 114.13867307108252, "routes": [{"ID": "mtrTMLUT1", "i": 16}, {"ID": "mtrTMLDT1", "i": 10}]}, "AUS": {"stop": "AUS", "name_en": "Austin", "name_tc": "æ¯å£«ç¸", "name_sc": "æ¯å£«ç¸", "lat": 22.4921038605387, "long": 114.13867307108252, "routes": [{"ID": "mtrTMLUT1", "i": 17}, {"ID": "mtrTMLDT1", "i": 9}]}, "NAC": {"stop": "NAC", "name_en": "Nam Cheong", "name_tc": "åæ", "name_sc": "åæ", "lat": 22.4921038605387, "long": 114.13867307108252, "routes": [{"ID": "mtrTMLUT1", "i": 18}, {"ID": "mtrTMLDT1", "i": 8}, {"ID": "mtrTCLDT1", "i": 4}, {"ID": "mtrTCLUT1", "i": 3}]}, "MEF": {"stop": "MEF", "name_en": "Mei Foo", "name_tc": "ç¾å­", "name_sc": "ç¾å­", "lat": 22.4921038605387, "long": 114.13867307108252, "routes": [{"ID": "mtrTMLUT1", "i": 19}, {"ID": "mtrTMLDT1", "i": 7}, {"ID": "mtrTWLDT1", "i": 5}, {"ID": "mtrTWLUT1", "i": 10}]}, "TWW": {"stop": "TWW", "name_en": "Tsuen Wan West", "name_tc": "èç£è¥¿", "name_sc": "èç£è¥¿", "lat": 22.4921038605387, "long": 114.13867307108252, "routes": [{"ID": "mtrTMLUT1", "i": 20}, {"ID": "mtrTMLDT1", "i": 6}]}, "KSR": {"stop": "KSR", "name_en": "Kam Sheung Road", "name_tc": "é¦ä¸è·¯", "name_sc": "é¦ä¸è·¯", "lat": 22.4921038605387, "long": 114.13867307108252, "routes": [{"ID": "mtrTMLUT1", "i": 21}, {"ID": "mtrTMLDT1", "i": 5}]}, "YUL": {"stop": "YUL", "name_en": "Yuen Long", "name_tc": "åæ", "name_sc": "åæ", "lat": 22.4921038605387, "long": 114.13867307108252, "routes": [{"ID": "mtrTMLUT1", "i": 22}, {"ID": "mtrTMLDT1", "i": 4}]}, "LOP": {"stop": "LOP", "name_en": "Long Ping", "name_tc": "æå±", "name_sc": "æå±", "lat": 22.4921038605387, "long": 114.13867307108252, "routes": [{"ID": "mtrTMLUT1", "i": 23}, {"ID": "mtrTMLDT1", "i": 3}]}, "TIS": {"stop": "TIS", "name_en": "Tin Shui Wai", "name_tc": "å¤©æ°´å", "name_sc": "å¤©æ°´å", "lat": 22.4921038605387, "long": 114.13867307108252, "routes": [{"ID": "mtrTMLUT1", "i": 24}, {"ID": "mtrTMLDT1", "i": 2}]}, "SIH": {"stop": "SIH", "name_en": "Siu Hong", "name_tc": "ååº·", "name_sc": "ååº·", "lat": 22.4921038605387, "long": 114.13867307108252, "routes": [{"ID": "mtrTMLUT1", "i": 25}, {"ID": "mtrTMLDT1", "i": 1}]}, "TUM": {"stop": "TUM", "name_en": "Tuen Mun", "name_tc": "å±¯é", "name_sc": "å±¯é", "lat": 22.4921038605387, "long": 114.13867307108252, "routes": [{"ID": "mtrTMLUT1", "i": 26}, {"ID": "mtrTMLDT1", "i": 0}]}, "TUC": {"stop": "TUC", "name_en": "Tung Chung", "name_tc": "æ±æ¶", "name_sc": "æ±æ¶", "lat": 22.4921038605387, "long": 114.13867307108252, "routes": [{"ID": "mtrTCLDT1", "i": 0}, {"ID": "mtrTCLUT1", "i": 7}]}, "LAK": {"stop": "LAK", "name_en": "Lai King", "name_tc": "èæ¯", "name_sc": "èæ¯", "lat": 22.4921038605387, "long": 114.13867307108252, "routes": [{"ID": "mtrTCLDT1", "i": 3}, {"ID": "mtrTCLUT1", "i": 4}, {"ID": "mtrTWLDT1", "i": 4}, {"ID": "mtrTWLUT1", "i": 11}]}, "OLY": {"stop": "OLY", "name_en": "Olympic", "name_tc": "å¥§é", "name_sc": "å¥§é", "lat": 22.4921038605387, "long": 114.13867307108252, "routes": [{"ID": "mtrTCLDT1", "i": 5}, {"ID": "mtrTCLUT1", "i": 2}]}, "POA": {"stop": "POA", "name_en": "Po Lam", "name_tc": "å¯¶ç³", "name_sc": "å¯¶ç³", "lat": 22.4921038605387, "long": 114.13867307108252, "routes": [{"ID": "mtrTKLDT1", "i": 0}, {"ID": "mtrTKLUT1", "i": 6}]}, "HAH": {"stop": "HAH", "name_en": "Hang Hau", "name_tc": "åå£", "name_sc": "åå£", "lat": 22.4921038605387, "long": 114.13867307108252, "routes": [{"ID": "mtrTKLDT1", "i": 1}, {"ID": "mtrTKLUT1", "i": 5}]}, "TKO": {"stop": "TKO", "name_en": "Tseung Kwan O", "name_tc": "å°è»æ¾³", "name_sc": "å°è»æ¾³", "lat": 22.4921038605387, "long": 114.13867307108252, "routes": [{"ID": "mtrTKLDT1", "i": 2}, {"ID": "mtrTKLTKS-DT1", "i": 1}, {"ID": "mtrTKLTKS-UT1", "i": 1}, {"ID": "mtrTKLUT1", "i": 4}]}, "LHP": {"stop": "LHP", "name_en": "LOHAS Park", "name_tc": "åº·å", "name_sc": "åº·å", "lat": 22.4921038605387, "long": 114.13867307108252, "routes": [{"ID": "mtrTKLTKS-DT1", "i": 0}, {"ID": "mtrTKLTKS-UT1", "i": 2}]}, "TSW": {"stop": "TSW", "name_en": "Tsuen Wan", "name_tc": "èç£", "name_sc": "èç£", "lat": 22.4921038605387, "long": 114.13867307108252, "routes": [{"ID": "mtrTWLDT1", "i": 0}, {"ID": "mtrTWLUT1", "i": 15}]}, "TWH": {"stop": "TWH", "name_en": "Tai Wo Hau", "name_tc": "å¤§çª©å£", "name_sc": "å¤§çª©å£", "lat": 22.4921038605387, "long": 114.13867307108252, "routes": [{"ID": "mtrTWLDT1", "i": 1}, {"ID": "mtrTWLUT1", "i": 14}]}, "KWH": {"stop": "KWH", "name_en": "Kwai Hing", "name_tc": "èµè", "name_sc": "èµè", "lat": 22.4921038605387, "long": 114.13867307108252, "routes": [{"ID": "mtrTWLDT1", "i": 2}, {"ID": "mtrTWLUT1", "i": 13}]}, "KWF": {"stop": "KWF", "name_en": "Kwai Fong", "name_tc": "èµè³", "name_sc": "èµè³", "lat": 22.4921038605387, "long": 114.13867307108252, "routes": [{"ID": "mtrTWLDT1", "i": 3}, {"ID": "mtrTWLUT1", "i": 12}]}, "LCK": {"stop": "LCK", "name_en": "Lai Chi Kok", "name_tc": "èæè§", "name_sc": "èæè§", "lat": 22.4921038605387, "long": 114.13867307108252, "routes": [{"ID": "mtrTWLDT1", "i": 6}, {"ID": "mtrTWLUT1", "i": 9}]}, "CSW": {"stop": "CSW", "name_en": "Cheung Sha Wan", "name_tc": "é·æ²ç£", "name_sc": "é·æ²ç£", "lat": 22.4921038605387, "long": 114.13867307108252, "routes": [{"ID": "mtrTWLDT1", "i": 7}, {"ID": "mtrTWLUT1", "i": 8}]}, "SSP": {"stop": "SSP", "name_en": "Sham Shui Po", "name_tc": "æ·±æ°´å", "name_sc": "æ·±æ°´å", "lat": 22.4921038605387, "long": 114.13867307108252, "routes": [{"ID": "mtrTWLDT1", "i": 8}, {"ID": "mtrTWLUT1", "i": 7}]}, "JOR": {"stop": "JOR", "name_en": "Jordan", "name_tc": "ä½æ¦", "name_sc": "ä½æ¦", "lat": 22.4921038605387, "long": 114.13867307108252, "routes": [{"ID": "mtrTWLDT1", "i": 12}, {"ID": "mtrTWLUT1", "i": 3}]}, "TST": {"stop": "TST", "name_en": "Tsim Sha Tsui", "name_tc": "å°æ²å", "name_sc": "å°æ²å", "lat": 22.4921038605387, "long": 114.13867307108252, "routes": [{"ID": "mtrTWLDT1", "i": 13}, {"ID": "mtrTWLUT1", "i": 2}]}, "OCP": {"stop": "OCP", "name_en": "Ocean Park", "name_tc": "æµ·æ´å¬å", "name_sc": "æµ·æ´å¬å", "lat": 22.4921038605387, "long": 114.13867307108252, "routes": [{"ID": "mtrSILUT1", "i": 1}, {"ID": "mtrSILDT1", "i": 3}]}, "WCH": {"stop": "WCH", "name_en": "Wong Chuk Hang", "name_tc": "é»ç«¹å", "name_sc": "é»ç«¹å", "lat": 22.4921038605387, "long": 114.13867307108252, "routes": [{"ID": "mtrSILUT1", "i": 2}, {"ID": "mtrSILDT1", "i": 2}]}, "LET": {"stop": "LET", "name_en": "Lei Tung", "name_tc": "å©æ±", "name_sc": "å©æ±", "lat": 22.4921038605387, "long": 114.13867307108252, "routes": [{"ID": "mtrSILUT1", "i": 3}, {"ID": "mtrSILDT1", "i": 1}]}, "SOH": {"stop": "SOH", "name_en": "South Horizons", "name_tc": "æµ·æ¡åå³¶", "name_sc": "æµ·æ¡åå³¶", "lat": 22.4921038605387, "long": 114.13867307108252, "routes": [{"ID": "mtrSILUT1", "i": 4}, {"ID": "mtrSILDT1", "i": 0}]}}