{"1": {"stop": "1", "name_en": "Mui Wo Ferry Pier", "name_tc": "梅窩碼頭", "name_sc": "梅窝码头", "lat": "22.26466400", "long": "114.00155400", "routes": []}, "2": {"stop": "2", "name_en": "Mui Wo Cooked Food Market", "name_tc": "梅窩熟食市場", "name_sc": "梅窝熟食市场", "lat": "22.26614300", "long": "114.00004900", "routes": []}, "3": {"stop": "3", "name_en": "Ngan Wan Estate", "name_tc": "銀灣邨", "name_sc": "银湾邨", "lat": "22.26540600", "long": "113.99707400", "routes": []}, "4": {"stop": "4", "name_en": "Mui Wo Market", "name_tc": "梅窩街市", "name_sc": "梅窝街市", "lat": "22.26675900", "long": "113.99699900", "routes": []}, "5": {"stop": "5", "name_en": "Ngan King Centre", "name_tc": "銀景中心", "name_sc": "银景中心", "lat": "22.26553700", "long": "113.99696500", "routes": []}, "6": {"stop": "6", "name_en": "Silver Mine Bay Water Treatment Works", "name_tc": "銀鑛灣濾水廠", "name_sc": "银鑛湾滤水厂", "lat": "22.26296600", "long": "113.99782600", "routes": []}, "7": {"stop": "7", "name_en": "Lai Chi Yuen", "name_tc": "荔枝園", "name_sc": "荔枝园", "lat": "22.26075800", "long": "113.99647700", "routes": []}, "8": {"stop": "8", "name_en": "Nam Shan Sam Uk Tsuen", "name_tc": "南山三屋村", "name_sc": "南山三屋村", "lat": "22.25707200", "long": "113.99010800", "routes": []}, "9": {"stop": "9", "name_en": "Nam Shan Camp Site", "name_tc": "南山營地", "name_sc": "南山营地", "lat": "22.25545100", "long": "113.98681100", "routes": []}, "10": {"stop": "10", "name_en": "Swire Staff Holiday House", "name_tc": "太古職員宿舍", "name_sc": "太古职员宿舍", "lat": "22.25191800", "long": "113.98488700", "routes": []}, "11": {"stop": "11", "name_en": "Pui O Petrol Station", "name_tc": "貝澳油站", "name_sc": "贝澳油站", "lat": "22.24731100", "long": "113.98098500", "routes": []}, "12": {"stop": "12", "name_en": "Lo Wai Tsuen", "name_tc": "老圍村", "name_sc": "老围村", "lat": "22.24425200", "long": "113.97923600", "routes": []}, "13": {"stop": "13", "name_en": "Sun Wai Tsuen", "name_tc": "新圍村", "name_sc": "新围村", "lat": "22.24347600", "long": "113.97817800", "routes": []}, "14": {"stop": "14", "name_en": "Lo Uk Tsuen", "name_tc": "羅屋村", "name_sc": "罗屋村", "lat": "22.24319200", "long": "113.97488500", "routes": []}, "15": {"stop": "15", "name_en": "Ngau Au Yuen", "name_tc": "牛坳園", "name_sc": "牛坳园", "lat": "22.24304100", "long": "113.97254500", "routes": []}, "16": {"stop": "16", "name_en": "San Shek Wan 3 1/4 Milestone", "name_tc": "散石灣中蘆", "name_sc": "散石湾中芦", "lat": "22.24124400", "long": "113.96910500", "routes": []}, "17": {"stop": "17", "name_en": "San Shek Wan Village", "name_tc": "散石灣村", "name_sc": "散石湾村", "lat": "22.23892800", "long": "113.96677200", "routes": []}, "18": {"stop": "18", "name_en": "YWCA Sydney Leong Holiday Lodge", "name_tc": "女青年會梁紹榮度假村", "name_sc": "女青年会梁绍荣度假村", "lat": "22.23748400", "long": "113.96400100", "routes": []}, "83": {"stop": "83", "name_en": "San Shek Wan Roundabout", "name_tc": "散石灣迴旋處", "name_sc": "散石湾回旋处", "lat": "22.23654400", "long": "113.96255000", "routes": []}, "19": {"stop": "19", "name_en": "Cheung Sha Sheung Tsuen", "name_tc": "長沙上村", "name_sc": "长沙上村", "lat": "22.23523800", "long": "113.96173900", "routes": []}, "20": {"stop": "20", "name_en": "Cheung Sha Police Headquarters", "name_tc": "長沙警署", "name_sc": "长沙警署", "lat": "22.23377200", "long": "113.96021100", "routes": []}, "21": {"stop": "21", "name_en": "Cheung Sha Ha Tsuen", "name_tc": "長沙下村", "name_sc": "长沙下村", "lat": "22.23478700", "long": "113.95723200", "routes": []}, "22": {"stop": "22", "name_en": "Cheung Sha Fire Station", "name_tc": "長沙消防局", "name_sc": "长沙消防局", "lat": "22.23663200", "long": "113.95434900", "routes": []}, "23": {"stop": "23", "name_en": "Leyburn Villas", "name_tc": "麗濱別墅", "name_sc": "丽滨别墅", "lat": "22.23621700", "long": "113.95191600", "routes": []}, "24": {"stop": "24", "name_en": "Butterfly Crest", "name_tc": "蝶崗", "name_sc": "蝶岗", "lat": "22.23454000", "long": "113.94884100", "routes": []}, "25": {"stop": "25", "name_en": "Cheung Sha Bridge", "name_tc": "長沙大橋", "name_sc": "长沙大桥", "lat": "22.23338900", "long": "113.94697700", "routes": []}, "26": {"stop": "26", "name_en": "Upper Cheung Sha Beach", "name_tc": "上長沙海灘", "name_sc": "上长沙海滩", "lat": "22.23087700", "long": "113.94152500", "routes": []}, "27": {"stop": "27", "name_en": "Tong Fuk Beach", "name_tc": "塘福海灘", "name_sc": "塘福海滩", "lat": "22.22850900", "long": "113.93533900", "routes": []}, "28": {"stop": "28", "name_en": "Tong Fuk Village", "name_tc": "塘福村", "name_sc": "塘福村", "lat": "22.22756500", "long": "113.93270600", "routes": []}, "32": {"stop": "32", "name_en": "Tong Fuk Correctional Institution", "name_tc": "塘福懲教所", "name_sc": "塘福惩教所", "lat": "22.22876400", "long": "113.92608400", "routes": []}, "30": {"stop": "30", "name_en": "Ma Po Ping Village", "name_tc": "麻埔坪村", "name_sc": "麻埔坪村", "lat": "22.22992600", "long": "113.92805000", "routes": []}, "31": {"stop": "31", "name_en": "Ma Po Ping Road Junction", "name_tc": "麻埔坪道口", "name_sc": "麻埔坪道口", "lat": "22.22601800", "long": "113.92949500", "routes": []}, "178": {"stop": "178", "name_en": "South Lantau Sea Cable Station", "name_tc": "南大嶼山海底電纜站", "name_sc": "南大屿山海底电缆站", "lat": "22.22527200", "long": "113.92866100", "routes": []}, "33": {"stop": "33", "name_en": "Upper Wan Lung", "name_tc": "上橫壟", "name_sc": "上横垄", "lat": "22.22334800", "long": "113.92062400", "routes": []}, "34": {"stop": "34", "name_en": "Lower Wan Lung", "name_tc": "下橫壟", "name_sc": "下横垄", "lat": "22.22230500", "long": "113.91974100", "routes": []}, "35": {"stop": "35", "name_en": "Shui Hau Village (East)", "name_tc": "水口村(東)", "name_sc": "水口村(东)", "lat": "22.22156500", "long": "113.91605900", "routes": []}, "36": {"stop": "36", "name_en": "Shui Hau Village", "name_tc": "水口村", "name_sc": "水口村", "lat": "22.22098931", "long": "113.91431800", "routes": []}, "37": {"stop": "37", "name_en": "Four-Eye Ma", "name_tc": "四眼馬", "name_sc": "四眼马", "lat": "22.22191300", "long": "113.91037000", "routes": []}, "38": {"stop": "38", "name_en": "Shui Hau Helicopter Landing Field", "name_tc": "水口直升機場", "name_sc": "水口直升机场", "lat": "22.22353200", "long": "113.90806300", "routes": []}, "39": {"stop": "39", "name_en": "Shek Pik Police Station", "name_tc": "石壁警崗", "name_sc": "石壁警岗", "lat": "22.22586200", "long": "113.89772000", "routes": []}, "40": {"stop": "40", "name_en": "Sha Tsui Detention Centre", "name_tc": "沙咀懲教所", "name_sc": "沙咀惩教所", "lat": "22.22496900", "long": "113.89348700", "routes": []}, "41": {"stop": "41", "name_en": "Sha Tsui", "name_tc": "沙咀", "name_sc": "沙咀", "lat": "22.22832800", "long": "113.89060000", "routes": []}, "42": {"stop": "42", "name_en": "Shek Pik Au W.W.O. Access Road", "name_tc": "石壁坳引水道通道", "name_sc": "石壁坳引水道通道", "lat": "22.23945100", "long": "113.89369700", "routes": []}, "58": {"stop": "58", "name_en": "Sham Wat Road", "name_tc": "深屈道", "name_sc": "深屈道", "lat": "22.24505400", "long": "113.89119300", "routes": []}, "44": {"stop": "44", "name_en": "Fat Hwa Yuen", "name_tc": "法華苑", "name_sc": "法华苑", "lat": "22.24612200", "long": "113.88904200", "routes": []}, "45": {"stop": "45", "name_en": "Sam Yuen Ching Shea", "name_tc": "三緣精舍", "name_sc": "三缘精舍", "lat": "22.24643500", "long": "113.88624200", "routes": []}, "46": {"stop": "46", "name_en": "Shing Fai Orchard", "name_tc": "成輝果園", "name_sc": "成辉果园", "lat": "22.24382000", "long": "113.88420900", "routes": []}, "47": {"stop": "47", "name_en": "Kwun Yam Monastery", "name_tc": "觀音寺", "name_sc": "观音寺", "lat": "22.24225600", "long": "113.88299100", "routes": []}, "48": {"stop": "48", "name_en": "Lung Chai", "name_tc": "龍仔", "name_sc": "龙仔", "lat": "22.24081600", "long": "113.88102200", "routes": []}, "49": {"stop": "49", "name_en": "Keung Shan Management Centre", "name_tc": "羌山管理站", "name_sc": "羌山管理站", "lat": "22.24203200", "long": "113.87882300", "routes": []}, "84": {"stop": "84", "name_en": "Sun Fung Tsuen", "name_tc": "新鳳村", "name_sc": "新凤村", "lat": "22.24357100", "long": "113.87697200", "routes": []}, "51": {"stop": "51", "name_en": "Ling Yan Monastery", "name_tc": "靈隱寺", "name_sc": "灵隐寺", "lat": "22.24401800", "long": "113.87500900", "routes": []}, "52": {"stop": "52", "name_en": "Hang Mei", "name_tc": "坑尾", "name_sc": "坑尾", "lat": "22.25065600", "long": "113.86906200", "routes": []}, "53": {"stop": "53", "name_en": "Buddhist Fat Ho Memorial College", "name_tc": "佛教筏可紀念中學", "name_sc": "佛教筏可纪念中学", "lat": "22.25203300", "long": "113.86698800", "routes": []}, "54": {"stop": "54", "name_en": "Lung Tin Estate", "name_tc": "龍田邨", "name_sc": "龙田邨", "lat": "22.25232600", "long": "113.86497600", "routes": []}, "55": {"stop": "55", "name_en": "Tai O", "name_tc": "大澳", "name_sc": "大澳", "lat": "22.25278300", "long": "113.86216000", "routes": []}, "221": {"stop": "221", "name_en": "Tai O", "name_tc": "大澳", "name_sc": "大澳", "lat": "22.25278300", "long": "113.86216000", "routes": []}, "222": {"stop": "222", "name_en": "Lung Tin Estate", "name_tc": "龍田邨", "name_sc": "龙田邨", "lat": "22.25252100", "long": "113.86500500", "routes": []}, "224": {"stop": "224", "name_en": "Hang Mei", "name_tc": "坑尾", "name_sc": "坑尾", "lat": "22.25083200", "long": "113.86930600", "routes": []}, "225": {"stop": "225", "name_en": "Ling Yan Monastery", "name_tc": "靈隱寺", "name_sc": "灵隐寺", "lat": "22.24428700", "long": "113.87510700", "routes": []}, "226": {"stop": "226", "name_en": "Sun Fung Tsuen", "name_tc": "新鳳村", "name_sc": "新凤村", "lat": "22.24390000", "long": "113.87700600", "routes": []}, "227": {"stop": "227", "name_en": "Keung Shan Management Centre", "name_tc": "羌山管理站", "name_sc": "羌山管理站", "lat": "22.24218200", "long": "113.87905100", "routes": []}, "228": {"stop": "228", "name_en": "Lung Chai", "name_tc": "龍仔", "name_sc": "龙仔", "lat": "22.24137000", "long": "113.88139200", "routes": []}, "229": {"stop": "229", "name_en": "Shing Fai Orchard", "name_tc": "成輝果園", "name_sc": "成辉果园", "lat": "22.24400100", "long": "113.88399500", "routes": []}, "230": {"stop": "230", "name_en": "Sam Yuen Ching Shea", "name_tc": "三緣精舍", "name_sc": "三缘精舍", "lat": "22.24671100", "long": "113.88596800", "routes": []}, "232": {"stop": "232", "name_en": "Fat Hwa Yuen", "name_tc": "法華苑", "name_sc": "法华苑", "lat": "22.24622100", "long": "113.88887200", "routes": []}, "233": {"stop": "233", "name_en": "Sham Wat Road", "name_tc": "深屈道", "name_sc": "深屈道", "lat": "22.24459200", "long": "113.89187900", "routes": []}, "234": {"stop": "234", "name_en": "Shek Pik Au W.W.O. Access Road", "name_tc": "石壁坳引水道通道", "name_sc": "石壁坳引水道通道", "lat": "22.23917900", "long": "113.89397500", "routes": []}, "235": {"stop": "235", "name_en": "Sha Tsui", "name_tc": "沙咀", "name_sc": "沙咀", "lat": "22.22850300", "long": "113.89110500", "routes": []}, "236": {"stop": "236", "name_en": "Shek Pik Police Station", "name_tc": "石壁警崗", "name_sc": "石壁警岗", "lat": "22.22611900", "long": "113.89813400", "routes": []}, "237": {"stop": "237", "name_en": "Shui Hau Helicopter Landing Field", "name_tc": "水口直升機場", "name_sc": "水口直升机场", "lat": "22.22370300", "long": "113.90832500", "routes": []}, "238": {"stop": "238", "name_en": "Four-Eye Ma", "name_tc": "四眼馬", "name_sc": "四眼马", "lat": "22.22205400", "long": "113.91063200", "routes": []}, "239": {"stop": "239", "name_en": "Shui Hau Village", "name_tc": "水口村", "name_sc": "水口村", "lat": "22.22110100", "long": "113.91417300", "routes": []}, "240": {"stop": "240", "name_en": "Shui Hau Village (East)", "name_tc": "水口村(東)", "name_sc": "水口村(东)", "lat": "22.22184100", "long": "113.91576300", "routes": []}, "241": {"stop": "241", "name_en": "Lower Wan Lung", "name_tc": "下橫壟", "name_sc": "下横垄", "lat": "22.22205000", "long": "113.91923400", "routes": []}, "242": {"stop": "242", "name_en": "Upper Wan Lung", "name_tc": "上橫壟", "name_sc": "上横垄", "lat": "22.22435800", "long": "113.92107700", "routes": []}, "243": {"stop": "243", "name_en": "South Lantau Sea Cable Station", "name_tc": "南大嶼山海底電纜站", "name_sc": "南大屿山海底电缆站", "lat": "22.22588300", "long": "113.92718000", "routes": []}, "244": {"stop": "244", "name_en": "Ma Po Ping Road Junction", "name_tc": "麻埔坪道口", "name_sc": "麻埔坪道口", "lat": "22.22658300", "long": "113.93007700", "routes": []}, "245": {"stop": "245", "name_en": "Tong Fuk Village", "name_tc": "塘福村", "name_sc": "塘福村", "lat": "22.22776300", "long": "113.93239700", "routes": []}, "246": {"stop": "246", "name_en": "Tong Fuk Beach", "name_tc": "塘福海灘", "name_sc": "塘福海滩", "lat": "22.22894100", "long": "113.93594400", "routes": []}, "247": {"stop": "247", "name_en": "Upper Cheung Sha Beach", "name_tc": "上長沙海灘", "name_sc": "上长沙海滩", "lat": "22.23132900", "long": "113.94176600", "routes": []}, "248": {"stop": "248", "name_en": "Cheung Sha Bridge", "name_tc": "長沙大橋", "name_sc": "长沙大桥", "lat": "22.23397900", "long": "113.94736600", "routes": []}, "249": {"stop": "249", "name_en": "Butterfly Crest", "name_tc": "蝶崗", "name_sc": "蝶岗", "lat": "22.23506200", "long": "113.94929800", "routes": []}, "250": {"stop": "250", "name_en": "Leyburn Villas", "name_tc": "麗濱別墅", "name_sc": "丽滨别墅", "lat": "22.23647200", "long": "113.95142400", "routes": []}, "251": {"stop": "251", "name_en": "Cheung Sha Fire Station", "name_tc": "長沙消防局", "name_sc": "长沙消防局", "lat": "22.23680300", "long": "113.95543400", "routes": []}, "252": {"stop": "252", "name_en": "Cheung Sha Ha Tsuen", "name_tc": "長沙下村", "name_sc": "长沙下村", "lat": "22.23496500", "long": "113.95717000", "routes": []}, "253": {"stop": "253", "name_en": "Cheung Sha Police Headquarters", "name_tc": "長沙警署", "name_sc": "长沙警署", "lat": "22.23396400", "long": "113.96017400", "routes": []}, "254": {"stop": "254", "name_en": "Cheung Sha Sheung Tsuen", "name_tc": "長沙上村", "name_sc": "长沙上村", "lat": "22.23533000", "long": "113.96154700", "routes": []}, "255": {"stop": "255", "name_en": "San Shek Wan Roundabout", "name_tc": "散石灣迴旋處", "name_sc": "散石湾回旋处", "lat": "22.23672700", "long": "113.96242400", "routes": []}, "256": {"stop": "256", "name_en": "YWCA Sydney Leong Holiday Lodge", "name_tc": "女青年會梁紹榮度假村", "name_sc": "女青年会梁绍荣度假村", "lat": "22.23776800", "long": "113.96397300", "routes": []}, "257": {"stop": "257", "name_en": "San Shek Wan Village", "name_tc": "散石灣村", "name_sc": "散石湾村", "lat": "22.23902400", "long": "113.96652600", "routes": []}, "258": {"stop": "258", "name_en": "San Shek Wan 3 1/4 Milestone", "name_tc": "散石灣中蘆", "name_sc": "散石湾中芦", "lat": "22.24125500", "long": "113.96866600", "routes": []}, "259": {"stop": "259", "name_en": "Lo Uk Tsuen", "name_tc": "羅屋村", "name_sc": "罗屋村", "lat": "22.24337500", "long": "113.97483200", "routes": []}, "260": {"stop": "260", "name_en": "Sun Wai Tsuen", "name_tc": "新圍村", "name_sc": "新围村", "lat": "22.24347600", "long": "113.97732200", "routes": []}, "261": {"stop": "261", "name_en": "Lo Wai Tsuen", "name_tc": "老圍村", "name_sc": "老围村", "lat": "22.24444000", "long": "113.97900000", "routes": []}, "262": {"stop": "262", "name_en": "Pui O Petrol Station", "name_tc": "貝澳油站", "name_sc": "贝澳油站", "lat": "22.24750100", "long": "113.98077000", "routes": []}, "263": {"stop": "263", "name_en": "Swire Staff Holiday House", "name_tc": "太古職員宿舍", "name_sc": "太古职员宿舍", "lat": "22.25212000", "long": "113.98474500", "routes": []}, "264": {"stop": "264", "name_en": "Nam Shan Camp Site", "name_tc": "南山營地", "name_sc": "南山营地", "lat": "22.25606700", "long": "113.98747000", "routes": []}, "265": {"stop": "265", "name_en": "Nam Shan Sam Uk Tsuen", "name_tc": "南山三屋村", "name_sc": "南山三屋村", "lat": "22.25732700", "long": "113.98990100", "routes": []}, "56": {"stop": "56", "name_en": "Lai Chi Yuen Cemetery", "name_tc": "禮智園墳場", "name_sc": "礼智园坟场", "lat": "22.25932700", "long": "113.99399300", "routes": []}, "266": {"stop": "266", "name_en": "Lai Chi Yuen", "name_tc": "荔枝園", "name_sc": "荔枝园", "lat": "22.26066700", "long": "113.99626800", "routes": []}, "57": {"stop": "57", "name_en": "Mui Wo Police Station", "name_tc": "梅窩警署", "name_sc": "梅窝警署", "lat": "22.26409300", "long": "113.99890600", "routes": []}, "305": {"stop": "305", "name_en": "Mui Wo Ferry Pier", "name_tc": "梅窩碼頭", "name_sc": "梅窝码头", "lat": "22.26466400", "long": "114.00155400", "routes": []}, "127": {"stop": "127", "name_en": "Hung Hom (Hung Luen Road)", "name_tc": "紅磡 (紅鸞道)", "name_sc": "红磡 (红鸾道)", "lat": "22.30141600", "long": "114.18809200", "routes": []}, "128": {"stop": "128", "name_en": "East Tsim Sha Tsui MTR Station", "name_tc": "尖東港鐵站", "name_sc": "尖东港铁站", "lat": "22.29479800", "long": "114.17438000", "routes": []}, "129": {"stop": "129", "name_en": "Kowloon Park", "name_tc": "九龍公園", "name_sc": "九龙公园", "lat": "22.29872100", "long": "114.17192800", "routes": []}, "183": {"stop": "183", "name_en": "Nelson Street", "name_tc": "奶路臣街", "name_sc": "奶路臣街", "lat": "22.31801800", "long": "114.16951500", "routes": []}, "131": {"stop": "131", "name_en": "Prince Edward MTR Station", "name_tc": "太子港鐵站", "name_sc": "太子港铁站", "lat": "22.32581600", "long": "114.16787600", "routes": []}, "132": {"stop": "132", "name_en": "Yen Chow Street", "name_tc": "欽州街", "name_sc": "钦州街", "lat": "22.33129900", "long": "114.16136900", "routes": []}, "184": {"stop": "184", "name_en": "Yee Kok Court", "name_tc": "怡閣苑", "name_sc": "怡阁苑", "lat": "22.33389400", "long": "114.15804300", "routes": []}, "317": {"stop": "317", "name_en": "Tung Chung Tat Tung Road Bus Terminus", "name_tc": "東涌達東路巴士總站", "name_sc": "东涌达东路巴士总站", "lat": "22.29058000", "long": "113.93935200", "routes": []}, "62": {"stop": "62", "name_en": "Ngong Ping", "name_tc": "昂坪", "name_sc": "昂坪", "lat": "22.25561200", "long": "113.90286200", "routes": []}, "270": {"stop": "270", "name_en": "Ngong Ping", "name_tc": "昂坪", "name_sc": "昂坪", "lat": "22.25561200", "long": "113.90286200", "routes": []}, "271": {"stop": "271", "name_en": "San Hoi Ting", "name_tc": "山海亭", "name_sc": "山海亭", "lat": "22.24931300", "long": "113.89284000", "routes": []}, "43": {"stop": "43", "name_en": "Sham Wat Road Junction", "name_tc": "深屈道口", "name_sc": "深屈道口", "lat": "22.24503800", "long": "113.89223700", "routes": []}, "269": {"stop": "269", "name_en": "Sham Wat Road Junction", "name_tc": "深屈道口", "name_sc": "深屈道口", "lat": "22.24520700", "long": "113.89208900", "routes": []}, "59": {"stop": "59", "name_en": "San Hoi Ting", "name_tc": "山海亭", "name_sc": "山海亭", "lat": "22.24947700", "long": "113.89305300", "routes": []}, "179": {"stop": "179", "name_en": "Tung Chung Road", "name_tc": "東涌道", "name_sc": "东涌道", "lat": "22.23791800", "long": "113.96292000", "routes": []}, "64": {"stop": "64", "name_en": "Cheung Sha Catchwater", "name_tc": "長沙引水道", "name_sc": "长沙引水道", "lat": "22.23981400", "long": "113.95721600", "routes": []}, "65": {"stop": "65", "name_en": "Pak Kung Au", "name_tc": "伯公坳", "name_sc": "伯公坳", "lat": "22.24805400", "long": "113.94313900", "routes": []}, "66": {"stop": "66", "name_en": "Tung Chung Au Management Centre", "name_tc": "東涌坳管理站", "name_sc": "东涌坳管理站", "lat": "22.26400600", "long": "113.93715500", "routes": []}, "67": {"stop": "67", "name_en": "Cemetery Area No. 18", "name_tc": "十八區墳場", "name_sc": "十八区坟场", "lat": "22.26546600", "long": "113.93646300", "routes": []}, "68": {"stop": "68", "name_en": "Shek Mun Kap Road", "name_tc": "石門甲道", "name_sc": "石门甲道", "lat": "22.26991800", "long": "113.93424300", "routes": []}, "69": {"stop": "69", "name_en": "Lung Tseng Tau", "name_tc": "龍井頭", "name_sc": "龙井头", "lat": "22.27597500", "long": "113.93337700", "routes": []}, "70": {"stop": "70", "name_en": "Wong Ka Wai", "name_tc": "黃家圍", "name_sc": "黄家围", "lat": "22.27716200", "long": "113.93381200", "routes": []}, "71": {"stop": "71", "name_en": "Ha Ling Pei", "name_tc": "下嶺皮", "name_sc": "下岭皮", "lat": "22.27873100", "long": "113.93547500", "routes": []}, "72": {"stop": "72", "name_en": "Sheung Ling Pei", "name_tc": "上嶺皮", "name_sc": "上岭皮", "lat": "22.27891200", "long": "113.93685600", "routes": []}, "73": {"stop": "73", "name_en": "Tung Chung Rural Committee Office", "name_tc": "東涌鄉事委員會", "name_sc": "东涌乡事委员会", "lat": "22.27913800", "long": "113.93929900", "routes": []}, "74": {"stop": "74", "name_en": "Ma Wan Sun Tsuen", "name_tc": "馬灣新村", "name_sc": "马湾新村", "lat": "22.27986500", "long": "113.94024300", "routes": []}, "77": {"stop": "77", "name_en": "Tung Chung Fire Station", "name_tc": "東涌消防局", "name_sc": "东涌消防局", "lat": "22.28603000", "long": "113.94105700", "routes": []}, "78": {"stop": "78", "name_en": "Tung Chung Cable Car Terminal", "name_tc": "東涌纜車站", "name_sc": "东涌缆车站", "lat": "22.28930100", "long": "113.93873300", "routes": []}, "79": {"stop": "79", "name_en": "Tung Chung Station Bus Terminus", "name_tc": "東涌站巴士總站", "name_sc": "东涌站巴士总站", "lat": "22.28986200", "long": "113.93961600", "routes": []}, "185": {"stop": "185", "name_en": "North Lantau Hospital (North Bound), Mei Yat House Yat Tung Estate", "name_tc": "北大嶼山醫院(北行), 逸東邨美逸樓", "name_sc": "北大屿山医院(北行), 逸东邨美逸楼", "lat": "22.28129500", "long": "113.93882200", "routes": []}, "76": {"stop": "76", "name_en": "North Lantau Hospital (South Bound)", "name_tc": "北大嶼山醫院(南行)", "name_sc": "北大屿山医院(南行)", "lat": "22.28186100", "long": "113.93880300", "routes": []}, "278": {"stop": "278", "name_en": "Tung Chung Station Bus Terminus", "name_tc": "東涌站巴士總站", "name_sc": "东涌站巴士总站", "lat": "22.28986200", "long": "113.93961600", "routes": []}, "80": {"stop": "80", "name_en": "Fu Tung Plaza", "name_tc": "富東廣場", "name_sc": "富东广场", "lat": "22.28887000", "long": "113.94210500", "routes": []}, "81": {"stop": "81", "name_en": "Yu Tung Court", "name_tc": "裕東苑", "name_sc": "裕东苑", "lat": "22.28607700", "long": "113.94160300", "routes": []}, "94": {"stop": "94", "name_en": "Tung Chung Rural Committee Office", "name_tc": "東涌鄉事委員會", "name_sc": "东涌乡事委员会", "lat": "22.27893600", "long": "113.93879500", "routes": []}, "279": {"stop": "279", "name_en": "Sheung Ling Pei", "name_tc": "上嶺皮", "name_sc": "上岭皮", "lat": "22.27879200", "long": "113.93714800", "routes": []}, "280": {"stop": "280", "name_en": "Ha Ling Pei", "name_tc": "下嶺皮", "name_sc": "下岭皮", "lat": "22.27851200", "long": "113.93542300", "routes": []}, "282": {"stop": "282", "name_en": "Wong Ka Wai", "name_tc": "黃家圍", "name_sc": "黄家围", "lat": "22.27703800", "long": "113.93397500", "routes": []}, "283": {"stop": "283", "name_en": "Lung Tseng Tau", "name_tc": "龍井頭", "name_sc": "龙井头", "lat": "22.27570700", "long": "113.93370700", "routes": []}, "284": {"stop": "284", "name_en": "Shek Mun Kap Road", "name_tc": "石門甲道", "name_sc": "石门甲道", "lat": "22.27047000", "long": "113.93446500", "routes": []}, "286": {"stop": "286", "name_en": "Cemetery Area No. 18", "name_tc": "十八區墳場", "name_sc": "十八区坟场", "lat": "22.26567800", "long": "113.93674000", "routes": []}, "287": {"stop": "287", "name_en": "Tung Chung Au Management Centre", "name_tc": "東涌坳管理站", "name_sc": "东涌坳管理站", "lat": "22.26410400", "long": "113.93755200", "routes": []}, "288": {"stop": "288", "name_en": "Pak Kung Au", "name_tc": "伯公坳", "name_sc": "伯公坳", "lat": "22.24893900", "long": "113.94259700", "routes": []}, "273": {"stop": "273", "name_en": "Cheung Sha Catchwater", "name_tc": "長沙引水道", "name_sc": "长沙引水道", "lat": "22.24000700", "long": "113.95733900", "routes": []}, "180": {"stop": "180", "name_en": "Pui O", "name_tc": "貝澳", "name_sc": "贝澳", "lat": "22.24309100", "long": "113.97712400", "routes": []}, "181": {"stop": "181", "name_en": "Tong Fuk", "name_tc": "塘福", "name_sc": "塘福", "lat": "22.22761600", "long": "113.93228900", "routes": []}, "321": {"stop": "321", "name_en": "Tung Chung Cable Car Terminal", "name_tc": "東涌纜車站", "name_sc": "东涌缆车站", "lat": "22.28930100", "long": "113.93873300", "routes": []}, "60": {"stop": "60", "name_en": "Ngong Ping Village", "name_tc": "昂坪市集", "name_sc": "昂坪市集", "lat": "22.25546100", "long": "113.90398100", "routes": []}, "318": {"stop": "318", "name_en": "Tung Chung Tat Tung Road Bus Terminus", "name_tc": "東涌達東路巴士總站", "name_sc": "东涌达东路巴士总站", "lat": "22.29058000", "long": "113.93935200", "routes": []}, "289": {"stop": "289", "name_en": "Yat Tung Estate", "name_tc": "逸東邨", "name_sc": "逸东邨", "lat": "22.28205300", "long": "113.93586200", "routes": []}, "90": {"stop": "90", "name_en": "Yu Tai Court", "name_tc": "裕泰苑", "name_sc": "裕泰苑", "lat": "22.28056500", "long": "113.94106400", "routes": []}, "91": {"stop": "91", "name_en": "Chek Lap Kok New Village", "name_tc": "赤立角新村", "name_sc": "赤立角新村", "lat": "22.27770400", "long": "113.94199600", "routes": []}, "92": {"stop": "92", "name_en": "Shek Mun Kap Village", "name_tc": "石門甲村", "name_sc": "石门甲村", "lat": "22.26940400", "long": "113.93199600", "routes": []}, "291": {"stop": "291", "name_en": "Shek Mun Kap", "name_tc": "石門甲", "name_sc": "石门甲", "lat": "22.26905700", "long": "113.93118500", "routes": []}, "93": {"stop": "93", "name_en": "Shek Mun Kap", "name_tc": "石門甲", "name_sc": "石门甲", "lat": "22.26905700", "long": "113.93118500", "routes": []}, "292": {"stop": "292", "name_en": "Shek Mun Kap Village", "name_tc": "石門甲村", "name_sc": "石门甲村", "lat": "22.26957500", "long": "113.93197800", "routes": []}, "89": {"stop": "89", "name_en": "Yat Tung Estate", "name_tc": "逸東邨", "name_sc": "逸东邨", "lat": "22.28205300", "long": "113.93586200", "routes": []}, "100": {"stop": "100", "name_en": "Citygate", "name_tc": "東薈城", "name_sc": "东薈城", "lat": "22.29013600", "long": "113.94147400", "routes": []}, "99": {"stop": "99", "name_en": "Pak Mong", "name_tc": "白芒", "name_sc": "白芒", "lat": "22.29796400", "long": "113.96758000", "routes": []}, "98": {"stop": "98", "name_en": "Government Maintenance Depot", "name_tc": "政府維修廠", "name_sc": "政府维修厂", "lat": "22.30893500", "long": "113.98945100", "routes": []}, "95": {"stop": "95", "name_en": "Siu Ho Wan", "name_tc": "小蠔灣", "name_sc": "小蚝湾", "lat": "22.31551900", "long": "113.99797500", "routes": []}, "327": {"stop": "327", "name_en": "Disneyland", "name_tc": "迪士尼樂園", "name_sc": "迪士尼乐园", "lat": "22.31635600", "long": "114.04573200", "routes": []}, "328": {"stop": "328", "name_en": "Disneyland", "name_tc": "迪士尼樂園", "name_sc": "迪士尼乐园", "lat": "22.31635600", "long": "114.04573200", "routes": []}, "293": {"stop": "293", "name_en": "Siu Ho Wan", "name_tc": "小蠔灣", "name_sc": "小蚝湾", "lat": "22.31551900", "long": "113.99797500", "routes": []}, "96": {"stop": "96", "name_en": "Siu Ho Wan Water Treatment Works", "name_tc": "小蠔灣濾水廠", "name_sc": "小蚝湾滤水厂", "lat": "22.31359500", "long": "113.99573400", "routes": []}, "97": {"stop": "97", "name_en": "Discovery Bay Tunnel", "name_tc": "愉景灣隧道", "name_sc": "愉景湾隧道", "lat": "22.31002200", "long": "113.99058400", "routes": []}, "294": {"stop": "294", "name_en": "Government Maintenance Depot", "name_tc": "政府維修廠", "name_sc": "政府维修厂", "lat": "22.30928300", "long": "113.98925400", "routes": []}, "295": {"stop": "295", "name_en": "Pak Mong", "name_tc": "白芒", "name_sc": "白芒", "lat": "22.29796400", "long": "113.96758000", "routes": []}, "309": {"stop": "309", "name_en": "Mun Tung Estate", "name_tc": "滿東邨", "name_sc": "满东邨", "lat": "22.27865300", "long": "113.93320300", "routes": []}, "306": {"stop": "306", "name_en": "Yung Yat House, Yat Tung Estate", "name_tc": "逸東邨雍逸樓", "name_sc": "逸东邨雍逸楼", "lat": "22.27974400", "long": "113.93699500", "routes": []}, "297": {"stop": "297", "name_en": "Ying Tung Estate", "name_tc": "迎東邨", "name_sc": "迎东邨", "lat": "22.29710400", "long": "113.95334200", "routes": []}, "191": {"stop": "191", "name_en": "The Visionary (South Bound)", "name_tc": "昇薈(南行)", "name_sc": "升薈(南行)", "lat": "22.29583500", "long": "113.95207700", "routes": []}, "110": {"stop": "110", "name_en": "Kin Tung Road", "name_tc": "健東路", "name_sc": "健东路", "lat": "22.29322200", "long": "113.94941000", "routes": []}, "298": {"stop": "298", "name_en": "Caribbean Coast Phase 2", "name_tc": "映灣園二期", "name_sc": "映湾园二期", "lat": "22.29193200", "long": "113.95049000", "routes": []}, "111": {"stop": "111", "name_en": "Yi Tung Road", "name_tc": "怡東路", "name_sc": "怡东路", "lat": "22.29094900", "long": "113.94801200", "routes": []}, "112": {"stop": "112", "name_en": "E Wun Secondary School", "name_tc": "怡文中學", "name_sc": "怡文中学", "lat": "22.29085000", "long": "113.94461100", "routes": []}, "299": {"stop": "299", "name_en": "Seaview Crescent", "name_tc": "海堤灣畔", "name_sc": "海堤湾畔", "lat": "22.29303900", "long": "113.94317900", "routes": []}, "105": {"stop": "105", "name_en": "Tung Chung MTR Station", "name_tc": "東涌港鐵站", "name_sc": "东涌港铁站", "lat": "22.28961300", "long": "113.94021000", "routes": []}, "310": {"stop": "310", "name_en": "Mun Tung Estate", "name_tc": "滿東邨", "name_sc": "满东邨", "lat": "22.27892200", "long": "113.93455600", "routes": []}, "101": {"stop": "101", "name_en": "Chung Yat Street", "name_tc": "松逸街", "name_sc": "松逸街", "lat": "22.27616400", "long": "113.93182300", "routes": []}, "102": {"stop": "102", "name_en": "Chung Mun Road", "name_tc": "松滿路", "name_sc": "松满路", "lat": "22.27720100", "long": "113.93170000", "routes": []}, "103": {"stop": "103", "name_en": "Fuk Yat House, Yat Tung Estate", "name_tc": "逸東邨福逸樓", "name_sc": "逸东邨福逸楼", "lat": "22.27921600", "long": "113.93465100", "routes": []}, "104": {"stop": "104", "name_en": "Yung Yat House, Yat Tung Estate", "name_tc": "逸東邨雍逸樓", "name_sc": "逸东邨雍逸楼", "lat": "22.27959200", "long": "113.93671200", "routes": []}, "88": {"stop": "88", "name_en": "Kui Yat House, Yat Tung Estate", "name_tc": "逸東邨居逸樓", "name_sc": "逸东邨居逸楼", "lat": "22.28236900", "long": "113.93657600", "routes": []}, "107": {"stop": "107", "name_en": "Seaview Crescent", "name_tc": "海堤灣畔", "name_sc": "海堤湾畔", "lat": "22.29292500", "long": "113.94347100", "routes": []}, "108": {"stop": "108", "name_en": "Coastal Skyline", "name_tc": "藍天海岸", "name_sc": "蓝天海岸", "lat": "22.29094200", "long": "113.94593100", "routes": []}, "186": {"stop": "186", "name_en": "Caribbean Coast Phase 3", "name_tc": "映灣園三期", "name_sc": "映湾园三期", "lat": "22.29142400", "long": "113.94897500", "routes": []}, "109": {"stop": "109", "name_en": "Caribbean Coast Phase 2", "name_tc": "映灣園二期", "name_sc": "映湾园二期", "lat": "22.29188200", "long": "113.95001000", "routes": []}, "190": {"stop": "190", "name_en": "The Visionary(North Bound)", "name_tc": "昇薈(北行)", "name_sc": "升薈(北行)", "lat": "22.29582300", "long": "113.95190700", "routes": []}, "193": {"stop": "193", "name_en": "Ying Tung Estate", "name_tc": "迎東邨", "name_sc": "迎东邨", "lat": "22.29710400", "long": "113.95334200", "routes": []}, "106": {"stop": "106", "name_en": "Tung Chung Development Ferry Pier", "name_tc": "東涌發展碼頭", "name_sc": "东涌发展码头", "lat": "22.29384600", "long": "113.94044900", "routes": []}, "320": {"stop": "320", "name_en": "North Lantau Hospital (North Bound), Mei Yat House Yat Tung Estate", "name_tc": "北大嶼山醫院(北行), 逸東邨美逸樓", "name_sc": "北大屿山医院(北行), 逸东邨美逸楼", "lat": "22.28129500", "long": "113.93882200", "routes": []}, "188": {"stop": "188", "name_en": "North Lantau Hospital(Main Block)", "name_tc": "北大嶼山醫院(主座大樓)", "name_sc": "北大屿山医院(主座大楼)", "lat": "22.28202800", "long": "113.93926900", "routes": []}, "322": {"stop": "322", "name_en": "North Lantau Hospital (South Bound)", "name_tc": "北大嶼山醫院(南行)", "name_sc": "北大屿山医院(南行)", "lat": "22.28186100", "long": "113.93880300", "routes": []}, "319": {"stop": "319", "name_en": "Tung Chung Development Ferry Pier", "name_tc": "東涌發展碼頭", "name_sc": "东涌发展码头", "lat": "22.29384600", "long": "113.94044900", "routes": []}, "194": {"stop": "194", "name_en": "Caribbean Coast Phase 1", "name_tc": "映灣園一期", "name_sc": "映湾园一期", "lat": "22.29349500", "long": "113.95181600", "routes": []}, "192": {"stop": "192", "name_en": "Ying Hei Road", "name_tc": "迎禧路", "name_sc": "迎禧路", "lat": "22.29431000", "long": "113.94999600", "routes": []}, "324": {"stop": "324", "name_en": "Yu Nga Court", "name_tc": "裕雅苑", "name_sc": "裕雅苑", "lat": "22.29419400", "long": "113.94725400", "routes": []}, "303": {"stop": "303", "name_en": "Century Link", "name_tc": "東環", "name_sc": "东环", "lat": "22.29439800", "long": "113.94907100", "routes": []}, "315": {"stop": "315", "name_en": "Caribbean Coast", "name_tc": "映灣園", "name_sc": "映湾园", "lat": "22.29322200", "long": "113.94941000", "routes": []}, "307": {"stop": "307", "name_en": "HZMB Hong Kong Port", "name_tc": "大橋香港口岸", "name_sc": "大桥香港口岸", "lat": "22.31640000", "long": "113.95085600", "routes": []}, "117": {"stop": "117", "name_en": "Airport (Passenger Terminal Building)", "name_tc": "機場(客運大樓)", "name_sc": "机场(客运大楼)", "lat": "22.31456900", "long": "113.93661000", "routes": []}, "118": {"stop": "118", "name_en": "Cheong Tat Road", "name_tc": "暢達路", "name_sc": "畅达路", "lat": "22.31623600", "long": "113.93594800", "routes": []}, "120": {"stop": "120", "name_en": "Regal Airport Hotel", "name_tc": "富豪機場酒店", "name_sc": "富豪机场酒店", "lat": "22.31943000", "long": "113.93394200", "routes": []}, "274": {"stop": "274", "name_en": "Cathay City", "name_tc": "國泰城", "name_sc": "国泰城", "lat": "22.29755500", "long": "113.93336000", "routes": []}, "277": {"stop": "277", "name_en": "Aviation Fuel Tank Farm", "name_tc": "飛機燃料庫", "name_sc": "飞机燃料库", "lat": "22.29307500", "long": "113.93222900", "routes": []}, "114": {"stop": "114", "name_en": "Aviation Fuel Tank Farm", "name_tc": "飛機燃料庫", "name_sc": "飞机燃料库", "lat": "22.29358400", "long": "113.93212900", "routes": []}, "115": {"stop": "115", "name_en": "Cathay City", "name_tc": "國泰城", "name_sc": "国泰城", "lat": "22.29754600", "long": "113.93281400", "routes": []}, "116": {"stop": "116", "name_en": "Gate House No. 2", "name_tc": "二號檢查閘", "name_sc": "二号检查闸", "lat": "22.31053500", "long": "113.93710700", "routes": []}, "308": {"stop": "308", "name_en": "HZMB Hong Kong Port Passenger Clearance Building", "name_tc": "大橋香港口岸旅檢大樓", "name_sc": "大桥香港口岸旅检大楼", "lat": "22.31721100", "long": "113.95053100", "routes": []}, "152": {"stop": "152", "name_en": "Shenzhen Bay Port", "name_tc": "深圳灣口岸", "name_sc": "深圳湾口岸", "lat": "22.49743300", "long": "113.95050900", "routes": []}, "196": {"stop": "196", "name_en": "Lam Tei LTR Station", "name_tc": "藍地輕鐵站", "name_sc": "蓝地轻铁站", "lat": "22.41844400", "long": "113.98214600", "routes": []}, "153": {"stop": "153", "name_en": "Tsing Chuen Wai", "name_tc": "青磚圍", "name_sc": "青砖围", "lat": "22.42245200", "long": "113.98530500", "routes": []}, "154": {"stop": "154", "name_en": "Nai Wai LTR Station", "name_tc": "泥圍輕鐵站", "name_sc": "泥围轻铁站", "lat": "22.42364800", "long": "113.98631300", "routes": []}, "147": {"stop": "147", "name_en": "Yick Yuen Tsuen", "name_tc": "亦園村", "name_sc": "亦园村", "lat": "22.42716800", "long": "113.98972800", "routes": []}, "146": {"stop": "146", "name_en": "Chung Uk Tsuen LTR Station", "name_tc": "鍾屋村輕鐵站", "name_sc": "钟屋村轻铁站", "lat": "22.42967300", "long": "113.99223500", "routes": []}, "145": {"stop": "145", "name_en": "Hung Shui Kiu LTR Station", "name_tc": "洪水橋輕鐵站", "name_sc": "洪水桥轻铁站", "lat": "22.43385800", "long": "113.99775000", "routes": []}, "144": {"stop": "144", "name_en": "Tai Tao Tsuen", "name_tc": "大道村", "name_sc": "大道村", "lat": "22.43645100", "long": "114.00145900", "routes": []}, "143": {"stop": "143", "name_en": "Fui Sha Wai", "name_tc": "灰沙圍", "name_sc": "灰沙围", "lat": "22.43851400", "long": "114.00465400", "routes": []}, "155": {"stop": "155", "name_en": "Tong Fong Tsuen LRT Station", "name_tc": "塘坊村輕鐵站", "name_sc": "塘坊村轻铁站", "lat": "22.44021000", "long": "114.00731200", "routes": []}, "156": {"stop": "156", "name_en": "Ping Shan LRT Station", "name_tc": "屏山輕鐵站", "name_sc": "屏山轻铁站", "lat": "22.44321600", "long": "114.01293000", "routes": []}, "157": {"stop": "157", "name_en": "Villa By The Park", "name_tc": "朗庭園", "name_sc": "朗庭园", "lat": "22.44425900", "long": "114.01818900", "routes": []}, "158": {"stop": "158", "name_en": "Hi Lee Path", "name_tc": "喜利徑", "name_sc": "喜利径", "lat": "22.44465400", "long": "114.02580200", "routes": []}, "159": {"stop": "159", "name_en": "Tung Lok Street", "name_tc": "同樂街", "name_sc": "同乐街", "lat": "22.44462900", "long": "114.02822500", "routes": []}, "160": {"stop": "160", "name_en": "Kuk Ting Street", "name_tc": "谷亭街", "name_sc": "谷亭街", "lat": "22.44457800", "long": "114.03023000", "routes": []}, "134": {"stop": "134", "name_en": "Yuen Long MTR Station", "name_tc": "元朗港鐵站", "name_sc": "元朗港铁站", "lat": "22.44615300", "long": "114.03388800", "routes": []}, "161": {"stop": "161", "name_en": "Yuen Long MTR Station", "name_tc": "元朗港鐵站", "name_sc": "元朗港铁站", "lat": "22.44618900", "long": "114.03481600", "routes": []}, "135": {"stop": "135", "name_en": "Yau San Street", "name_tc": "又新街", "name_sc": "又新街", "lat": "22.44430800", "long": "114.03125200", "routes": []}, "136": {"stop": "136", "name_en": "Tai Tong Road", "name_tc": "大棠路", "name_sc": "大棠路", "lat": "22.44435500", "long": "114.02825500", "routes": []}, "137": {"stop": "137", "name_en": "Yuen Long Police Station", "name_tc": "元朗警署", "name_sc": "元朗警署", "lat": "22.44438300", "long": "114.02408500", "routes": []}, "138": {"stop": "138", "name_en": "Shui Pin Tsuen", "name_tc": "水邊村", "name_sc": "水边村", "lat": "22.44440700", "long": "114.02078100", "routes": []}, "139": {"stop": "139", "name_en": "Yuen Long Park", "name_tc": "元朗公園", "name_sc": "元朗公园", "lat": "22.44411700", "long": "114.01901300", "routes": []}, "140": {"stop": "140", "name_en": "Long Bin", "name_tc": "朗邊", "name_sc": "朗边", "lat": "22.44338600", "long": "114.01479900", "routes": []}, "141": {"stop": "141", "name_en": "Ping Shan", "name_tc": "屏山", "name_sc": "屏山", "lat": "22.44167400", "long": "114.01037800", "routes": []}, "142": {"stop": "142", "name_en": "San Hei Tsuen", "name_tc": "新起村", "name_sc": "新起村", "lat": "22.44001900", "long": "114.00763600", "routes": []}, "197": {"stop": "197", "name_en": "Fui Sha Wai", "name_tc": "灰沙圍", "name_sc": "灰沙围", "lat": "22.43866900", "long": "114.00540400", "routes": []}, "199": {"stop": "199", "name_en": "Tai Tao Tsuen", "name_tc": "大道村", "name_sc": "大道村", "lat": "22.43653300", "long": "114.00211500", "routes": []}, "302": {"stop": "302", "name_en": "Uptown", "name_tc": "尚城", "name_sc": "尚城", "lat": "22.43530000", "long": "114.00031400", "routes": []}, "200": {"stop": "200", "name_en": "Hung Shui Kiu LTR Station", "name_tc": "洪水橋輕鐵站", "name_sc": "洪水桥轻铁站", "lat": "22.43351800", "long": "113.99781500", "routes": []}, "201": {"stop": "201", "name_en": "Chung Uk Tsuen LTR Station", "name_tc": "鍾屋村輕鐵站", "name_sc": "钟屋村轻铁站", "lat": "22.42958700", "long": "113.99258700", "routes": []}, "195": {"stop": "195", "name_en": "Yick Yuen Tsuen", "name_tc": "亦園村", "name_sc": "亦园村", "lat": "22.42739600", "long": "113.99036600", "routes": []}, "148": {"stop": "148", "name_en": "Nai Wai", "name_tc": "泥圍", "name_sc": "泥围", "lat": "22.42362300", "long": "113.98679600", "routes": []}, "149": {"stop": "149", "name_en": "Fuk Hang Tsuen", "name_tc": "福亨村", "name_sc": "福亨村", "lat": "22.42236000", "long": "113.98564000", "routes": []}, "150": {"stop": "150", "name_en": "Miu Fat Buddhist Monastery", "name_tc": "妙法寺", "name_sc": "妙法寺", "lat": "22.42043900", "long": "113.98387800", "routes": []}, "151": {"stop": "151", "name_en": "Lam Tei LTR Station", "name_tc": "藍地輕鐵站", "name_sc": "蓝地轻铁站", "lat": "22.41832800", "long": "113.98238500", "routes": []}, "203": {"stop": "203", "name_en": "Tin Shui Wai (Tin Tsz Estate)", "name_tc": "天水圍 (天慈邨)", "name_sc": "天水围 (天慈邨)", "lat": "22.45353600", "long": "114.00711100", "routes": []}, "163": {"stop": "163", "name_en": "Harbour Plaza Resort City", "name_tc": "嘉湖海逸酒店", "name_sc": "嘉湖海逸酒店", "lat": "22.45860500", "long": "114.00326000", "routes": []}, "164": {"stop": "164", "name_en": "Tin Shui Wai Town Centre", "name_tc": "天水圍市中心", "name_sc": "天水围市中心", "lat": "22.45849800", "long": "114.00199400", "routes": []}, "165": {"stop": "165", "name_en": "Chestwood Court, Kingswood Villas", "name_tc": "嘉湖山莊翠湖居", "name_sc": "嘉湖山庄翠湖居", "lat": "22.45959500", "long": "113.99998400", "routes": []}, "205": {"stop": "205", "name_en": "Tin Shui Estate", "name_tc": "天瑞邨", "name_sc": "天瑞邨", "lat": "22.45659700", "long": "113.99943400", "routes": []}, "206": {"stop": "206", "name_en": "Tin Shui Wai Park", "name_tc": "天水圍公園", "name_sc": "天水围公园", "lat": "22.45455500", "long": "114.00305500", "routes": []}, "168": {"stop": "168", "name_en": "Yiu Shing House, Tin Yiu Estate", "name_tc": "天耀邨耀盛樓", "name_sc": "天耀邨耀盛楼", "lat": "22.45222100", "long": "114.00216500", "routes": []}, "169": {"stop": "169", "name_en": "Yiu Man House, Tin Yiu Estate", "name_tc": "天耀邨耀民樓", "name_sc": "天耀邨耀民楼", "lat": "22.44955000", "long": "114.00317400", "routes": []}, "207": {"stop": "207", "name_en": "Tin Shing Court", "name_tc": "天盛苑", "name_sc": "天盛苑", "lat": "22.44669700", "long": "114.00300000", "routes": []}, "170": {"stop": "170", "name_en": "Tin Shing Court", "name_tc": "天盛苑", "name_sc": "天盛苑", "lat": "22.44698800", "long": "114.00279400", "routes": []}, "171": {"stop": "171", "name_en": "Tin Shui Wai Police Station", "name_tc": "天水圍警署", "name_sc": "天水围警署", "lat": "22.45017100", "long": "114.00250400", "routes": []}, "172": {"stop": "172", "name_en": "Sherwood Court, Kingswood Villas", "name_tc": "嘉湖山莊賞湖居", "name_sc": "嘉湖山庄赏湖居", "lat": "22.45255000", "long": "114.00216900", "routes": []}, "167": {"stop": "167", "name_en": "Tin Shui Wai Park", "name_tc": "天水圍公園", "name_sc": "天水围公园", "lat": "22.45455700", "long": "114.00254300", "routes": []}, "166": {"stop": "166", "name_en": "Tin Shui Estate", "name_tc": "天瑞邨", "name_sc": "天瑞邨", "lat": "22.45699400", "long": "113.99885700", "routes": []}, "173": {"stop": "173", "name_en": "Tin Chung Court", "name_tc": "天頌苑", "name_sc": "天颂苑", "lat": "22.45986400", "long": "114.00007900", "routes": []}, "174": {"stop": "174", "name_en": "Lynwood Court, Kingswood Villas", "name_tc": "嘉湖山莊麗湖居", "name_sc": "嘉湖山庄丽湖居", "lat": "22.45893400", "long": "114.00359200", "routes": []}, "175": {"stop": "175", "name_en": "Kenswood Court, Kingswood Villas", "name_tc": "嘉湖山莊景湖居", "name_sc": "嘉湖山庄景湖居", "lat": "22.45736400", "long": "114.00579700", "routes": []}, "162": {"stop": "162", "name_en": "Tin Shui Wai (Tin Tsz Estate)", "name_tc": "天水圍 (天慈邨)", "name_sc": "天水围 (天慈邨)", "lat": "22.45353600", "long": "114.00711100", "routes": []}, "176": {"stop": "176", "name_en": "Tin Shui Wai (Tin Yiu Estate)", "name_tc": "天水圍 (天耀邨)", "name_sc": "天水围 (天耀邨)", "lat": "22.45053000", "long": "114.00302900", "routes": []}, "311": {"stop": "311", "name_en": "AsiaWorld-Expo", "name_tc": "機場博覽館", "name_sc": "机场博览馆", "lat": "22.31932300", "long": "113.94044600", "routes": []}, "312": {"stop": "312", "name_en": "Hong Kong SkyCity Marriott Hotel", "name_tc": "香港天際萬豪酒店", "name_sc": "香港天际万豪酒店", "lat": "22.31777700", "long": "113.94331700", "routes": []}, "313": {"stop": "313", "name_en": "HZMB Hong Kong Port", "name_tc": "大橋香港口岸", "name_sc": "大桥香港口岸", "lat": "22.31640000", "long": "113.95085600", "routes": []}, "121": {"stop": "121", "name_en": "Chek Lap Kok South Road", "name_tc": "赤鱲角南路", "name_sc": "赤鱲角南路", "lat": "22.29188300", "long": "113.92825100", "routes": []}, "122": {"stop": "122", "name_en": "Asia Airfreight Terminal", "name_tc": "亞洲空運中心", "name_sc": "亚洲空运中心", "lat": "22.29606500", "long": "113.92080600", "routes": []}, "124": {"stop": "124", "name_en": "Airport Freight Forwarding Centre", "name_tc": "機場空運中心", "name_sc": "机场空运中心", "lat": "22.29501600", "long": "113.92332900", "routes": []}, "125": {"stop": "125", "name_en": "HACTL", "name_tc": "香港空運貨站", "name_sc": "香港空运货站", "lat": "22.29712400", "long": "113.92978400", "routes": []}, "187": {"stop": "187", "name_en": "Chun Wan Road South", "name_tc": "駿運南路", "name_sc": "骏运南路", "lat": "22.29631900", "long": "113.92846900", "routes": []}, "126": {"stop": "126", "name_en": "Airport Freight Forwarding Centre", "name_tc": "機場空運中心", "name_sc": "机场空运中心", "lat": "22.29500500", "long": "113.92434000", "routes": []}, "276": {"stop": "276", "name_en": "Chek Lap Kok South Road", "name_tc": "赤鱲角南路", "name_sc": "赤鱲角南路", "lat": "22.29197000", "long": "113.92875900", "routes": []}}